{"name":"上海市","other_names":{"ref":"沪","name:ar":"شانغهاي","name:az":"Şanxay","name:ba":"Шанхай","name:bg":"Шанхай","name:ca":"Xangai","name:cs":"Šanghaj","name:da":"Shanghai","name:de":"Shanghai","name:el":"Σαγκάη","name:en":"Shanghai","name:eo":"Ŝanhajo","name:es":"Shanghái","name:et":"Shanghai","name:eu":"Shanghai","name:fi":"Shanghai","name:fr":"Shanghaï","name:he":"שאנגחאי","name:hi":"शंघाई","name:hr":"Šangaj","name:hu":"Shanghai","name:ia":"Shanghai","name:id":"Shanghai","name:io":"Shanghai","name:it":"Shanghai","name:ja":"上海市","name:kk":"Шаңхай","name:kn":"ಶಾಂಗ್‌ಹೈ","name:ko":"상하이","name:ku":"Şanghay","name:lt":"Šanchajus","name:mi":"Hangahai","name:ml":"ഷാങ്ഹായ്","name:ms":"Shanghai","name:nl":"Shanghai","name:oc":"Shanghai","name:pl":"Szanghaj","name:pt":"Xangai","name:ru":"Шанхай","name:sk":"Šanghaj","name:sr":"Шангај","name:su":"Shanghai","name:sv":"Shanghai","name:ta":"சாங்காய்","name:th":"เซี่ยงไฮ้","name:tl":"Shanghai","name:tr":"Şanhay","name:tt":"Шаңхай","name:uk":"Шанхай","name:ur":"شنگھائی","name:uz":"Shanxay","name:vi":"Thượng Hải","name:zh":"上海市","int_name":"Shanghai","name:cdo":"Siông-hāi","name:ceb":"Shanghai","name:gan":"上海","name:hak":"Sông-hói","name:jbo":".canxais.","name:lzh":"上海市","name:nan":"Siōng-hái-chhī","name:wuu":"上海市","name:yue":"上海市","alt_name:ar":"شنغهاي","alt_name:cs":"Šang-chaj","alt_name:tr":"Şanghay","name:zh-Hans":"上海市","name:zh-Hant":"上海市","name:ko_hanja":"上海市","name:zh_pinyin":"Shànghǎi Shì"},"display_name":"上海市, 黄浦区, 上海市, 200001, 中国","address":{"city":"上海市","state":"上海市","ISO3166-2-lvl4":"CN-SH","postcode":"200001","country":"中国","country_code":"cn"},"population":24870895,"osm_type":"node","osm_id":778910398,"type":"city","location":[121.4691024,31.2323437],"bbox":[121.3091024,31.0723437,121.6291024,31.3923437]}{"name":"Sornàs","display_name":"Sornàs, Ordino, AD300, Andorra","address":{"town":"Sornàs","municipality":"Ordino","ISO3166-2-lvl7":"AD-05","postcode":"AD300","country":"Andorra","country_code":"ad"},"osm_type":"way","osm_id":1128071366,"type":"town","location":[1.52802608059201,42.564487],"bbox":[1.5266023,42.5637419,1.5292351,42.5657807]}
{"name":"Sant Julià de Lòria","other_names":{"name:be":"Сант-Жулія-дэ-Лорыя","name:ca":"Sant Julià de Lòria","name:el":"Σαντ Ζουλιά ντε Λόρια","name:lt":"Sant Chulija de Lorija","name:ru":"Сант-Жулия-де-Лория","name:be-tarask":"Сант Жулія дэ Лёрыя"},"display_name":"Sant Julià de Lòria, AD600, Andorra","address":{"town":"Sant Julià de Lòria","municipality":"Sant Julià de Lòria","ISO3166-2-lvl7":"AD-06","postcode":"AD600","country":"Andorra","country_code":"ad"},"population":9207,"osm_type":"node","osm_id":64954486,"type":"town","location":[1.4923277,42.4668541],"bbox":[1.4523277,42.4268541,1.5323277,42.5068541]}{"name":"Les Escaldes","other_names":{"name:be":"Лэс-Эскальдэс","name:ca":"Les Escaldes","name:el":"Λες Εσκάλντες","name:lt":"Les Eskaldesas","name:ru":"Эскальдес","name:be-tarask":"Лэс Эскальдэс"},"display_name":"Les Escaldes, Escaldes-Engordany, AD700, Andorra","address":{"town":"Les Escaldes","municipality":"Escaldes-Engordany","ISO3166-2-lvl7":"AD-08","postcode":"AD700","country":"Andorra","country_code":"ad"},"osm_type":"node","osm_id":64954589,"type":"town","location":[1.5380437,42.5088341],"bbox":[1.4980437,42.4688341,1.5780437,42.5488341]}
{"name":"Andorra la Vella","other_names":{"name:am":"አንዶራ ላ ቬላ","name:an":"Andorra la Biella","name:ar":"أندورا لا فيلا","name:be":"Андора-ла-Велья","name:bg":"Андора ла Веля","name:bn":"আন্দরা লা ভেলিয়া","name:bo":"ཨན་ཌོར་ར་གྲོང་ཁྱེར།","name:br":"Andorra la Vella","name:ca":"Andorra la Vella","name:ce":"Андорра-ла-Велья","name:cv":"Андорра-ла-Вьеха","name:de":"Andorra la Vella","name:el":"Ανδόρρα λα Βέγια","name:en":"Andorra la Vella","name:eo":"Andoro Malnova","name:es":"Andorra la Vieja","name:fa":"آندورا لاولا","name:fr":"Andorre-la-Vieille","name:gl":"Andorra a Vella","name:he":"אנדורה לה ולה","name:ht":"Andò-la-Vyèy","name:hu":"Andorra la Vella","name:hy":"Անդորա լա Վելյա","name:is":"Andorra la Vella","name:it":"Andorra la Vella","name:ja":"アンドラ・ラ・ベリャ","name:ka":"ანდორა-ლა-ველა","name:kk":"Андорра-ла-Велья","name:ko":"안도라라벨랴","name:ks":"انڈورا لا ویخا","name:ku":"Andorra la Vella","name:kv":"Андорра-ла-Велья","name:la":"Andorra Vetus","name:lt":"Andora","name:lv":"Andora la Velja","name:mk":"Андора ла Велја","name:ml":"അൻഡോറ ല വെല്ല","name:mr":"अँडोरा ला व्हेल्या","name:nl":"Andorra","name:oc":"Andòrra la Vièlha","name:os":"Андоррæ-ла-Велья","name:pl":"Andora","name:pt":"Andorra-a-Velha","name:ru":"Андорра-ла-Велья","name:sk":"Andorra","name:sr":"Андора ла Веља","name:sv":"Andorra la Vella","name:ta":"அன்டோரா லா வெல்லா","name:tg":"Андорра-ла-Веля","name:th":"อันดอร์ราลาเบยา","name:tl":"Lungsod ng Andorra la Vella","name:ug":"ئاندوررا كەنتى","name:uk":"Андорра-ла-Велья","name:ur":"انڈورا لا ویلا","name:zh":"安道爾城","name:arz":"أندورا لا فيلا","name:azb":"آندورا لا ویخا","name:ckb":"ئەندۆرا لا ڤێلا","name:frp":"Andorra-la-Vielye","name:hyw":"Անտորրա Լէ Վալէ","name:lij":"A Vella","name:nah":"Andorra in Huehcāuh","name:ota":"آندورا لا ویخا","name:pnb":"انڈورا لا ویلا","name:sah":"Андорра ла Велья","name:tet":"Andorra Tuan","name:udm":"Андорра-ла-Велья","name:vep":"Andorr la Vel'j","alt_name:gl":"Andorra la Vella","name:az-Arab":"آندورا لا ویخا","name:bat-smg":"Anduora","name:kk-Arab":"اندوررا-لا-ۆەليا","name:zh-Hans":"安道尔城","name:zh-Hant":"安道爾城","name:be-tarask":"Андора ля Вэльля"},"display_name":"Andorra la Vella, AD500, Andorra","address":{"town":"Andorra la Vella","municipality":"Andorra la Vella","ISO3166-2-lvl7":"AD-07","postcode":"AD500","country":"Andorra","country_code":"ad"},"population":24678,"osm_type":"node","osm_id":58957648,"type":"town","location":[1.5212467,42.5069391],"bbox":[1.4812467,42.4669391,1.5612467,42.5469391]}
{"name":"Encamp","other_names":{"name:be":"Энкамп","name:ca":"Encamp","name:de":"Encamp","name:el":"Ενκάμπ","name:fr":"Encamp","name:lt":"Enkampas","name:ru":"Энкамп","name:sr":"Енкамп","name:ur":"انکامپ","name:zh":"恩坎普","name:be-tarask":"Энкамп"},"display_name":"Encamp, Andorra","address":{"town":"Encamp","ISO3166-2-lvl7":"AD-03","country":"Andorra","country_code":"ad"},"osm_type":"node","osm_id":64954584,"type":"town","location":[1.5836096,42.5360425],"bbox":[1.5436096,42.4960425,1.6236096,42.5760425]}
{"name":"La Massana","other_names":{"name:be":"Ла-Масана","name:ca":"La Massana","name:el":"Λα Μασάνα","name:lt":"La Masana","name:ru":"Ла-Массана","name:be-tarask":"Ля Масана"},"display_name":"La Massana, Andorra","address":{"town":"La Massana","ISO3166-2-lvl7":"AD-04","country":"Andorra","country_code":"ad"},"osm_type":"node","osm_id":64954563,"type":"town","location":[1.5163754,42.5442014],"bbox":[1.4763754,42.5042014,1.5563754,42.5842014]}
{"name":"Ordino","other_names":{"name:be":"Ардына","name:ca":"Ordino","name:el":"Ορδίνο","name:lt":"Ordinas","name:ru":"Ордино","name:be-tarask":"Ардзіна"},"display_name":"Ordino, AD300, Andorra","address":{"town":"Ordino","municipality":"Ordino","ISO3166-2-lvl7":"AD-05","postcode":"AD300","country":"Andorra","country_code":"ad"},"osm_type":"node","osm_id":58963219,"type":"town","location":[1.5334945,42.55615],"bbox":[1.4934945,42.51615,1.5734945,42.59615]}
{"name":"Canillo","other_names":{"name:be":"Канільё","name:ca":"Canillo","name:el":"Κανίλιο","name:lt":"Kaniljas","name:ru":"Канильо","name:zh":"卡尼略","name:be-tarask":"Канільлё"},"display_name":"Canillo, AD100, Andorra","address":{"town":"Canillo","municipality":"Canillo","ISO3166-2-lvl7":"AD-02","postcode":"AD100","country":"Andorra","country_code":"ad"},"osm_type":"node","osm_id":64954433,"type":"town","location":[1.5977647,42.5668305],"bbox":[1.5577647,42.5268305,1.6377647,42.6068305]}
{"name":"Fontaneda","other_names":{"name:ca":"Fontaneda","name:ru":"Фонтанеда"},"display_name":"Fontaneda, Sant Julià de Lòria, AD600, Andorra","address":{"village":"Fontaneda","municipality":"Sant Julià de Lòria","ISO3166-2-lvl7":"AD-06","postcode":"AD600","country":"Andorra","country_code":"ad"},"osm_type":"node","osm_id":64954508,"type":"village","location":[1.4640242,42.4543091],"bbox":[1.4440242,42.4343091,1.4840242,42.4743091]}
{"name":"Juberri","other_names":{"name:ca":"Juberri","name:ru":"Джубери"},"display_name":"Juberri, Sant Julià de Lòria, AD600, Andorra","address":{"village":"Juberri","municipality":"Sant Julià de Lòria","ISO3166-2-lvl7":"AD-06","postcode":"AD600","country":"Andorra","country_code":"ad"},"osm_type":"node","osm_id":64954382,"type":"village","location":[1.4917822,42.4391742],"bbox":[1.4717822,42.4191742,1.5117822,42.4591742]}
{"name":"Aixirivall","other_names":{"name:ca":"Aixirivall","name:ru":"Айширивалль"},"display_name":"Aixirivall, Sant Julià de Lòria, AD600, Andorra","address":{"village":"Aixirivall","municipality":"Sant Julià de Lòria","ISO3166-2-lvl7":"AD-06","postcode":"AD600","country":"Andorra","country_code":"ad"},"osm_type":"node","osm_id":64954593,"type":"village","location":[1.5016173,42.4620002],"bbox":[1.4816173,42.4420002,1.5216173,42.4820002]}
{"name":"Aubinyà","other_names":{"name:ca":"Aubinyà","name:ru":"Аубинья"},"display_name":"Aubinyà, Sant Julià de Lòria, AD600, Andorra","address":{"village":"Aubinyà","municipality":"Sant Julià de Lòria","ISO3166-2-lvl7":"AD-06","postcode":"AD600","country":"Andorra","country_code":"ad"},"osm_type":"node","osm_id":64954377,"type":"village","location":[1.4921448,42.45368],"bbox":[1.4721448,42.43368,1.5121448,42.47368]}
{"name":"la Margineda","other_names":{"name:ca":"la Margineda","name:ru":"Ла Мархинеда"},"display_name":"la Margineda, Andorra la Vella, AD500, Andorra","address":{"village":"la Margineda","municipality":"Andorra la Vella","ISO3166-2-lvl7":"AD-07","postcode":"AD500","country":"Andorra","country_code":"ad"},"osm_type":"node","osm_id":2125770584,"type":"village","location":[1.4913963,42.4870099],"bbox":[1.4713963,42.4670099,1.5113963,42.5070099]}
{"name":"Bixessarri","other_names":{"name:ca":"Bixessarri","name:ru":"Бишесарри"},"display_name":"Bixessarri, Sant Julià de Lòria, AD600, Andorra","address":{"village":"Bixessarri","municipality":"Sant Julià de Lòria","ISO3166-2-lvl7":"AD-06","postcode":"AD600","country":"Andorra","country_code":"ad"},"osm_type":"node","osm_id":64954400,"type":"village","location":[1.4566808,42.4836288],"bbox":[1.4366808,42.4636288,1.4766808,42.5036288]}
{"name":"Aixovall","other_names":{"name:ca":"Aixovall","name:ru":"Ашаваль"},"display_name":"Aixovall, Sant Julià de Lòria, AD600, Andorra","address":{"village":"Aixovall","municipality":"Sant Julià de Lòria","ISO3166-2-lvl7":"AD-06","postcode":"AD600","country":"Andorra","country_code":"ad"},"osm_type":"node","osm_id":64954525,"type":"village","location":[1.4887515,42.4769809],"bbox":[1.4687515,42.4569809,1.5087515,42.4969809]}
{"name":"Nagol","other_names":{"name:ca":"Nagol","name:ru":"Наголь"},"display_name":"Nagol, Sant Julià de Lòria, AD600, Andorra","address":{"village":"Nagol","municipality":"Sant Julià de Lòria","ISO3166-2-lvl7":"AD-06","postcode":"AD600","country":"Andorra","country_code":"ad"},"osm_type":"node","osm_id":64954385,"type":"village","location":[1.499592,42.4705142],"bbox":[1.479592,42.4505142,1.519592,42.4905142]}
{"name":"Llumeneres","other_names":{"name:ca":"Llumeneres","name:ru":"Льюменерес"},"display_name":"Llumeneres, Sant Julià de Lòria, AD600, Andorra","address":{"village":"Llumeneres","municipality":"Sant Julià de Lòria","ISO3166-2-lvl7":"AD-06","postcode":"AD600","country":"Andorra","country_code":"ad"},"osm_type":"node","osm_id":64954554,"type":"village","location":[1.5116811,42.4721545],"bbox":[1.4916811,42.4521545,1.5316811,42.4921545]}
{"name":"Certers","other_names":{"name:ca":"Certers","name:ru":"Сертерс"},"display_name":"Certers, Sant Julià de Lòria, AD600, Andorra","address":{"village":"Certers","municipality":"Sant Julià de Lòria","ISO3166-2-lvl7":"AD-06","postcode":"AD600","country":"Andorra","country_code":"ad"},"osm_type":"node","osm_id":64954598,"type":"village","location":[1.5061537,42.4760797],"bbox":[1.4861537,42.4560797,1.5261537,42.4960797]}
{"name":"Santa Coloma","other_names":{"name:ca":"Santa Coloma","name:ru":"Санта-Колома"},"display_name":"Santa Coloma, Andorra la Vella, AD500, Andorra","address":{"village":"Santa Coloma","municipality":"Andorra la Vella","ISO3166-2-lvl7":"AD-07","postcode":"AD500","country":"Andorra","country_code":"ad"},"osm_type":"node","osm_id":64954512,"type":"village","location":[1.4997052,42.4949956],"bbox":[1.4797052,42.4749956,1.5197052,42.5149956]}
{"name":"Engordany","other_names":{"name:ca":"Engordany","name:ru":"Энгордань"},"display_name":"Engordany, Escaldes-Engordany, AD700, Andorra","address":{"village":"Engordany","municipality":"Escaldes-Engordany","ISO3166-2-lvl7":"AD-08","postcode":"AD700","country":"Andorra","country_code":"ad"},"osm_type":"node","osm_id":64954477,"type":"village","location":[1.5382077,42.5135389],"bbox":[1.5182077,42.4935389,1.5582077,42.5335389]}
{"name":"Vila","other_names":{"name:ca":"Vila","name:fr":"Vila","name:ru":"Вила"},"display_name":"Vila, Encamp, AD200, Andorra","address":{"village":"Vila","town":"Encamp","ISO3166-2-lvl7":"AD-03","postcode":"AD200","country":"Andorra","country_code":"ad"},"osm_type":"node","osm_id":64954464,"type":"village","location":[1.5666248,42.5318538],"bbox":[1.5466248,42.5118538,1.5866248,42.5518538]}
{"name":"Engolasters","other_names":{"name:ca":"Engolasters","name:ru":"Энголастерс"},"display_name":"Engolasters, Escaldes-Engordany, AD700, Andorra","address":{"village":"Engolasters","municipality":"Escaldes-Engordany","ISO3166-2-lvl7":"AD-08","postcode":"AD700","country":"Andorra","country_code":"ad"},"osm_type":"node","osm_id":2125730238,"type":"village","location":[1.5592332,42.5105107],"bbox":[1.5392332,42.4905107,1.5792332,42.5305107]}
{"name":"Grau Roig","other_names":{"name:ca":"Grau Roig","name:de":"Grau Roig","name:fr":"Grau Roig","name:ru":"Грау Роч"},"display_name":"Grau Roig, Encamp, AD200, Andorra","address":{"village":"Grau Roig","town":"Encamp","ISO3166-2-lvl7":"AD-03","postcode":"AD200","country":"Andorra","country_code":"ad"},"osm_type":"node","osm_id":258361905,"type":"village","location":[1.7017913,42.5368991],"bbox":[1.6817913,42.5168991,1.7217913,42.5568991]}
{"name":"Pal","other_names":{"name:ca":"Pal","name:ru":"Паль"},"display_name":"Pal, La Massana, AD400, Andorra","address":{"village":"Pal","town":"La Massana","ISO3166-2-lvl7":"AD-04","postcode":"AD400","country":"Andorra","country_code":"ad"},"osm_type":"node","osm_id":64954515,"type":"village","location":[1.4759787,42.5457992],"bbox":[1.4559787,42.5257992,1.4959787,42.5657992]}
{"name":"Xixerella","other_names":{"name:ca":"Xixerella","name:ru":"Шишерелла"},"display_name":"Xixerella, La Massana, AD400, Andorra","address":{"village":"Xixerella","town":"La Massana","ISO3166-2-lvl7":"AD-04","postcode":"AD400","country":"Andorra","country_code":"ad"},"osm_type":"node","osm_id":64954521,"type":"village","location":[1.4878668,42.5531204],"bbox":[1.4678668,42.5331204,1.5078668,42.5731204]}
{"name":"Arinsal","other_names":{"name:ca":"Vallnord - Pal Arinsal","name:ru":"Аринсал"},"display_name":"Arinsal, La Massana, AD400, Andorra","address":{"village":"Arinsal","town":"La Massana","ISO3166-2-lvl7":"AD-04","postcode":"AD400","country":"Andorra","country_code":"ad"},"osm_type":"node","osm_id":64954483,"type":"village","location":[1.4844029,42.5720821],"bbox":[1.4644029,42.5520821,1.5044029,42.5920821]}
{"name":"Ansalonga","other_names":{"name:ca":"Ansalonga","name:ru":"Ансалонга"},"display_name":"Ansalonga, Ordino, AD300, Andorra","address":{"village":"Ansalonga","municipality":"Ordino","ISO3166-2-lvl7":"AD-05","postcode":"AD300","country":"Andorra","country_code":"ad"},"osm_type":"node","osm_id":64954472,"type":"village","location":[1.5221532,42.5690218],"bbox":[1.5021532,42.5490218,1.5421532,42.5890218]}
{"name":"Segudet","other_names":{"name:ca":"Segudet","name:ru":"Сегудет"},"display_name":"Segudet, Ordino, AD300, Andorra","address":{"village":"Segudet","municipality":"Ordino","ISO3166-2-lvl7":"AD-05","postcode":"AD300","country":"Andorra","country_code":"ad"},"osm_type":"node","osm_id":64954570,"type":"village","location":[1.5380568,42.5570637],"bbox":[1.5180568,42.5370637,1.5580568,42.5770637]}
{"name":"Erts","other_names":{"name:ca":"Erts","name:ru":"Эртс"},"display_name":"Erts, La Massana, AD400, Andorra","address":{"village":"Erts","town":"La Massana","ISO3166-2-lvl7":"AD-04","postcode":"AD400","country":"Andorra","country_code":"ad"},"osm_type":"node","osm_id":64954467,"type":"village","location":[1.4965904,42.5614863],"bbox":[1.4765904,42.5414863,1.5165904,42.5814863]}
{"name":"la Cortinada","other_names":{"name:ca":"la Cortinada","name:ru":"Ла-Кортинада"},"display_name":"la Cortinada, Ordino, AD300, Andorra","address":{"village":"la Cortinada","municipality":"Ordino","ISO3166-2-lvl7":"AD-05","postcode":"AD300","country":"Andorra","country_code":"ad"},"osm_type":"node","osm_id":64954546,"type":"village","location":[1.5193446,42.5755678],"bbox":[1.4993446,42.5555678,1.5393446,42.5955678]}
{"name":"Sornás","other_names":{"name:ca":"Sornàs","name:ru":"Сорнас"},"display_name":"Sornás, Ordino, AD300, Andorra","address":{"village":"Sornás","municipality":"Ordino","ISO3166-2-lvl7":"AD-05","postcode":"AD300","country":"Andorra","country_code":"ad"},"osm_type":"node","osm_id":64954435,"type":"village","location":[1.5274027,42.5649323],"bbox":[1.5074027,42.5449323,1.5474027,42.5849323]}
{"name":"Arans","other_names":{"name:ca":"Arans","name:ru":"Аранс"},"display_name":"Arans, Ordino, AD300, Andorra","address":{"village":"Arans","municipality":"Ordino","ISO3166-2-lvl7":"AD-05","postcode":"AD300","country":"Andorra","country_code":"ad"},"osm_type":"node","osm_id":64954560,"type":"village","location":[1.5180695,42.5825312],"bbox":[1.4980695,42.5625312,1.5380695,42.6025312]}
{"name":"el Serrat","other_names":{"name:ca":"El Serrat","name:en":"El Serrat","name:ru":"Эль-Серрат"},"display_name":"el Serrat, Ordino, AD300, Andorra","address":{"village":"el Serrat","municipality":"Ordino","ISO3166-2-lvl7":"AD-05","postcode":"AD300","country":"Andorra","country_code":"ad"},"osm_type":"node","osm_id":64954451,"type":"village","location":[1.5388976,42.6195784],"bbox":[1.5188976,42.5995784,1.5588976,42.6395784]}
{"name":"Llorts","other_names":{"name:ca":"Llorts","name:ru":"Льортс"},"display_name":"Llorts, Ordino, AD300, Andorra","address":{"village":"Llorts","municipality":"Ordino","ISO3166-2-lvl7":"AD-05","postcode":"AD300","country":"Andorra","country_code":"ad"},"osm_type":"node","osm_id":64954531,"type":"village","location":[1.5261846,42.5962642],"bbox":[1.5061846,42.5762642,1.5461846,42.6162642]}
{"name":"Prats","other_names":{"name:ca":"Prats","name:ru":"Пратс"},"display_name":"Prats, Canillo, AD100, Andorra","address":{"village":"Prats","municipality":"Canillo","ISO3166-2-lvl7":"AD-02","postcode":"AD100","country":"Andorra","country_code":"ad"},"osm_type":"node","osm_id":64954409,"type":"village","location":[1.5936564,42.5605597],"bbox":[1.5736564,42.5405597,1.6136564,42.5805597]}
{"name":"Meritxell","other_names":{"name:ca":"Meritxell","name:ru":"Меричель"},"display_name":"Meritxell, Canillo, AD100, Andorra","address":{"village":"Meritxell","municipality":"Canillo","ISO3166-2-lvl7":"AD-02","postcode":"AD100","country":"Andorra","country_code":"ad"},"osm_type":"node","osm_id":64954601,"type":"village","location":[1.5906405,42.5536332],"bbox":[1.5706405,42.5336332,1.6106405,42.5736332]}
{"name":"Sant Pere","other_names":{"name:ca":"Sant Pere"},"display_name":"Sant Pere, Canillo, AD100, Andorra","address":{"village":"Sant Pere","municipality":"Canillo","ISO3166-2-lvl7":"AD-02","postcode":"AD100","country":"Andorra","country_code":"ad"},"osm_type":"node","osm_id":64954429,"type":"village","location":[1.6531626,42.5785035],"bbox":[1.6331626,42.5585035,1.6731626,42.5985035]}
{"name":"Ransol","other_names":{"name:ca":"Ransol","name:ru":"Рансоль"},"display_name":"Ransol, Canillo, AD100, Andorra","address":{"village":"Ransol","municipality":"Canillo","ISO3166-2-lvl7":"AD-02","postcode":"AD100","country":"Andorra","country_code":"ad"},"osm_type":"node","osm_id":64954457,"type":"village","location":[1.6374847,42.5816768],"bbox":[1.6174847,42.5616768,1.6574847,42.6016768]}
{"name":"Soldeu","other_names":{"name:ca":"Soldeu","name:el":"Σολντέου","name:ru":"Сольдеу"},"display_name":"Soldeu, Canillo, AD100, Andorra","address":{"village":"Soldeu","municipality":"Canillo","ISO3166-2-lvl7":"AD-02","postcode":"AD100","country":"Andorra","country_code":"ad"},"osm_type":"node","osm_id":64954538,"type":"village","location":[1.6682694,42.5768944],"bbox":[1.6482694,42.5568944,1.6882694,42.5968944]}
{"name":"el Tarter","other_names":{"name:ca":"el Tarter","name:ru":"Эль-Тартер"},"display_name":"el Tarter, Canillo, AD100, Andorra","address":{"village":"el Tarter","municipality":"Canillo","ISO3166-2-lvl7":"AD-02","postcode":"AD100","country":"Andorra","country_code":"ad"},"osm_type":"node","osm_id":64954404,"type":"village","location":[1.6496963,42.5803334],"bbox":[1.6296963,42.5603334,1.6696963,42.6003334]}
{"name":"les Bordes d'Envalira","display_name":"les Bordes d'Envalira, Canillo, AD100, Andorra","address":{"village":"les Bordes d'Envalira","municipality":"Canillo","ISO3166-2-lvl7":"AD-02","postcode":"AD100","country":"Andorra","country_code":"ad"},"osm_type":"node","osm_id":3940604188,"type":"village","location":[1.6848967,42.5599673],"bbox":[1.6648967,42.5399673,1.7048967,42.5799673]}
{"name":"Pas de la Casa","other_names":{"name:ca":"Pas de la Casa","name:fr":"Pas de la case","name:ru":"Пас-де-ла-Каса"},"display_name":"Pas de la Casa, Encamp, AD200, Andorra","address":{"village":"Pas de la Casa","town":"Encamp","ISO3166-2-lvl7":"AD-03","postcode":"AD200","country":"Andorra","country_code":"ad"},"population":2996,"osm_type":"node","osm_id":64954437,"type":"village","location":[1.733494,42.5447098],"bbox":[1.713494,42.5247098,1.753494,42.5647098]}
{"display_name":"Llumeneres, Sant Julià de Lòria, AD600, Andorra","address":{"village":"Llumeneres","municipality":"Sant Julià de Lòria","ISO3166-2-lvl7":"AD-06","postcode":"AD600","country":"Andorra","country_code":"ad"},"osm_type":"way","osm_id":432393054,"type":"hamlet","location":[1.5113444318094449,42.4660431],"bbox":[1.5107399,42.465601,1.5125763,42.466544]}
{"name":"el Vilar","other_names":{"name:ca":"el Vilar"},"display_name":"el Vilar, Canillo, AD100, Andorra","address":{"hamlet":"el Vilar","town":"Canillo","municipality":"Canillo","ISO3166-2-lvl7":"AD-02","postcode":"AD100","country":"Andorra","country_code":"ad"},"osm_type":"way","osm_id":368472454,"type":"hamlet","location":[1.6080422344292964,42.57223235],"bbox":[1.6076517,42.572022,1.6085717,42.5725217]}
{"name":"Mas d’Alins","other_names":{"name:ca":"Mas d’Alins"},"display_name":"Mas d’Alins, Sant Julià de Lòria, AD600, Andorra","address":{"hamlet":"Mas d’Alins","municipality":"Sant Julià de Lòria","ISO3166-2-lvl7":"AD-06","postcode":"AD600","country":"Andorra","country_code":"ad"},"osm_type":"node","osm_id":64954534,"type":"hamlet","location":[1.4494549,42.4413704],"bbox":[1.4294549,42.4213704,1.4694549,42.4613704]}
{"name":"Aixàs","other_names":{"name:ca":"Aixàs"},"display_name":"Aixàs, Bixessarri, Sant Julià de Lòria, AD600, Andorra","address":{"hamlet":"Aixàs","village":"Bixessarri","municipality":"Sant Julià de Lòria","ISO3166-2-lvl7":"AD-06","postcode":"AD600","country":"Andorra","country_code":"ad"},"osm_type":"node","osm_id":64954372,"type":"hamlet","location":[1.4641485,42.4826042],"bbox":[1.4441485,42.4626042,1.4841485,42.5026042]}
{"name":"Sispony","other_names":{"name:ca":"Sispony"},"display_name":"Sispony, La Massana, AD400, Andorra","address":{"hamlet":"Sispony","town":"La Massana","ISO3166-2-lvl7":"AD-04","postcode":"AD400","country":"Andorra","country_code":"ad"},"osm_type":"node","osm_id":64954415,"type":"hamlet","location":[1.515627,42.5338717],"bbox":[1.495627,42.5138717,1.535627,42.5538717]}
{"name":"La Comella","other_names":{"name:ca":"La Comella"},"display_name":"La Comella, Andorra la Vella, AD500, Andorra","address":{"hamlet":"La Comella","town":"Andorra la Vella","municipality":"Andorra la Vella","ISO3166-2-lvl7":"AD-07","postcode":"AD500","country":"Andorra","country_code":"ad"},"osm_type":"node","osm_id":9706624136,"type":"hamlet","location":[1.528981,42.5007842],"bbox":[1.508981,42.4807842,1.548981,42.5207842]}
{"name":"Anyós","other_names":{"name:ca":"Anyós"},"display_name":"Anyós, La Massana, AD400, Andorra","address":{"hamlet":"Anyós","town":"La Massana","ISO3166-2-lvl7":"AD-04","postcode":"AD400","country":"Andorra","country_code":"ad"},"osm_type":"node","osm_id":64954389,"type":"hamlet","location":[1.5254826,42.534361],"bbox":[1.5054826,42.514361,1.5454826,42.554361]}
{"name":"el Cortalet","display_name":"el Cortalet, La Massana, AD400, Andorra","address":{"hamlet":"el Cortalet","town":"La Massana","ISO3166-2-lvl7":"AD-04","postcode":"AD400","country":"Andorra","country_code":"ad"},"osm_type":"node","osm_id":264496511,"type":"hamlet","location":[1.526383,42.5389647],"bbox":[1.506383,42.5189647,1.546383,42.5589647]}
{"name":"Bordes del Vilar","other_names":{"name:ca":"Bordes del Vilar"},"display_name":"Bordes del Vilar, Engolasters, Escaldes-Engordany, AD700, Andorra","address":{"hamlet":"Bordes del Vilar","village":"Engolasters","municipality":"Escaldes-Engordany","ISO3166-2-lvl7":"AD-08","postcode":"AD700","country":"Andorra","country_code":"ad"},"osm_type":"node","osm_id":9753977758,"type":"hamlet","location":[1.557395,42.5122374],"bbox":[1.537395,42.4922374,1.577395,42.5322374]}
{"name":"Entremesaigües","display_name":"Entremesaigües, Les Escaldes, Escaldes-Engordany, AD700, Andorra","address":{"hamlet":"Entremesaigües","town":"Les Escaldes","municipality":"Escaldes-Engordany","ISO3166-2-lvl7":"AD-08","postcode":"AD700","country":"Andorra","country_code":"ad"},"population":0,"osm_type":"node","osm_id":6533776954,"type":"hamlet","location":[1.5601251,42.4981805],"bbox":[1.5401251,42.4781805,1.5801251,42.5181805]}
{"name":"Ràmio","display_name":"Ràmio, Escaldes-Engordany, AD700, Andorra","address":{"hamlet":"Ràmio","municipality":"Escaldes-Engordany","ISO3166-2-lvl7":"AD-08","postcode":"AD700","country":"Andorra","country_code":"ad"},"osm_type":"node","osm_id":6312742113,"type":"hamlet","location":[1.5725423,42.4973204],"bbox":[1.5525423,42.4773204,1.5925423,42.5173204]}
{"name":"Bordes d'Engolasters","display_name":"Bordes d'Engolasters, Engolasters, Escaldes-Engordany, AD700, Andorra","address":{"hamlet":"Bordes d'Engolasters","village":"Engolasters","municipality":"Escaldes-Engordany","ISO3166-2-lvl7":"AD-08","postcode":"AD700","country":"Andorra","country_code":"ad"},"osm_type":"node","osm_id":9753977756,"type":"hamlet","location":[1.5633317,42.5118459],"bbox":[1.5433317,42.4918459,1.5833317,42.5318459]}
{"name":"Els Vilars","other_names":{"name:ca":"Els Vilars"},"display_name":"Els Vilars, Les Escaldes, Escaldes-Engordany, AD700, Andorra","address":{"hamlet":"Els Vilars","town":"Les Escaldes","municipality":"Escaldes-Engordany","ISO3166-2-lvl7":"AD-08","postcode":"AD700","country":"Andorra","country_code":"ad"},"osm_type":"node","osm_id":64954396,"type":"hamlet","location":[1.5413834,42.5168287],"bbox":[1.5213834,42.4968287,1.5613834,42.5368287]}
{"name":"Les Cases del Vilar","other_names":{"name:ca":"Les Cases del Vilar"},"display_name":"Les Cases del Vilar, Engolasters, Escaldes-Engordany, AD700, Andorra","address":{"hamlet":"Les Cases del Vilar","village":"Engolasters","municipality":"Escaldes-Engordany","ISO3166-2-lvl7":"AD-08","postcode":"AD700","country":"Andorra","country_code":"ad"},"osm_type":"node","osm_id":9753977757,"type":"hamlet","location":[1.5598934,42.5093027],"bbox":[1.5398934,42.4893027,1.5798934,42.5293027]}
{"name":"les Bons","other_names":{"name:ca":"les Bons"},"display_name":"les Bons, Encamp, AD200, Andorra","address":{"hamlet":"les Bons","town":"Encamp","ISO3166-2-lvl7":"AD-03","postcode":"AD200","country":"Andorra","country_code":"ad"},"osm_type":"node","osm_id":64954492,"type":"hamlet","location":[1.5844704,42.5385245],"bbox":[1.5644704,42.5185245,1.6044704,42.5585245]}
{"name":"Bordes de Cardameller","display_name":"Bordes de Cardameller, Pal, La Massana, AD400, Andorra","address":{"hamlet":"Bordes de Cardameller","village":"Pal","town":"La Massana","ISO3166-2-lvl7":"AD-04","postcode":"AD400","country":"Andorra","country_code":"ad"},"osm_type":"node","osm_id":6312783622,"type":"hamlet","location":[1.461772,42.5421591],"bbox":[1.441772,42.5221591,1.481772,42.5621591]}
{"name":"Super Pal","other_names":{"name:ca":"Super Pal"},"display_name":"Super Pal, Pal, La Massana, AD400, Andorra","address":{"hamlet":"Super Pal","village":"Pal","town":"La Massana","ISO3166-2-lvl7":"AD-04","postcode":"AD400","country":"Andorra","country_code":"ad"},"osm_type":"node","osm_id":258355185,"type":"hamlet","location":[1.4734913,42.5429513],"bbox":[1.4534913,42.5229513,1.4934913,42.5629513]}
{"name":"Puiol del Piu","other_names":{"name:ca":"Puiol del Piu"},"display_name":"Puiol del Piu, Erts, La Massana, AD400, Andorra","address":{"hamlet":"Puiol del Piu","village":"Erts","town":"La Massana","ISO3166-2-lvl7":"AD-04","postcode":"AD400","country":"Andorra","country_code":"ad"},"osm_type":"node","osm_id":64954503,"type":"hamlet","location":[1.4919908,42.5655548],"bbox":[1.4719908,42.5455548,1.5119908,42.5855548]}
{"name":"Mas de Ribafeta","other_names":{"name:ca":"Mas de Ribafeta"},"display_name":"Mas de Ribafeta, Arinsal, La Massana, AD400, Andorra","address":{"hamlet":"Mas de Ribafeta","village":"Arinsal","town":"La Massana","ISO3166-2-lvl7":"AD-04","postcode":"AD400","country":"Andorra","country_code":"ad"},"osm_type":"node","osm_id":64954542,"type":"hamlet","location":[1.493038,42.570774],"bbox":[1.473038,42.550774,1.513038,42.590774]}
{"name":"el Pui","other_names":{"name:ca":"el Pui"},"display_name":"el Pui, La Massana, AD400, Andorra","address":{"hamlet":"el Pui","town":"La Massana","ISO3166-2-lvl7":"AD-04","postcode":"AD400","country":"Andorra","country_code":"ad"},"osm_type":"node","osm_id":64954460,"type":"hamlet","location":[1.515555,42.5476987],"bbox":[1.495555,42.5276987,1.535555,42.5676987]}
{"name":"Escàs","other_names":{"name:ca":"Escàs"},"display_name":"Escàs, La Massana, AD400, Andorra","address":{"hamlet":"Escàs","town":"La Massana","ISO3166-2-lvl7":"AD-04","postcode":"AD400","country":"Andorra","country_code":"ad"},"osm_type":"node","osm_id":64954565,"type":"hamlet","location":[1.5089987,42.5468617],"bbox":[1.4889987,42.5268617,1.5289987,42.5668617]}
{"name":"l'Aldosa de la Massana","other_names":{"name:ca":"l'Aldosa de la Massana"},"display_name":"l'Aldosa de la Massana, La Massana, AD400, Andorra","address":{"hamlet":"l'Aldosa de la Massana","town":"La Massana","ISO3166-2-lvl7":"AD-04","postcode":"AD400","country":"Andorra","country_code":"ad"},"osm_type":"node","osm_id":64954447,"type":"hamlet","location":[1.5228165,42.5436783],"bbox":[1.5028165,42.5236783,1.5428165,42.5636783]}
{"name":"el Vilar","other_names":{"name:ca":"el Vilar"},"display_name":"el Vilar, la Cortinada, Ordino, AD300, Andorra","address":{"hamlet":"el Vilar","village":"la Cortinada","municipality":"Ordino","ISO3166-2-lvl7":"AD-05","postcode":"AD300","country":"Andorra","country_code":"ad"},"osm_type":"node","osm_id":262466673,"type":"hamlet","location":[1.5193017,42.5745545],"bbox":[1.4993017,42.5545545,1.5393017,42.5945545]}
{"name":"Mas d'en Soler","other_names":{"name:ca":"Mas d'en Soler"},"display_name":"Mas d'en Soler, la Cortinada, Ordino, AD300, Andorra","address":{"hamlet":"Mas d'en Soler","village":"la Cortinada","municipality":"Ordino","ISO3166-2-lvl7":"AD-05","postcode":"AD300","country":"Andorra","country_code":"ad"},"osm_type":"node","osm_id":266324553,"type":"hamlet","location":[1.5180111,42.5776121],"bbox":[1.4980111,42.5576121,1.5380111,42.5976121]}
{"name":"les Salines","other_names":{"name:ca":"Les Salines","name:en":"Les Salines"},"display_name":"les Salines, el Serrat, Ordino, AD300, Andorra","address":{"hamlet":"les Salines","village":"el Serrat","municipality":"Ordino","ISO3166-2-lvl7":"AD-05","postcode":"AD300","country":"Andorra","country_code":"ad"},"osm_type":"node","osm_id":316985105,"type":"hamlet","location":[1.5366914,42.610325],"bbox":[1.5166914,42.590325,1.5566914,42.630325]}
{"name":"Sant Joan de Caselles","other_names":{"name:ca":"Sant Joan de Caselles"},"display_name":"Sant Joan de Caselles, Canillo, AD100, Andorra","address":{"hamlet":"Sant Joan de Caselles","town":"Canillo","municipality":"Canillo","ISO3166-2-lvl7":"AD-02","postcode":"AD100","country":"Andorra","country_code":"ad"},"osm_type":"node","osm_id":64954441,"type":"hamlet","location":[1.6163247,42.5710971],"bbox":[1.5963247,42.5510971,1.6363247,42.5910971]}
{"name":"el Forn","other_names":{"name:ca":"el Forn"},"display_name":"el Forn, Canillo, AD100, Andorra","address":{"hamlet":"el Forn","town":"Canillo","municipality":"Canillo","ISO3166-2-lvl7":"AD-02","postcode":"AD100","country":"Andorra","country_code":"ad"},"osm_type":"node","osm_id":262473680,"type":"hamlet","location":[1.6028493,42.5621207],"bbox":[1.5828493,42.5421207,1.6228493,42.5821207]}
{"name":"l’Aldosa de Canillo","other_names":{"name:ca":"l’Aldosa de Canillo"},"display_name":"l’Aldosa de Canillo, Ransol, Canillo, AD100, Andorra","address":{"hamlet":"l’Aldosa de Canillo","village":"Ransol","municipality":"Canillo","ISO3166-2-lvl7":"AD-02","postcode":"AD100","country":"Andorra","country_code":"ad"},"osm_type":"node","osm_id":64954422,"type":"hamlet","location":[1.6278149,42.5795551],"bbox":[1.6078149,42.5595551,1.6478149,42.5995551]}
{"name":"els Plans","other_names":{"name:ca":"els Plans"},"display_name":"els Plans, Ransol, Canillo, AD100, Andorra","address":{"hamlet":"els Plans","village":"Ransol","municipality":"Canillo","ISO3166-2-lvl7":"AD-02","postcode":"AD100","country":"Andorra","country_code":"ad"},"osm_type":"node","osm_id":64954417,"type":"hamlet","location":[1.6329828,42.5821459],"bbox":[1.6129828,42.5621459,1.6529828,42.6021459]}
