{"name":"San Ignacio & Santa Elena","other_names":{"name:en":"San Ignacio & Santa Elena","alt_name":"Cayo"},"display_name":"San Ignacio & Santa Elena, Cayo District, Belize","address":{"city":"San Ignacio & Santa Elena","state":"Cayo District","ISO3166-2-lvl4":"BZ-CY","country":"Belize","country_code":"bz"},"population":17878,"osm_type":"relation","osm_id":14097409,"type":"administrative","location":[-89.0681672,17.1582776],"bbox":[-89.1085629,17.1235632,-89.036512,17.1865915]}
{"name":"Belmopan","other_names":{"name:en":"Belmopan","name:zh":"贝尔莫潘 / 貝爾墨潘","name:zh-Hans":"贝尔莫潘","name:zh-Hant":"貝爾墨潘","name:am":"ቤልሞፓን","name:ar":"بلموبان","name:be":"Бельмапан","name:bg":"Белмопан","name:bo":"པེར་མོ་ཕན།","name:de":"Belmopan","name:el":"Μπελμοπάν","name:eo":"Belmopano","name:es":"Belmopán","name:fa":"بلموپان","name:fr":"Belmopan","name:gl":"Belmopán","name:he":"בלמופן","name:hi":"बेल्मोपान","name:ht":"Bèlmopan","name:hu":"Belmopan","name:hy":"Բելմոպան","name:is":"Belmópan","name:ja":"ベルモパン","name:ka":"ბელმოპანი","name:ko":"벨모판","name:ku":"Belmopan","name:la":"Belmopanum","name:lt":"Belmopanas","name:lv":"Belmopana","name:mk":"Белмопан","name:mr":"बेल्मोपान","name:oc":"Belmopán","name:pl":"Belmopan","name:ru":"Бельмопан","name:sr":"Белмопан","name:sv":"Belmopan","name:ta":"பெல்மோப்பான்","name:th":"เบลโมแพน","name:tr":"Belmopán","name:uk":"Бельмопан","name:ace":"Bèlmopan","name:ckb":"بێلمۆپان","name:frp":"Bèlmopan","name:sah":"Белмопан","name:be-tarask":"Бэльмапан"},"display_name":"Belmopan, Cayo District, Belize","address":{"city":"Belmopan","state":"Cayo District","ISO3166-2-lvl4":"BZ-CY","country":"Belize","country_code":"bz"},"population":22,"osm_type":"relation","osm_id":10331791,"type":"administrative","location":[-88.770018,17.250199],"bbox":[-88.7996415,17.2190934,-88.73089,17.2767944]}
{"name":"Belize City","other_names":{"name:en":"Belize City","name:de":"Belize Stadt","name:es":"Ciudad de Belice","name:fr":"Belize","name:hu":"Belize City","name:lt":"Belizas","name:oc":"Belize","name:uk":"Беліз"},"display_name":"Belize City, Belize District, Belize","address":{"city":"Belize City","state":"Belize District","ISO3166-2-lvl4":"BZ-BZ","country":"Belize","country_code":"bz"},"population":67016,"osm_type":"relation","osm_id":14902774,"type":"administrative","location":[-88.2003115,17.5000543],"bbox":[-88.2834493,17.4626707,-88.1809081,17.5572443]}
{"name":"San Ignacio & Santa Elena","other_names":{"alt_name":"Cayo"},"display_name":"San Ignacio & Santa Elena, Cayo District, Belize","address":{"city":"San Ignacio & Santa Elena","state":"Cayo District","ISO3166-2-lvl4":"BZ-CY","country":"Belize","country_code":"bz"},"population":24896,"osm_type":"node","osm_id":9738788310,"type":"city","location":[-89.0681672,17.1582776],"bbox":[-89.2281672,16.9982776,-88.9081672,17.3182776]}
{"name":"Belmopan","other_names":{"name:am":"ቤልሞፓን","name:ar":"بلموبان","name:be":"Бельмапан","name:bg":"Белмопан","name:bo":"པེར་མོ་ཕན།","name:de":"Belmopan","name:el":"Μπελμοπάν","name:en":"Belmopan","name:eo":"Belmopano","name:es":"Belmopán","name:fa":"بلموپان","name:fr":"Belmopan","name:gl":"Belmopán","name:he":"בלמופן","name:hi":"बेल्मोपान","name:ht":"Bèlmopan","name:hu":"Belmopan","name:hy":"Բելմոպան","name:is":"Belmópan","name:ja":"ベルモパン","name:ka":"ბელმოპანი","name:ko":"벨모판","name:ku":"Belmopan","name:la":"Belmopanum","name:lt":"Belmopanas","name:lv":"Belmopana","name:mk":"Белмопан","name:mr":"बेल्मोपान","name:oc":"Belmopán","name:pl":"Belmopan","name:ru":"Бельмопан","name:sr":"Белмопан","name:sv":"Belmopan","name:ta":"பெல்மோப்பான்","name:th":"เบลโมแพน","name:tr":"Belmopán","name:uk":"Бельмопан","name:zh":"贝尔莫潘 / 貝爾墨潘","name:ace":"Bèlmopan","name:ckb":"بێلمۆپان","name:frp":"Bèlmopan","name:sah":"Белмопан","name:zh-Hans":"贝尔莫潘","name:zh-Hant":"貝爾墨潘","name:be-tarask":"Бэльмапан"},"display_name":"Belmopan, Cayo District, Belize","address":{"city":"Belmopan","state":"Cayo District","ISO3166-2-lvl4":"BZ-CY","country":"Belize","country_code":"bz"},"population":28264,"osm_type":"node","osm_id":282294082,"type":"city","location":[-88.770018,17.250199],"bbox":[-88.930018,17.090199,-88.610018,17.410199]}
{"name":"Belize City","other_names":{"name:de":"Belize Stadt","name:es":"Ciudad de Belice","name:fr":"Belize","name:hu":"Belize City","name:lt":"Belizas","name:oc":"Belize","name:uk":"Беліз"},"display_name":"Belize City, Belize District, Belize","address":{"city":"Belize City","state":"Belize District","ISO3166-2-lvl4":"BZ-BZ","country":"Belize","country_code":"bz"},"population":67016,"osm_type":"node","osm_id":282297046,"type":"city","location":[-88.2003115,17.5000543],"bbox":[-88.3603115,17.3400543,-88.0403115,17.6600543]}
{"name":"Punta Gorda","other_names":{"name:en":"Punta Gorda","name:de":"Punta Gorda Stadt"},"display_name":"Punta Gorda, Toledo District, Belize","address":{"town":"Punta Gorda","state":"Toledo District","ISO3166-2-lvl4":"BZ-TOL","country":"Belize","country_code":"bz"},"population":5801,"osm_type":"relation","osm_id":3394396,"type":"administrative","location":[-88.8078855,16.0990897],"bbox":[-88.8218534,16.0910833,-88.8000734,16.1079744]}
{"name":"Benque Viejo del Carmen","other_names":{"name:en":"Benque Viejo del Carmen","name:es":"Benque Viejo del Carmen","alt_name":"Benque;Benque Viejo","alt_name:es":"Benque;Benque Viejo","name:de":"Alte Benque von Carmen","name:lt":"Benke Vjecho del Karmenas"},"display_name":"Benque Viejo del Carmen, Cayo District, Belize","address":{"town":"Benque Viejo del Carmen","state":"Cayo District","ISO3166-2-lvl4":"BZ-CY","country":"Belize","country_code":"bz"},"population":6,"osm_type":"relation","osm_id":14101754,"type":"administrative","location":[-89.1369452,17.0704214],"bbox":[-89.1473468,17.0553816,-89.1259347,17.0792031]}
{"name":"San Ignacio","display_name":"San Ignacio, San Ignacio & Santa Elena, Cayo District, Belize","address":{"town":"San Ignacio","city":"San Ignacio & Santa Elena","state":"Cayo District","ISO3166-2-lvl4":"BZ-CY","country":"Belize","country_code":"bz"},"population":17878,"osm_type":"relation","osm_id":14097408,"type":"administrative","location":[-89.0761718,17.1527588],"bbox":[-89.1085629,17.1235632,-89.0482262,17.17824]}
{"name":"Santa Elena","display_name":"Santa Elena, San Ignacio & Santa Elena, Cayo District, Belize","address":{"town":"Santa Elena","city":"San Ignacio & Santa Elena","state":"Cayo District","ISO3166-2-lvl4":"BZ-CY","country":"Belize","country_code":"bz"},"population":8000,"osm_type":"relation","osm_id":14045854,"type":"administrative","location":[-89.0575424,17.1650772],"bbox":[-89.0803131,17.1315763,-89.036512,17.1865915]}
{"name":"Spanish Lookout","display_name":"Spanish Lookout, Cayo District, Belize","address":{"town":"Spanish Lookout","state":"Cayo District","ISO3166-2-lvl4":"BZ-CY","country":"Belize","country_code":"bz"},"population":2412,"osm_type":"relation","osm_id":10331752,"type":"administrative","location":[-89.0043957,17.2438674],"bbox":[-89.084608,17.206724,-88.9412401,17.3538079]}
{"name":"Ladyville","other_names":{"name:en":"Ladyville","name:es":"Ladyville","name:lt":"Leidivilis","name:ur":"لیڈی ویل"},"display_name":"Ladyville, Belize District, Belize","address":{"town":"Ladyville","state":"Belize District","ISO3166-2-lvl4":"BZ-BZ","country":"Belize","country_code":"bz"},"population":5458,"osm_type":"relation","osm_id":11520751,"type":"administrative","location":[-88.288724,17.5531626],"bbox":[-88.3476432,17.5282708,-88.278349,17.5911253]}
{"name":"Orange Walk Town","other_names":{"name:en":"Orange Walk Town","name:es":"Pueblo de Orange Walk","name:de":"Orange Walk Stadt","alt":"Orange Walk","alt:es":"Orange Walk"},"display_name":"Orange Walk Town, Orange Walk District, Belize","address":{"town":"Orange Walk Town","state":"Orange Walk District","ISO3166-2-lvl4":"BZ-OW","country":"Belize","country_code":"bz"},"population":14500,"osm_type":"relation","osm_id":14411947,"type":"administrative","location":[-88.5613615,18.0804488],"bbox":[-88.5813176,18.0653671,-88.5541115,18.1003929]}
{"name":"Punta Gorda","other_names":{"name:de":"Punta Gorda Stadt"},"display_name":"Punta Gorda, Toledo District, Belize","address":{"town":"Punta Gorda","state":"Toledo District","ISO3166-2-lvl4":"BZ-TOL","country":"Belize","country_code":"bz"},"population":5801,"osm_type":"node","osm_id":315744420,"type":"town","location":[-88.8078855,16.0990897],"bbox":[-88.8478855,16.0590897,-88.7678855,16.1390897]}
{"name":"Bella Vista","display_name":"Bella Vista, Toledo District, Belize","address":{"town":"Bella Vista","state":"Toledo District","ISO3166-2-lvl4":"BZ-TOL","country":"Belize","country_code":"bz"},"population":3508,"osm_type":"node","osm_id":2072038429,"type":"town","location":[-88.5316934,16.5094824],"bbox":[-88.5716934,16.4694824,-88.4916934,16.5494824]}
{"name":"Independence","display_name":"Independence, Stann Creek District, Belize","address":{"town":"Independence","state":"Stann Creek District","ISO3166-2-lvl4":"BZ-SC","country":"Belize","country_code":"bz"},"population":4100,"osm_type":"node","osm_id":2130018489,"type":"town","location":[-88.4182955,16.5360454],"bbox":[-88.4582955,16.4960454,-88.3782955,16.5760454]}
{"name":"Benque Viejo del Carmen","other_names":{"name:de":"Alte Benque von Carmen","name:es":"Benque Viejo del Carmen","name:lt":"Benke Vjecho del Karmenas","alt_name":"Benque;Benque Viejo","alt_name:es":"Benque;Benque Viejo"},"display_name":"Benque Viejo del Carmen, Cayo District, Belize","address":{"town":"Benque Viejo del Carmen","state":"Cayo District","ISO3166-2-lvl4":"BZ-CY","country":"Belize","country_code":"bz"},"population":7305,"osm_type":"node","osm_id":2116862398,"type":"town","location":[-89.1369452,17.0704214],"bbox":[-89.1769452,17.0304214,-89.0969452,17.1104214]}
{"name":"Santa Elena","display_name":"Santa Elena, San Ignacio & Santa Elena, Cayo District, Belize","address":{"town":"Santa Elena","city":"San Ignacio & Santa Elena","state":"Cayo District","ISO3166-2-lvl4":"BZ-CY","country":"Belize","country_code":"bz"},"population":8000,"osm_type":"node","osm_id":5840143112,"type":"town","location":[-89.0575424,17.1650772],"bbox":[-89.0975424,17.1250772,-89.0175424,17.2050772]}
{"name":"San Ignacio","display_name":"San Ignacio, San Ignacio & Santa Elena, Cayo District, Belize","address":{"town":"San Ignacio","city":"San Ignacio & Santa Elena","state":"Cayo District","ISO3166-2-lvl4":"BZ-CY","country":"Belize","country_code":"bz"},"population":17878,"osm_type":"node","osm_id":297441760,"type":"town","location":[-89.0761718,17.1527588],"bbox":[-89.1161718,17.1127588,-89.0361718,17.1927588]}
{"name":"Spanish Lookout","display_name":"Spanish Lookout, Cayo District, Belize","address":{"town":"Spanish Lookout","state":"Cayo District","ISO3166-2-lvl4":"BZ-CY","country":"Belize","country_code":"bz"},"population":2412,"osm_type":"node","osm_id":4551610941,"type":"town","location":[-89.0043957,17.2438674],"bbox":[-89.0443957,17.2038674,-88.9643957,17.2838674]}
{"name":"Shipyard","other_names":{"name:de":"Shipyard","name:en":"Shipyard","name:es":"Shipyard"},"display_name":"Shipyard, Orange Walk District, Belize","address":{"town":"Shipyard","state":"Orange Walk District","ISO3166-2-lvl4":"BZ-OW","country":"Belize","country_code":"bz"},"population":4000,"osm_type":"node","osm_id":1638387020,"type":"town","location":[-88.6635682,17.9215711],"bbox":[-88.7035682,17.8815711,-88.6235682,17.9615711]}
{"name":"Dangriga","other_names":{"name:de":"Dangriga Stadt","name:en":"Dangriga","name:es":"Dangriga","name:ru":"Дангрига","name:ur":"دانگریگا","old_name":"Stann Creek Town","old_name:es":"Pueblo de Stann Creek"},"display_name":"Dangriga, Stann Creek District, Belize","address":{"town":"Dangriga","state":"Stann Creek District","ISO3166-2-lvl4":"BZ-SC","country":"Belize","country_code":"bz"},"population":10930,"osm_type":"node","osm_id":297463331,"type":"town","location":[-88.2247368,16.9666599],"bbox":[-88.2647368,16.9266599,-88.1847368,17.0066599]}
{"name":"Ladyville","other_names":{"name:es":"Ladyville","name:lt":"Leidivilis","name:ur":"لیڈی ویل"},"display_name":"Ladyville, Belize District, Belize","address":{"town":"Ladyville","state":"Belize District","ISO3166-2-lvl4":"BZ-BZ","country":"Belize","country_code":"bz"},"population":5458,"osm_type":"node","osm_id":1291645076,"type":"town","location":[-88.288724,17.5531626],"bbox":[-88.328724,17.5131626,-88.248724,17.5931626]}
{"name":"San Pedro Town","other_names":{"name:de":"San Pedro Stadt","name:es":"San Pedro"},"display_name":"San Pedro Town, Belize District, Belize","address":{"town":"San Pedro Town","state":"Belize District","ISO3166-2-lvl4":"BZ-BZ","country":"Belize","country_code":"bz"},"population":23906,"osm_type":"node","osm_id":624692823,"type":"town","location":[-87.9621768,17.9204087],"bbox":[-88.0021768,17.8804087,-87.9221768,17.9604087]}
{"name":"Orange Walk","other_names":{"name:de":"Orange Walk Stadt","name:es":"Orange Walk"},"display_name":"Orange Walk Town, Orange Walk District, Belize","address":{"town":"Orange Walk Town","state":"Orange Walk District","ISO3166-2-lvl4":"BZ-OW","country":"Belize","country_code":"bz"},"population":13655,"osm_type":"node","osm_id":4546749407,"type":"town","location":[-88.5613615,18.0804488],"bbox":[-88.6013615,18.0404488,-88.5213615,18.1204488]}
{"name":"Corozal","other_names":{"name:be":"Карасаль","name:de":"Corozal Stadt","name:es":"Corozal","name:fa":"کوروزال","name:ru":"Коросаль","name:uk":"Коросаль","name:ur":"کوروزال","name:be-tarask":"Каросаль"},"display_name":"Corozal, Corozal District, Belize","address":{"town":"Corozal","state":"Corozal District","ISO3166-2-lvl4":"BZ-CZL","country":"Belize","country_code":"bz"},"population":14011,"osm_type":"node","osm_id":297445941,"type":"town","location":[-88.3886854,18.394332],"bbox":[-88.4286854,18.354332,-88.3486854,18.434332]}
{"name":"Jacintoville","other_names":{"name:en":"Jacintoville","name:de":"Jacintostadt"},"display_name":"Jacintoville, Toledo District, Belize","address":{"village":"Jacintoville","state":"Toledo District","ISO3166-2-lvl4":"BZ-TOL","country":"Belize","country_code":"bz"},"population":427,"osm_type":"relation","osm_id":13800960,"type":"village","location":[-88.8770693,16.1528827],"bbox":[-88.8881956,16.144128,-88.8721248,16.159819]}
{"name":"Placencia","display_name":"Placencia, Stann Creek District, Belize","address":{"village":"Placencia","state":"Stann Creek District","ISO3166-2-lvl4":"BZ-SC","country":"Belize","country_code":"bz"},"osm_type":"relation","osm_id":11520908,"type":"administrative","location":[-88.3671785,16.5156113],"bbox":[-88.3750608,16.5086399,-88.3594227,16.5373222]}
{"name":"Santa Cruz","display_name":"Santa Cruz, Stann Creek District, Belize","address":{"village":"Santa Cruz","state":"Stann Creek District","ISO3166-2-lvl4":"BZ-SC","country":"Belize","country_code":"bz"},"population":1588,"osm_type":"relation","osm_id":13819084,"type":"administrative","location":[-88.4249678,16.697378],"bbox":[-88.4384894,16.6682033,-88.4196905,16.7046708]}
{"name":"Caribbean Way","display_name":"Caribbean Way, Stann Creek District, Belize","address":{"village":"Caribbean Way","state":"Stann Creek District","ISO3166-2-lvl4":"BZ-SC","country":"Belize","country_code":"bz"},"osm_type":"relation","osm_id":13828196,"type":"administrative","location":[-88.3116945,16.6630015],"bbox":[-88.3177188,16.6476818,-88.3089309,16.6739506]}
{"name":"Seine Bight","display_name":"Seine Bight, Stann Creek District, Belize","address":{"village":"Seine Bight","state":"Stann Creek District","ISO3166-2-lvl4":"BZ-SC","country":"Belize","country_code":"bz"},"osm_type":"relation","osm_id":13828198,"type":"administrative","location":[-88.3657569,16.5674492],"bbox":[-88.370271,16.5618599,-88.36063,16.58933]}
{"name":"Maya Beach","display_name":"Maya Beach, Stann Creek District, Belize","address":{"village":"Maya Beach","state":"Stann Creek District","ISO3166-2-lvl4":"BZ-SC","country":"Belize","country_code":"bz"},"population":275,"osm_type":"relation","osm_id":13828197,"type":"administrative","location":[-88.3539724,16.6141675],"bbox":[-88.3575869,16.5987656,-88.3447174,16.6307581]}
{"name":"Buena Vista Development","other_names":{"name:en":"Buena Vista Development","alt":"Buena Vista"},"display_name":"Buena Vista Development, Cayo District, Belize","address":{"village":"Buena Vista Development","state":"Cayo District","ISO3166-2-lvl4":"BZ-CY","country":"Belize","country_code":"bz"},"population":319,"osm_type":"relation","osm_id":14097410,"type":"administrative","location":[-89.1083482,17.1589248],"bbox":[-89.1148767,17.1503825,-89.1014595,17.1636018]}
{"name":"San Jose Succotz","display_name":"San Jose Succotz, Cayo District, Belize","address":{"village":"San Jose Succotz","state":"Cayo District","ISO3166-2-lvl4":"BZ-CY","country":"Belize","country_code":"bz"},"population":2,"osm_type":"relation","osm_id":14101755,"type":"administrative","location":[-89.12740854657451,17.08065205],"bbox":[-89.1368985,17.0706403,-89.1180713,17.0902074]}
{"name":"Cristo Rey","display_name":"Cristo Rey, Cayo District, Belize","address":{"village":"Cristo Rey","state":"Cayo District","ISO3166-2-lvl4":"BZ-CY","country":"Belize","country_code":"bz"},"population":873,"osm_type":"relation","osm_id":14097419,"type":"administrative","location":[-89.0553542,17.1284558],"bbox":[-89.0625382,17.1192557,-89.0419301,17.135612]}
{"name":"Bullet Tree Falls","display_name":"Bullet Tree Falls, Cayo District, Belize","address":{"village":"Bullet Tree Falls","state":"Cayo District","ISO3166-2-lvl4":"BZ-CY","country":"Belize","country_code":"bz"},"population":2124,"osm_type":"relation","osm_id":14097418,"type":"administrative","location":[-89.1123654,17.1692732],"bbox":[-89.1225277,17.1600949,-89.1049814,17.1829367]}
{"name":"Esperanza","display_name":"Esperanza, Cayo District, Belize","address":{"village":"Esperanza","state":"Cayo District","ISO3166-2-lvl4":"BZ-CY","country":"Belize","country_code":"bz"},"population":1262,"osm_type":"relation","osm_id":14097429,"type":"administrative","location":[-89.039887,17.1782741],"bbox":[-89.0620555,17.1701721,-89.0316512,17.1867471]}
{"name":"Duck Run I","display_name":"Duck Run I, Cayo District, Belize","address":{"village":"Duck Run I","state":"Cayo District","ISO3166-2-lvl4":"BZ-CY","country":"Belize","country_code":"bz"},"population":817,"osm_type":"relation","osm_id":11616962,"type":"village","location":[-89.02010862901679,17.2191666],"bbox":[-89.0287512,17.2154304,-89.0092827,17.2291124]}
{"name":"Santa Familia","display_name":"Santa Familia, Cayo District, Belize","address":{"village":"Santa Familia","state":"Cayo District","ISO3166-2-lvl4":"BZ-CY","country":"Belize","country_code":"bz"},"population":1598,"osm_type":"relation","osm_id":14097427,"type":"administrative","location":[-89.0720139,17.1876652],"bbox":[-89.0910123,17.1732964,-89.061832,17.2013857]}
{"name":"Duck Run III","display_name":"Duck Run III, Cayo District, Belize","address":{"village":"Duck Run III","state":"Cayo District","ISO3166-2-lvl4":"BZ-CY","country":"Belize","country_code":"bz"},"population":489,"osm_type":"relation","osm_id":15402288,"type":"administrative","location":[-89.0404333,17.2593634],"bbox":[-89.0507694,17.2493962,-89.0307043,17.2701289]}
{"name":"Blackman Eddy","display_name":"Blackman Eddy, Cayo District, Belize","address":{"village":"Blackman Eddy","state":"Cayo District","ISO3166-2-lvl4":"BZ-CY","country":"Belize","country_code":"bz"},"population":656,"osm_type":"relation","osm_id":14454167,"type":"village","location":[-88.9204036,17.2255339],"bbox":[-88.9351362,17.2153554,-88.9083627,17.2311065]}
{"name":"Duck Run II","display_name":"Duck Run II, Cayo District, Belize","address":{"village":"Duck Run II","state":"Cayo District","ISO3166-2-lvl4":"BZ-CY","country":"Belize","country_code":"bz"},"population":455,"osm_type":"relation","osm_id":15402287,"type":"administrative","location":[-89.0270429,17.2420054],"bbox":[-89.0413416,17.2307773,-89.0191165,17.2546132]}
{"name":"Lower Barton Creek","display_name":"Lower Barton Creek, Cayo District, Belize","address":{"village":"Lower Barton Creek","state":"Cayo District","ISO3166-2-lvl4":"BZ-CY","country":"Belize","country_code":"bz"},"osm_type":"relation","osm_id":15262293,"type":"village","location":[-88.9134677,17.1635922],"bbox":[-88.9477585,17.1459429,-88.8748017,17.1827319]}
{"display_name":"Orange Walk District, Belize","address":{"state":"Orange Walk District","ISO3166-2-lvl4":"BZ-OW","country":"Belize","country_code":"bz"},"osm_type":"way","osm_id":295449820,"type":"village","location":[-89.0923898665267,17.5879368],"bbox":[-89.0949229,17.5846538,-89.0892795,17.5910817]}
{"name":"Lemonal","display_name":"Lemonal, Belize District, Belize","address":{"village":"Lemonal","state":"Belize District","ISO3166-2-lvl4":"BZ-BZ","country":"Belize","country_code":"bz"},"osm_type":"way","osm_id":488291638,"type":"village","location":[-88.5974435,17.6111399],"bbox":[-88.6020355,17.6066199,-88.593667,17.6151893]}
{"name":"Rancho Dolores","display_name":"Rancho Dolores, Belize District, Belize","address":{"village":"Rancho Dolores","state":"Belize District","ISO3166-2-lvl4":"BZ-BZ","country":"Belize","country_code":"bz"},"osm_type":"relation","osm_id":15339687,"type":"village","location":[-88.6259324,17.5362692],"bbox":[-88.6340137,17.5326545,-88.6216043,17.5421302]}
{"name":"Indian Church","display_name":"Indian Church, Orange Walk District, Belize","address":{"village":"Indian Church","state":"Orange Walk District","ISO3166-2-lvl4":"BZ-OW","country":"Belize","country_code":"bz"},"osm_type":"way","osm_id":467134207,"type":"village","location":[-88.6576322,17.7535555],"bbox":[-88.6610763,17.7501819,-88.6532818,17.756752]}
{"name":"Indian Creek","display_name":"Indian Creek, Orange Walk District, Belize","address":{"village":"Indian Creek","state":"Orange Walk District","ISO3166-2-lvl4":"BZ-OW","country":"Belize","country_code":"bz"},"population":903,"osm_type":"relation","osm_id":14972303,"type":"village","location":[-88.7192163,17.7522423],"bbox":[-88.779188,17.6623806,-88.6789888,17.7958376]}
{"name":"Fireburn","display_name":"Fireburn, Orange Walk District, Belize","address":{"village":"Fireburn","state":"Orange Walk District","ISO3166-2-lvl4":"BZ-OW","country":"Belize","country_code":"bz"},"osm_type":"way","osm_id":646968977,"type":"village","location":[-88.627714,17.8677419],"bbox":[-88.6338777,17.8603517,-88.6241158,17.8716891]}
{"name":"San Felipe","display_name":"San Felipe, Orange Walk District, Belize","address":{"village":"San Felipe","county":"Orange Walk District","state":"Orange Walk District","ISO3166-2-lvl4":"BZ-OW","country":"Belize","country_code":"bz"},"osm_type":"relation","osm_id":15010507,"type":"village","location":[-88.7730259,17.8721697],"bbox":[-88.7841089,17.8612874,-88.766158,17.8808629]}
{"name":"August Pine Ridge","display_name":"August Pine Ridge, Orange Walk District, Belize","address":{"village":"August Pine Ridge","state":"Orange Walk District","ISO3166-2-lvl4":"BZ-OW","country":"Belize","country_code":"bz"},"population":2197,"osm_type":"relation","osm_id":15020374,"type":"village","location":[-88.7276547,17.9747117],"bbox":[-88.7425176,17.9595322,-88.7165464,17.9951882]}
{"name":"Shipyard","other_names":{"name:en":"Shipyard","name:de":"Shipyard","name:es":"Shipyard"},"display_name":"Shipyard, Orange Walk District, Belize","address":{"town":"Shipyard","state":"Orange Walk District","ISO3166-2-lvl4":"BZ-OW","country":"Belize","country_code":"bz"},"population":4000,"osm_type":"relation","osm_id":14974516,"type":"village","location":[-88.6635682,17.9215711],"bbox":[-88.7500099,17.8216815,-88.6082014,17.9611895]}
{"name":"Guinea Grass","display_name":"Guinea Grass, Orange Walk District, Belize","address":{"village":"Guinea Grass","state":"Orange Walk District","ISO3166-2-lvl4":"BZ-OW","country":"Belize","country_code":"bz"},"osm_type":"way","osm_id":826792938,"type":"village","location":[-88.5969449,17.9683882],"bbox":[-88.6045496,17.9558327,-88.5896794,17.9749097]}
{"name":"San Lazaro","display_name":"San Lazaro, Orange Walk District, Belize","address":{"village":"San Lazaro","state":"Orange Walk District","ISO3166-2-lvl4":"BZ-OW","country":"Belize","country_code":"bz"},"osm_type":"relation","osm_id":15045320,"type":"village","location":[-88.6622852,18.0387533],"bbox":[-88.6681217,18.0322482,-88.6559481,18.0455061]}
{"name":"Trinidad","display_name":"Trinidad, Orange Walk District, Belize","address":{"village":"Trinidad","state":"Orange Walk District","ISO3166-2-lvl4":"BZ-OW","country":"Belize","country_code":"bz"},"osm_type":"relation","osm_id":15045163,"type":"village","location":[-88.684429,18.0259934],"bbox":[-88.6909823,18.0205084,-88.6778101,18.0326999]}
{"name":"San Antonio","display_name":"San Antonio, Orange Walk District, Belize","address":{"village":"San Antonio","state":"Orange Walk District","ISO3166-2-lvl4":"BZ-OW","country":"Belize","country_code":"bz"},"osm_type":"relation","osm_id":11520838,"type":"village","location":[-88.6751861,18.1314002],"bbox":[-88.6820037,18.1282684,-88.6713168,18.1379882]}
{"name":"Santa Cruz","display_name":"Santa Cruz, Orange Walk District, Belize","address":{"village":"Santa Cruz","state":"Orange Walk District","ISO3166-2-lvl4":"BZ-OW","country":"Belize","country_code":"bz"},"osm_type":"relation","osm_id":15061015,"type":"village","location":[-88.7056668,18.1156332],"bbox":[-88.7106345,18.1113083,-88.7010468,18.1202869]}
{"name":"Bermudian Landing","display_name":"Bermudian Landing, Belize District, Belize","address":{"village":"Bermudian Landing","state":"Belize District","ISO3166-2-lvl4":"BZ-BZ","country":"Belize","country_code":"bz"},"osm_type":"way","osm_id":488291745,"type":"village","location":[-88.5349883,17.5579969],"bbox":[-88.5404386,17.5538439,-88.5292377,17.5627635]}
{"name":"San Román","other_names":{"name:en":"San Román","alt":"San Roman"},"display_name":"San Román, Orange Walk District, Belize","address":{"village":"San Román","state":"Orange Walk District","ISO3166-2-lvl4":"BZ-OW","country":"Belize","country_code":"bz"},"osm_type":"relation","osm_id":15066800,"type":"village","location":[-88.6414518,18.1923796],"bbox":[-88.6477257,18.1873989,-88.6391203,18.1974276]}
{"name":"Blue Creek","display_name":"Blue Creek, Orange Walk District, Belize","address":{"village":"Blue Creek","state":"Orange Walk District","ISO3166-2-lvl4":"BZ-OW","country":"Belize","country_code":"bz"},"population":719,"osm_type":"relation","osm_id":14329803,"type":"village","location":[-88.9408904,17.888619],"bbox":[-89.1519566,17.7942044,-88.8006964,18.0048359]}
{"name":"Scotland Halfmoon Village","display_name":"Scotland Halfmoon Village, Belize District, Belize","address":{"village":"Scotland Halfmoon Village","state":"Belize District","ISO3166-2-lvl4":"BZ-BZ","country":"Belize","country_code":"bz"},"population":259,"osm_type":"way","osm_id":539328390,"type":"village","location":[-88.4992876924253,17.56706625],"bbox":[-88.5078697,17.5622486,-88.4983248,17.5717833]}
{"name":"Saint Paul's Village","display_name":"Saint Paul's Village, Belize District, Belize","address":{"village":"Saint Paul's Village","state":"Belize District","ISO3166-2-lvl4":"BZ-BZ","country":"Belize","country_code":"bz"},"osm_type":"way","osm_id":488292559,"type":"village","location":[-88.5868587,17.5154395],"bbox":[-88.592259,17.5060869,-88.5801017,17.5250668]}
{"name":"Lord's Bank","display_name":"Lord's Bank, Belize District, Belize","address":{"village":"Lord's Bank","state":"Belize District","ISO3166-2-lvl4":"BZ-BZ","country":"Belize","country_code":"bz"},"population":3140,"osm_type":"relation","osm_id":15649431,"type":"administrative","location":[-88.32291,17.5516127],"bbox":[-88.3485317,17.5375001,-88.3064619,17.5680956]}
{"name":"Western Paradise","other_names":{"name:en":"Western Paradise","alt_name":"Mile 8 Community"},"display_name":"Western Paradise, Belize District, Belize","address":{"village":"Western Paradise","state":"Belize District","ISO3166-2-lvl4":"BZ-BZ","country":"Belize","country_code":"bz"},"population":1258,"osm_type":"relation","osm_id":15649589,"type":"village","location":[-88.2954587,17.4708758],"bbox":[-88.3053192,17.4557025,-88.2771122,17.4870425]}
{"name":"Hattieville","display_name":"Hattieville, Belize District, Belize","address":{"village":"Hattieville","state":"Belize District","ISO3166-2-lvl4":"BZ-BZ","country":"Belize","country_code":"bz"},"population":2344,"osm_type":"relation","osm_id":15649563,"type":"village","location":[-88.3933402,17.4493159],"bbox":[-88.4192021,17.4286635,-88.3854599,17.468161]}
{"name":"Fresh Pond Community","display_name":"Fresh Pond Community, Belize District, Belize","address":{"village":"Fresh Pond Community","state":"Belize District","ISO3166-2-lvl4":"BZ-BZ","country":"Belize","country_code":"bz"},"population":388,"osm_type":"relation","osm_id":15751779,"type":"village","location":[-88.3987693,17.5540574],"bbox":[-88.4018414,17.5510777,-88.3932089,17.5570158]}
{"name":"Flowers Bank","display_name":"Flowers Bank, Belize District, Belize","address":{"village":"Flowers Bank","state":"Belize District","ISO3166-2-lvl4":"BZ-BZ","country":"Belize","country_code":"bz"},"osm_type":"way","osm_id":488293094,"type":"village","location":[-88.4974965,17.613039],"bbox":[-88.5034188,17.6095622,-88.4917458,17.6163317]}
{"name":"Biscayne","display_name":"Biscayne, Belize District, Belize","address":{"village":"Biscayne","state":"Belize District","ISO3166-2-lvl4":"BZ-BZ","country":"Belize","country_code":"bz"},"population":517,"osm_type":"relation","osm_id":15701708,"type":"village","location":[-88.464846,17.7356223],"bbox":[-88.4786671,17.7005643,-88.4357297,17.7627705]}
{"name":"St. George's Caye","display_name":"St. George's Caye, Belize District, Belize","address":{"village":"St. George's Caye","state":"Belize District","ISO3166-2-lvl4":"BZ-BZ","country":"Belize","country_code":"bz"},"osm_type":"relation","osm_id":15074532,"type":"village","location":[-88.0721964,17.560438],"bbox":[-88.0861952,17.5477816,-88.069914,17.5617893]}
{"name":"Gardenia","display_name":"Gardenia, Belize District, Belize","address":{"village":"Gardenia","state":"Belize District","ISO3166-2-lvl4":"BZ-BZ","country":"Belize","country_code":"bz"},"osm_type":"relation","osm_id":15701709,"type":"village","location":[-88.4179016,17.6704149],"bbox":[-88.4438589,17.6520886,-88.3937303,17.7127711]}
{"name":"Tower Hill","display_name":"Tower Hill, Orange Walk District, Belize","address":{"village":"Tower Hill","state":"Orange Walk District","ISO3166-2-lvl4":"BZ-OW","country":"Belize","country_code":"bz"},"osm_type":"way","osm_id":461441388,"type":"village","location":[-88.5614335,18.027827],"bbox":[-88.5661602,18.0253902,-88.5581002,18.033103]}
{"name":"Sand Hill","display_name":"Sand Hill, Belize District, Belize","address":{"village":"Sand Hill","state":"Belize District","ISO3166-2-lvl4":"BZ-BZ","country":"Belize","country_code":"bz"},"population":1842,"osm_type":"relation","osm_id":15701710,"type":"village","location":[-88.3716124,17.6445813],"bbox":[-88.3980648,17.5819018,-88.346,17.659039]}
{"name":"Chan Pine Ridge","display_name":"Chan Pine Ridge, Orange Walk District, Belize","address":{"village":"Chan Pine Ridge","state":"Orange Walk District","ISO3166-2-lvl4":"BZ-OW","country":"Belize","country_code":"bz"},"osm_type":"way","osm_id":461441586,"type":"village","location":[-88.5819967,18.0370222],"bbox":[-88.586418,18.0323678,-88.5777062,18.0417314]}
{"name":"Carmelita","display_name":"Carmelita, Orange Walk District, Belize","address":{"village":"Carmelita","state":"Orange Walk District","ISO3166-2-lvl4":"BZ-OW","country":"Belize","country_code":"bz"},"osm_type":"way","osm_id":838832472,"type":"village","location":[-88.5429114,18.0105153],"bbox":[-88.5496218,17.9995587,-88.5294909,18.0198342]}
{"name":"Trial Farm","display_name":"Trial Farm, Orange Walk District, Belize","address":{"village":"Trial Farm","state":"Orange Walk District","ISO3166-2-lvl4":"BZ-OW","country":"Belize","country_code":"bz"},"population":3440,"osm_type":"relation","osm_id":14411867,"type":"village","location":[-88.561146,18.098457],"bbox":[-88.5820517,18.0935233,-88.5520767,18.115795]}
{"name":"San Jose Palmar","other_names":{"name:en":"San Jose Palmar","old_name":"San Jose Nuevo Palmar"},"display_name":"San Jose Palmar, Orange Walk District, Belize","address":{"village":"San Jose Palmar","state":"Orange Walk District","ISO3166-2-lvl4":"BZ-OW","country":"Belize","country_code":"bz"},"population":1388,"osm_type":"relation","osm_id":14411949,"type":"village","location":[-88.5602219,18.0642786],"bbox":[-88.5827684,18.0539842,-88.5483858,18.0689811]}
{"name":"Buena Vista","display_name":"Buena Vista, Corozal District, Belize","address":{"village":"Buena Vista","state":"Corozal District","ISO3166-2-lvl4":"BZ-CZL","country":"Belize","country_code":"bz"},"population":628,"osm_type":"relation","osm_id":15267768,"type":"village","location":[-88.5247234,18.2382268],"bbox":[-88.5289163,18.2307733,-88.520609,18.2442726]}
{"name":"Santa Martha","other_names":{"name:en":"Santa Martha","name:es":"Santa Marta"},"display_name":"Santa Martha, Orange Walk District, Belize","address":{"village":"Santa Martha","state":"Orange Walk District","ISO3166-2-lvl4":"BZ-OW","country":"Belize","country_code":"bz"},"osm_type":"way","osm_id":459212415,"type":"village","location":[-88.3859954,17.9699904],"bbox":[-88.3918847,17.9638397,-88.3801688,17.976923]}
{"name":"San Estevan","display_name":"San Estevan, Orange Walk District, Belize","address":{"village":"San Estevan","state":"Orange Walk District","ISO3166-2-lvl4":"BZ-OW","country":"Belize","country_code":"bz"},"osm_type":"way","osm_id":221856018,"type":"village","location":[-88.5120845,18.151826],"bbox":[-88.5215423,18.1425554,-88.505354,18.1587833]}
{"name":"Viva Esperanza","display_name":"Viva Esperanza, Corozal District, Belize","address":{"village":"Viva Esperanza","county":"Corozal District","state":"Corozal District","ISO3166-2-lvl4":"BZ-CZL","country":"Belize","country_code":"bz"},"population":59,"osm_type":"way","osm_id":539890079,"type":"village","location":[-88.3221432,18.2658858],"bbox":[-88.3271537,18.2621097,-88.3173042,18.2693574]}
{"name":"Estrella","display_name":"Estrella, Corozal District, Belize","address":{"village":"Estrella","state":"Corozal District","ISO3166-2-lvl4":"BZ-CZL","country":"Belize","country_code":"bz"},"osm_type":"way","osm_id":539890708,"type":"village","location":[-88.45358408351564,18.2916903],"bbox":[-88.4553038,18.2901222,-88.4521114,18.2934287]}
{"name":"San Lucas","display_name":"San Lucas, Toledo District, Belize","address":{"village":"San Lucas","state":"Toledo District","ISO3166-2-lvl4":"BZ-TOL","country":"Belize","country_code":"bz"},"osm_type":"node","osm_id":4805038614,"type":"village","location":[-89.0997323,16.0789198],"bbox":[-89.1197323,16.0589198,-89.0797323,16.0989198]}
{"name":"Barranco","other_names":{"name:en":"Barranco","name:es":"Barranco"},"display_name":"Barranco, Toledo District, Belize","address":{"village":"Barranco","state":"Toledo District","ISO3166-2-lvl4":"BZ-TOL","country":"Belize","country_code":"bz"},"population":155,"osm_type":"node","osm_id":1933042554,"type":"village","location":[-88.9184514,16.000909],"bbox":[-88.9384514,15.980909,-88.8984514,16.020909]}
{"name":"Sunday Wood","display_name":"Sunday Wood, Toledo District, Belize","address":{"village":"Sunday Wood","state":"Toledo District","ISO3166-2-lvl4":"BZ-TOL","country":"Belize","country_code":"bz"},"osm_type":"node","osm_id":2682343751,"type":"village","location":[-89.0307859,16.0401935],"bbox":[-89.0507859,16.0201935,-89.0107859,16.0601935]}
{"name":"Conejo Creek","display_name":"Conejo Creek, Toledo District, Belize","address":{"village":"Conejo Creek","state":"Toledo District","ISO3166-2-lvl4":"BZ-TOL","country":"Belize","country_code":"bz"},"osm_type":"node","osm_id":2252744137,"type":"village","location":[-89.0007204,16.0486142],"bbox":[-89.0207204,16.0286142,-88.9807204,16.0686142]}
{"name":"Midway","display_name":"Midway, Toledo District, Belize","address":{"village":"Midway","state":"Toledo District","ISO3166-2-lvl4":"BZ-TOL","country":"Belize","country_code":"bz"},"osm_type":"node","osm_id":1933042553,"type":"village","location":[-88.95518,16.0620105],"bbox":[-88.97518,16.0420105,-88.93518,16.0820105]}
{"name":"Boom Creek","other_names":{"name:en":"Boom Creek","name:es":"Boom Arroyo"},"display_name":"Boom Creek, Toledo District, Belize","address":{"village":"Boom Creek","state":"Toledo District","ISO3166-2-lvl4":"BZ-TOL","country":"Belize","country_code":"bz"},"osm_type":"node","osm_id":1932950245,"type":"village","location":[-88.911702,16.0748192],"bbox":[-88.931702,16.0548192,-88.891702,16.0948192]}
{"name":"New Mabilha","other_names":{"name:en":"New Mabilha","alt_name":"New Marbel Ha"},"display_name":"New Mabilha, Toledo District, Belize","address":{"village":"New Mabilha","state":"Toledo District","ISO3166-2-lvl4":"BZ-TOL","country":"Belize","country_code":"bz"},"osm_type":"node","osm_id":4805038635,"type":"village","location":[-89.0870582,16.1006003],"bbox":[-89.1070582,16.0806003,-89.0670582,16.1206003]}
{"name":"Aguacate","display_name":"Aguacate, Toledo District, Belize","address":{"village":"Aguacate","state":"Toledo District","ISO3166-2-lvl4":"BZ-TOL","country":"Belize","country_code":"bz"},"osm_type":"node","osm_id":1996284374,"type":"village","location":[-89.0918417,16.1613243],"bbox":[-89.1118417,16.1413243,-89.0718417,16.1813243]}
{"name":"San Felipe","display_name":"San Felipe, Toledo District, Belize","address":{"village":"San Felipe","state":"Toledo District","ISO3166-2-lvl4":"BZ-TOL","country":"Belize","country_code":"bz"},"osm_type":"node","osm_id":1933042511,"type":"village","location":[-88.907073,16.1329523],"bbox":[-88.927073,16.1129523,-88.887073,16.1529523]}
{"name":"Santa Teresa","display_name":"Santa Teresa, Toledo District, Belize","address":{"village":"Santa Teresa","state":"Toledo District","ISO3166-2-lvl4":"BZ-TOL","country":"Belize","country_code":"bz"},"osm_type":"node","osm_id":2580317902,"type":"village","location":[-89.0533549,16.1357952],"bbox":[-89.0733549,16.1157952,-89.0333549,16.1557952]}
{"name":"Laguna","other_names":{"name:de":"Lagune","name:en":"Laguna"},"display_name":"Laguna, Toledo District, Belize","address":{"village":"Laguna","state":"Toledo District","ISO3166-2-lvl4":"BZ-TOL","country":"Belize","country_code":"bz"},"osm_type":"node","osm_id":1996285709,"type":"village","location":[-88.9409514,16.1684139],"bbox":[-88.9609514,16.1484139,-88.9209514,16.1884139]}
{"name":"Santa Ana","display_name":"Santa Ana, Toledo District, Belize","address":{"village":"Santa Ana","state":"Toledo District","ISO3166-2-lvl4":"BZ-TOL","country":"Belize","country_code":"bz"},"osm_type":"node","osm_id":1996174829,"type":"village","location":[-88.9563024,16.1063874],"bbox":[-88.9763024,16.0863874,-88.9363024,16.1263874]}
{"name":"Jacintoville","other_names":{"name:de":"Jacintostadt","name:en":"Jacintoville"},"display_name":"Jacintoville, Toledo District, Belize","address":{"village":"Jacintoville","state":"Toledo District","ISO3166-2-lvl4":"BZ-TOL","country":"Belize","country_code":"bz"},"population":427,"osm_type":"node","osm_id":10080054772,"type":"village","location":[-88.8770693,16.1528827],"bbox":[-88.8970693,16.1328827,-88.8570693,16.1728827]}
{"name":"Jordan","display_name":"Jordan, Toledo District, Belize","address":{"village":"Jordan","state":"Toledo District","ISO3166-2-lvl4":"BZ-TOL","country":"Belize","country_code":"bz"},"osm_type":"node","osm_id":1996283131,"type":"village","location":[-89.0191795,16.1601028],"bbox":[-89.0391795,16.1401028,-88.9991795,16.1801028]}
{"name":"Machakil Ha","display_name":"Machakil Ha, Toledo District, Belize","address":{"village":"Machakil Ha","state":"Toledo District","ISO3166-2-lvl4":"BZ-TOL","country":"Belize","country_code":"bz"},"osm_type":"node","osm_id":5840603811,"type":"village","location":[-89.190973,15.9410465],"bbox":[-89.210973,15.9210465,-89.170973,15.9610465]}
{"name":"Graham Creek","display_name":"Graham Creek, Toledo District, Belize","address":{"village":"Graham Creek","state":"Toledo District","ISO3166-2-lvl4":"BZ-TOL","country":"Belize","country_code":"bz"},"osm_type":"node","osm_id":4805039255,"type":"village","location":[-89.1279054,15.9316773],"bbox":[-89.1479054,15.9116773,-89.1079054,15.9516773]}
{"name":"Dolores","other_names":{"name:en":"Dolores","name:es":"Dolores"},"display_name":"Dolores, Toledo District, Belize","address":{"village":"Dolores","state":"Toledo District","ISO3166-2-lvl4":"BZ-TOL","country":"Belize","country_code":"bz"},"population":460,"osm_type":"node","osm_id":2252770277,"type":"village","location":[-89.2081072,15.9899963],"bbox":[-89.2281072,15.9699963,-89.1881072,16.0099963]}
{"name":"Crique Sarco","display_name":"Crique Sarco, Toledo District, Belize","address":{"village":"Crique Sarco","state":"Toledo District","ISO3166-2-lvl4":"BZ-TOL","country":"Belize","country_code":"bz"},"population":328,"osm_type":"node","osm_id":2580303395,"type":"village","location":[-89.1053635,15.9839769],"bbox":[-89.1253635,15.9639769,-89.0853635,16.0039769]}
{"name":"Hopeville","other_names":{"name:de":"Hoffnungsstadt","name:en":"Hopeville"},"display_name":"Hopeville, Toledo District, Belize","address":{"village":"Hopeville","state":"Toledo District","ISO3166-2-lvl4":"BZ-TOL","country":"Belize","country_code":"bz"},"osm_type":"node","osm_id":1979840134,"type":"village","location":[-88.8000428,16.1174232],"bbox":[-88.8200428,16.0974232,-88.7800428,16.1374232]}
{"name":"Cattle Landing","other_names":{"name:de":"Viehlandung","name:en":"Cattle Landing","old_name":"Toledo Settlement"},"display_name":"Cattle Landing, Toledo District, Belize","address":{"village":"Cattle Landing","state":"Toledo District","ISO3166-2-lvl4":"BZ-TOL","country":"Belize","country_code":"bz"},"population":226,"osm_type":"node","osm_id":1979840133,"type":"village","location":[-88.7998934,16.1232461],"bbox":[-88.8198934,16.1032461,-88.7798934,16.1432461]}
{"name":"Otoxha","display_name":"Otoxha, Toledo District, Belize","address":{"village":"Otoxha","state":"Toledo District","ISO3166-2-lvl4":"BZ-TOL","country":"Belize","country_code":"bz"},"population":262,"osm_type":"node","osm_id":2252770276,"type":"village","location":[-89.176937,16.0250054],"bbox":[-89.196937,16.0050054,-89.156937,16.0450054]}
{"name":"Eldridgeville","other_names":{"name:de":"Eldridgestadt","name:en":"Eldridgeville"},"display_name":"Eldridgeville, Toledo District, Belize","address":{"village":"Eldridgeville","state":"Toledo District","ISO3166-2-lvl4":"BZ-TOL","country":"Belize","country_code":"bz"},"osm_type":"node","osm_id":1979696623,"type":"village","location":[-88.8406858,16.1381786],"bbox":[-88.8606858,16.1181786,-88.8206858,16.1581786]}
{"name":"Forest Home","other_names":{"name:de":"Waldheim","name:en":"Forest Home"},"display_name":"Forest Home, Toledo District, Belize","address":{"village":"Forest Home","state":"Toledo District","ISO3166-2-lvl4":"BZ-TOL","country":"Belize","country_code":"bz"},"osm_type":"node","osm_id":1979696588,"type":"village","location":[-88.8302348,16.1358171],"bbox":[-88.8502348,16.1158171,-88.8102348,16.1558171]}
{"name":"Corazon Creek","display_name":"Corazon Creek, Toledo District, Belize","address":{"village":"Corazon Creek","state":"Toledo District","ISO3166-2-lvl4":"BZ-TOL","country":"Belize","country_code":"bz"},"population":231,"osm_type":"node","osm_id":4805038571,"type":"village","location":[-89.1227159,16.0532036],"bbox":[-89.1427159,16.0332036,-89.1027159,16.0732036]}
{"name":"San Benito Poite","display_name":"San Benito Poite, Toledo District, Belize","address":{"village":"San Benito Poite","state":"Toledo District","ISO3166-2-lvl4":"BZ-TOL","country":"Belize","country_code":"bz"},"population":543,"osm_type":"node","osm_id":4805039045,"type":"village","location":[-89.1897115,16.1131369],"bbox":[-89.2097115,16.0931369,-89.1697115,16.1331369]}
{"name":"Santa Cruz (Belize)","display_name":"Santa Cruz (Belize), Toledo District, Belize","address":{"village":"Santa Cruz (Belize)","state":"Toledo District","ISO3166-2-lvl4":"BZ-TOL","country":"Belize","country_code":"bz"},"osm_type":"node","osm_id":9506626280,"type":"village","location":[-89.207975,16.1867304],"bbox":[-89.227975,16.1667304,-89.187975,16.2067304]}
{"name":"Jalacte","display_name":"Jalacte, Toledo District, Belize","address":{"village":"Jalacte","state":"Toledo District","ISO3166-2-lvl4":"BZ-TOL","country":"Belize","country_code":"bz"},"population":768,"osm_type":"node","osm_id":1996290749,"type":"village","location":[-89.2008202,16.2044435],"bbox":[-89.2208202,16.1844435,-89.1808202,16.2244435]}
{"name":"Pueblo Viejo","display_name":"Pueblo Viejo, Toledo District, Belize","address":{"village":"Pueblo Viejo","state":"Toledo District","ISO3166-2-lvl4":"BZ-TOL","country":"Belize","country_code":"bz"},"population":433,"osm_type":"node","osm_id":1996290751,"type":"village","location":[-89.1405614,16.2064266],"bbox":[-89.1605614,16.1864266,-89.1205614,16.2264266]}
{"name":"San Vicente","display_name":"San Vicente, Toledo District, Belize","address":{"village":"San Vicente","state":"Toledo District","ISO3166-2-lvl4":"BZ-TOL","country":"Belize","country_code":"bz"},"population":441,"osm_type":"node","osm_id":1996290884,"type":"village","location":[-89.1991166,16.2388598],"bbox":[-89.2191166,16.2188598,-89.1791166,16.2588598]}
{"name":"Blue Creek","other_names":{"name:en":"Blue Creek","old_name":"Rio Blanco"},"display_name":"Blue Creek, Toledo District, Belize","address":{"village":"Blue Creek","state":"Toledo District","ISO3166-2-lvl4":"BZ-TOL","country":"Belize","country_code":"bz"},"osm_type":"node","osm_id":1996277249,"type":"village","location":[-89.045402,16.1995207],"bbox":[-89.065402,16.1795207,-89.025402,16.2195207]}
{"name":"Santa Elena","display_name":"Santa Elena, Toledo District, Belize","address":{"village":"Santa Elena","state":"Toledo District","ISO3166-2-lvl4":"BZ-TOL","country":"Belize","country_code":"bz"},"population":200,"osm_type":"node","osm_id":1996290752,"type":"village","location":[-89.1072177,16.2293927],"bbox":[-89.1272177,16.2093927,-89.0872177,16.2493927]}
{"name":"Santa Cruz","display_name":"Santa Cruz, Toledo District, Belize","address":{"village":"Santa Cruz","state":"Toledo District","ISO3166-2-lvl4":"BZ-TOL","country":"Belize","country_code":"bz"},"population":386,"osm_type":"node","osm_id":1996290750,"type":"village","location":[-89.0755546,16.2349617],"bbox":[-89.0955546,16.2149617,-89.0555546,16.2549617]}
{"name":"San Antonio","display_name":"San Antonio, Toledo District, Belize","address":{"village":"San Antonio","state":"Toledo District","ISO3166-2-lvl4":"BZ-TOL","country":"Belize","country_code":"bz"},"population":1204,"osm_type":"node","osm_id":1996222496,"type":"village","location":[-89.0237565,16.2453734],"bbox":[-89.0437565,16.2253734,-89.0037565,16.2653734]}
{"name":"Mafredi","display_name":"Mafredi, Toledo District, Belize","address":{"village":"Mafredi","state":"Toledo District","ISO3166-2-lvl4":"BZ-TOL","country":"Belize","country_code":"bz"},"population":149,"osm_type":"node","osm_id":1996222481,"type":"village","location":[-88.9926743,16.2441799],"bbox":[-89.0126743,16.2241799,-88.9726743,16.2641799]}
{"name":"San Jose","display_name":"San Jose, Toledo District, Belize","address":{"village":"San Jose","state":"Toledo District","ISO3166-2-lvl4":"BZ-TOL","country":"Belize","country_code":"bz"},"population":849,"osm_type":"node","osm_id":1996286459,"type":"village","location":[-89.0944767,16.2660845],"bbox":[-89.1144767,16.2460845,-89.0744767,16.2860845]}
{"name":"Na Lum Cah","display_name":"Na Lum Cah, Toledo District, Belize","address":{"village":"Na Lum Cah","state":"Toledo District","ISO3166-2-lvl4":"BZ-TOL","country":"Belize","country_code":"bz"},"osm_type":"node","osm_id":1996286457,"type":"village","location":[-89.0806944,16.2850452],"bbox":[-89.1006944,16.2650452,-89.0606944,16.3050452]}
{"name":"Crique Jute","display_name":"Crique Jute, Toledo District, Belize","address":{"village":"Crique Jute","state":"Toledo District","ISO3166-2-lvl4":"BZ-TOL","country":"Belize","country_code":"bz"},"population":223,"osm_type":"node","osm_id":1996286458,"type":"village","location":[-89.0170028,16.2748913],"bbox":[-89.0370028,16.2548913,-88.9970028,16.2948913]}
{"name":"Big Falls","other_names":{"name:de":"Große Fälle","name:en":"Big Falls"},"display_name":"Big Falls, Toledo District, Belize","address":{"village":"Big Falls","state":"Toledo District","ISO3166-2-lvl4":"BZ-TOL","country":"Belize","country_code":"bz"},"osm_type":"node","osm_id":1979736538,"type":"village","location":[-88.8847031,16.2578973],"bbox":[-88.9047031,16.2378973,-88.8647031,16.2778973]}
{"name":"San Pedro Columbia","other_names":{"name:en":"San Pedro Columbia","name:es":"San Pedro Columbia"},"display_name":"San Pedro Columbia, Toledo District, Belize","address":{"village":"San Pedro Columbia","state":"Toledo District","ISO3166-2-lvl4":"BZ-TOL","country":"Belize","country_code":"bz"},"osm_type":"node","osm_id":1979736537,"type":"village","location":[-88.9543235,16.2702395],"bbox":[-88.9743235,16.2502395,-88.9343235,16.2902395]}
{"name":"San Marcos","other_names":{"name:en":"San Marcos","name:es":"San Marcos"},"display_name":"San Marcos, Toledo District, Belize","address":{"village":"San Marcos","state":"Toledo District","ISO3166-2-lvl4":"BZ-TOL","country":"Belize","country_code":"bz"},"osm_type":"node","osm_id":1979838145,"type":"village","location":[-88.9052305,16.2157906],"bbox":[-88.9252305,16.1957906,-88.8852305,16.2357906]}
{"name":"Pine Hill","other_names":{"name:de":"Kiefernhügel","name:en":"Pine Hill"},"display_name":"Pine Hill, Toledo District, Belize","address":{"village":"Pine Hill","state":"Toledo District","ISO3166-2-lvl4":"BZ-TOL","country":"Belize","country_code":"bz"},"osm_type":"node","osm_id":2042145083,"type":"village","location":[-88.8294603,16.2446419],"bbox":[-88.8494603,16.2246419,-88.8094603,16.2646419]}
{"name":"Yemeri Grove","other_names":{"name:de":"Jemeri-Hain","name:en":"Yemeri Grove"},"display_name":"Yemeri Grove, Toledo District, Belize","address":{"village":"Yemeri Grove","state":"Toledo District","ISO3166-2-lvl4":"BZ-TOL","country":"Belize","country_code":"bz"},"osm_type":"node","osm_id":10076021880,"type":"village","location":[-88.8968162,16.1723564],"bbox":[-88.9168162,16.1523564,-88.8768162,16.1923564]}
{"name":"Indian Creek","display_name":"Indian Creek, Toledo District, Belize","address":{"village":"Indian Creek","state":"Toledo District","ISO3166-2-lvl4":"BZ-TOL","country":"Belize","country_code":"bz"},"osm_type":"node","osm_id":5893590215,"type":"village","location":[-88.8366622,16.3099648],"bbox":[-88.8566622,16.2899648,-88.8166622,16.3299648]}
{"name":"San Miguel","display_name":"San Miguel, Toledo District, Belize","address":{"village":"San Miguel","state":"Toledo District","ISO3166-2-lvl4":"BZ-TOL","country":"Belize","country_code":"bz"},"osm_type":"node","osm_id":1979736534,"type":"village","location":[-88.9332735,16.293782],"bbox":[-88.9532735,16.273782,-88.9132735,16.313782]}
{"name":"Golden Stream","display_name":"Golden Stream, Toledo District, Belize","address":{"village":"Golden Stream","state":"Toledo District","ISO3166-2-lvl4":"BZ-TOL","country":"Belize","country_code":"bz"},"osm_type":"node","osm_id":1979750036,"type":"village","location":[-88.8005192,16.3620185],"bbox":[-88.8205192,16.3420185,-88.7805192,16.3820185]}
{"name":"Dump","other_names":{"name:de":"Müllhalde","name:en":"Dump"},"display_name":"Dump, Toledo District, Belize","address":{"village":"Dump","state":"Toledo District","ISO3166-2-lvl4":"BZ-TOL","country":"Belize","country_code":"bz"},"population":198,"osm_type":"node","osm_id":1942000111,"type":"village","location":[-88.9377174,16.2279312],"bbox":[-88.9577174,16.2079312,-88.9177174,16.2479312]}
{"name":"Silver Creek","other_names":{"name:de":"Silberbach","name:en":"Silver Creek"},"display_name":"Silver Creek, Toledo District, Belize","address":{"village":"Silver Creek","state":"Toledo District","ISO3166-2-lvl4":"BZ-TOL","country":"Belize","country_code":"bz"},"osm_type":"node","osm_id":1979750032,"type":"village","location":[-88.8901321,16.2798479],"bbox":[-88.9101321,16.2598479,-88.8701321,16.2998479]}
{"name":"Hicattee","display_name":"Hicattee, Toledo District, Belize","address":{"village":"Hicattee","state":"Toledo District","ISO3166-2-lvl4":"BZ-TOL","country":"Belize","country_code":"bz"},"osm_type":"node","osm_id":1979750034,"type":"village","location":[-88.8765952,16.2829441],"bbox":[-88.8965952,16.2629441,-88.8565952,16.3029441]}
{"name":"Medina Bank","display_name":"Medina Bank, Toledo District, Belize","address":{"village":"Medina Bank","state":"Toledo District","ISO3166-2-lvl4":"BZ-TOL","country":"Belize","country_code":"bz"},"osm_type":"node","osm_id":2575217635,"type":"village","location":[-88.7444904,16.4406369],"bbox":[-88.7644904,16.4206369,-88.7244904,16.4606369]}
{"name":"Bladen","display_name":"Bladen, Toledo District, Belize","address":{"village":"Bladen","state":"Toledo District","ISO3166-2-lvl4":"BZ-TOL","country":"Belize","country_code":"bz"},"osm_type":"node","osm_id":2575217315,"type":"village","location":[-88.6245206,16.4719371],"bbox":[-88.6445206,16.4519371,-88.6045206,16.4919371]}
{"name":"Trio","display_name":"Trio, Toledo District, Belize","address":{"village":"Trio","state":"Toledo District","ISO3166-2-lvl4":"BZ-TOL","country":"Belize","country_code":"bz"},"osm_type":"node","osm_id":2575217286,"type":"village","location":[-88.6357675,16.5152904],"bbox":[-88.6557675,16.4952904,-88.6157675,16.5352904]}
{"name":"Swasey","display_name":"Swasey, Toledo District, Belize","address":{"village":"Swasey","state":"Toledo District","ISO3166-2-lvl4":"BZ-TOL","country":"Belize","country_code":"bz"},"population":257,"osm_type":"node","osm_id":8008270780,"type":"village","location":[-88.5740283,16.5064048],"bbox":[-88.5940283,16.4864048,-88.5540283,16.5264048]}
{"name":"San Isidro","display_name":"San Isidro, Toledo District, Belize","address":{"village":"San Isidro","state":"Toledo District","ISO3166-2-lvl4":"BZ-TOL","country":"Belize","country_code":"bz"},"osm_type":"node","osm_id":2596102953,"type":"village","location":[-88.5456396,16.511616],"bbox":[-88.5656396,16.491616,-88.5256396,16.531616]}
{"name":"San Juan","display_name":"San Juan, Stann Creek District, Belize","address":{"village":"San Juan","state":"Stann Creek District","ISO3166-2-lvl4":"BZ-SC","country":"Belize","country_code":"bz"},"population":437,"osm_type":"node","osm_id":5910374332,"type":"village","location":[-88.5152799,16.5623157],"bbox":[-88.5352799,16.5423157,-88.4952799,16.5823157]}
{"name":"Placencia","display_name":"Placencia, Stann Creek District, Belize","address":{"village":"Placencia","state":"Stann Creek District","ISO3166-2-lvl4":"BZ-SC","country":"Belize","country_code":"bz"},"osm_type":"node","osm_id":2789784062,"type":"village","location":[-88.3671785,16.5156113],"bbox":[-88.3871785,16.4956113,-88.3471785,16.5356113]}
{"name":"Cowpen","display_name":"Cowpen, Stann Creek District, Belize","address":{"village":"Cowpen","state":"Stann Creek District","ISO3166-2-lvl4":"BZ-SC","country":"Belize","country_code":"bz"},"population":1042,"osm_type":"node","osm_id":2575216292,"type":"village","location":[-88.5284029,16.5677853],"bbox":[-88.5484029,16.5477853,-88.5084029,16.5877853]}
{"name":"Georgetown","display_name":"Georgetown, Stann Creek District, Belize","address":{"village":"Georgetown","state":"Stann Creek District","ISO3166-2-lvl4":"BZ-SC","country":"Belize","country_code":"bz"},"osm_type":"node","osm_id":2575216067,"type":"village","location":[-88.5069743,16.6528824],"bbox":[-88.5269743,16.6328824,-88.4869743,16.6728824]}
{"name":"San Pablo","display_name":"San Pablo, Toledo District, Belize","address":{"village":"San Pablo","state":"Toledo District","ISO3166-2-lvl4":"BZ-TOL","country":"Belize","country_code":"bz"},"osm_type":"node","osm_id":2575216291,"type":"village","location":[-88.5803919,16.6121767],"bbox":[-88.6003919,16.5921767,-88.5603919,16.6321767]}
{"name":"Red Bank","display_name":"Red Bank, Stann Creek District, Belize","address":{"village":"Red Bank","state":"Stann Creek District","ISO3166-2-lvl4":"BZ-SC","country":"Belize","country_code":"bz"},"osm_type":"node","osm_id":2575216290,"type":"village","location":[-88.5592656,16.6189761],"bbox":[-88.5792656,16.5989761,-88.5392656,16.6389761]}
{"name":"Maya Mopan","display_name":"Maya Mopan, Stann Creek District, Belize","address":{"village":"Maya Mopan","state":"Stann Creek District","ISO3166-2-lvl4":"BZ-SC","country":"Belize","country_code":"bz"},"osm_type":"node","osm_id":2575216068,"type":"village","location":[-88.5218474,16.6607956],"bbox":[-88.5418474,16.6407956,-88.5018474,16.6807956]}
{"name":"Monkey River Town","display_name":"Monkey River Town, Toledo District, Belize","address":{"village":"Monkey River Town","state":"Toledo District","ISO3166-2-lvl4":"BZ-TOL","country":"Belize","country_code":"bz"},"osm_type":"node","osm_id":309704713,"type":"village","location":[-88.4853936,16.363777],"bbox":[-88.5053936,16.343777,-88.4653936,16.383777]}
{"name":"Roseville","display_name":"Roseville, Toledo District, Belize","address":{"village":"Roseville","state":"Toledo District","ISO3166-2-lvl4":"BZ-TOL","country":"Belize","country_code":"bz"},"osm_type":"node","osm_id":6389483298,"type":"village","location":[-88.5920066,16.6387026],"bbox":[-88.6120066,16.6187026,-88.5720066,16.6587026]}
{"name":"Santa Cruz","display_name":"Santa Cruz, Stann Creek District, Belize","address":{"village":"Santa Cruz","state":"Stann Creek District","ISO3166-2-lvl4":"BZ-SC","country":"Belize","country_code":"bz"},"population":1588,"osm_type":"node","osm_id":2580285652,"type":"village","location":[-88.4249678,16.697378],"bbox":[-88.4449678,16.677378,-88.4049678,16.717378]}
{"name":"San Roman","display_name":"San Roman, Stann Creek District, Belize","address":{"village":"San Roman","state":"Stann Creek District","ISO3166-2-lvl4":"BZ-SC","country":"Belize","country_code":"bz"},"population":1085,"osm_type":"node","osm_id":2575215989,"type":"village","location":[-88.4684177,16.6584494],"bbox":[-88.4884177,16.6384494,-88.4484177,16.6784494]}
{"name":"Santa Rosa","display_name":"Santa Rosa, Stann Creek District, Belize","address":{"village":"Santa Rosa","state":"Stann Creek District","ISO3166-2-lvl4":"BZ-SC","country":"Belize","country_code":"bz"},"osm_type":"node","osm_id":2575215988,"type":"village","location":[-88.4580377,16.664373],"bbox":[-88.4780377,16.644373,-88.4380377,16.684373]}
{"name":"Seine Bight","display_name":"Seine Bight, Stann Creek District, Belize","address":{"village":"Seine Bight","state":"Stann Creek District","ISO3166-2-lvl4":"BZ-SC","country":"Belize","country_code":"bz"},"osm_type":"node","osm_id":5575501378,"type":"village","location":[-88.3657569,16.5674492],"bbox":[-88.3857569,16.5474492,-88.3457569,16.5874492]}
{"name":"Hopkins","display_name":"Hopkins, Stann Creek District, Belize","address":{"village":"Hopkins","state":"Stann Creek District","ISO3166-2-lvl4":"BZ-SC","country":"Belize","country_code":"bz"},"osm_type":"node","osm_id":617428722,"type":"village","location":[-88.2849352,16.8636325],"bbox":[-88.3049352,16.8436325,-88.2649352,16.8836325]}
{"name":"Maya Beach","display_name":"Maya Beach, Stann Creek District, Belize","address":{"village":"Maya Beach","state":"Stann Creek District","ISO3166-2-lvl4":"BZ-SC","country":"Belize","country_code":"bz"},"population":275,"osm_type":"node","osm_id":7126662710,"type":"village","location":[-88.3539724,16.6141675],"bbox":[-88.3739724,16.5941675,-88.3339724,16.6341675]}
{"name":"Sittee River","display_name":"Sittee River, Stann Creek District, Belize","address":{"village":"Sittee River","state":"Stann Creek District","ISO3166-2-lvl4":"BZ-SC","country":"Belize","country_code":"bz"},"osm_type":"node","osm_id":2717816903,"type":"village","location":[-88.3238578,16.8209295],"bbox":[-88.3438578,16.8009295,-88.3038578,16.8409295]}
{"name":"Caribbean Way","display_name":"Caribbean Way, Stann Creek District, Belize","address":{"village":"Caribbean Way","state":"Stann Creek District","ISO3166-2-lvl4":"BZ-SC","country":"Belize","country_code":"bz"},"osm_type":"node","osm_id":9515311315,"type":"village","location":[-88.3116945,16.6630015],"bbox":[-88.3316945,16.6430015,-88.2916945,16.6830015]}
{"name":"Riversdale","display_name":"Riversdale, Stann Creek District, Belize","address":{"village":"Riversdale","state":"Stann Creek District","ISO3166-2-lvl4":"BZ-SC","country":"Belize","country_code":"bz"},"osm_type":"node","osm_id":2579984983,"type":"village","location":[-88.3110506,16.6894394],"bbox":[-88.3310506,16.6694394,-88.2910506,16.7094394]}
{"name":"Maya  Centre","display_name":"Maya  Centre, Stann Creek District, Belize","address":{"village":"Maya  Centre","state":"Stann Creek District","ISO3166-2-lvl4":"BZ-SC","country":"Belize","country_code":"bz"},"osm_type":"node","osm_id":2056992277,"type":"village","location":[-88.3823496,16.7984035],"bbox":[-88.4023496,16.7784035,-88.3623496,16.8184035]}
{"name":"San José Succotz","other_names":{"name:en":"San José Succotz","alt_name":"Succotz"},"display_name":"San José Succotz, San Jose Succotz, Cayo District, Belize","address":{"village":"San José Succotz","state":"Cayo District","ISO3166-2-lvl4":"BZ-CY","country":"Belize","country_code":"bz"},"population":2701,"osm_type":"node","osm_id":2116862403,"type":"village","location":[-89.1291617,17.0839348],"bbox":[-89.1491617,17.0639348,-89.1091617,17.1039348]}
{"name":"Arenal","other_names":{"name:en":"Arenal","name:es":"Arenal"},"display_name":"Arenal, Cayo District, Belize","address":{"village":"Arenal","state":"Cayo District","ISO3166-2-lvl4":"BZ-CY","country":"Belize","country_code":"bz"},"osm_type":"node","osm_id":5840251538,"type":"village","location":[-89.1520425,17.0226618],"bbox":[-89.1720425,17.0026618,-89.1320425,17.0426618]}
{"name":"San Antonio","display_name":"San Antonio, Cayo District, Belize","address":{"village":"San Antonio","state":"Cayo District","ISO3166-2-lvl4":"BZ-CY","country":"Belize","country_code":"bz"},"population":1848,"osm_type":"node","osm_id":5900492668,"type":"village","location":[-89.0236432,17.0790214],"bbox":[-89.0436432,17.0590214,-89.0036432,17.0990214]}
{"name":"Calla Creek","other_names":{"name:en":"Calla Creek","old_name":"Callar Creek"},"display_name":"Calla Creek, Cayo District, Belize","address":{"village":"Calla Creek","state":"Cayo District","ISO3166-2-lvl4":"BZ-CY","country":"Belize","country_code":"bz"},"population":333,"osm_type":"node","osm_id":2524007141,"type":"village","location":[-89.1343277,17.1225629],"bbox":[-89.1543277,17.1025629,-89.1143277,17.1425629]}
{"name":"Cristo Rey","display_name":"Cristo Rey, Cayo District, Belize","address":{"village":"Cristo Rey","state":"Cayo District","ISO3166-2-lvl4":"BZ-CY","country":"Belize","country_code":"bz"},"osm_type":"node","osm_id":1974340340,"type":"village","location":[-89.0553542,17.1284558],"bbox":[-89.0753542,17.1084558,-89.0353542,17.1484558]}
{"name":"Bullet Tree Falls","display_name":"Bullet Tree Falls, Cayo District, Belize","address":{"village":"Bullet Tree Falls","state":"Cayo District","ISO3166-2-lvl4":"BZ-CY","country":"Belize","country_code":"bz"},"population":2124,"osm_type":"node","osm_id":1916552364,"type":"village","location":[-89.1123654,17.1692732],"bbox":[-89.1323654,17.1492732,-89.0923654,17.1892732]}
{"name":"Seven Miles / El Progresso","display_name":"Seven Miles / El Progresso, Cayo District, Belize","address":{"village":"Seven Miles / El Progresso","state":"Cayo District","ISO3166-2-lvl4":"BZ-CY","country":"Belize","country_code":"bz"},"osm_type":"node","osm_id":1974011332,"type":"village","location":[-88.9542372,17.1008777],"bbox":[-88.9742372,17.0808777,-88.9342372,17.1208777]}
{"name":"Buena Vista","display_name":"Buena Vista Development, Cayo District, Belize","address":{"village":"Buena Vista Development","state":"Cayo District","ISO3166-2-lvl4":"BZ-CY","country":"Belize","country_code":"bz"},"population":319,"osm_type":"node","osm_id":4947455618,"type":"village","location":[-89.1083482,17.1589248],"bbox":[-89.1283482,17.1389248,-89.0883482,17.1789248]}
{"name":"Santa Familia","display_name":"Santa Familia, Cayo District, Belize","address":{"village":"Santa Familia","state":"Cayo District","ISO3166-2-lvl4":"BZ-CY","country":"Belize","country_code":"bz"},"osm_type":"node","osm_id":5862589453,"type":"village","location":[-89.0720139,17.1876652],"bbox":[-89.0920139,17.1676652,-89.0520139,17.2076652]}
{"name":"Billy White","display_name":"Billy White, Cayo District, Belize","address":{"village":"Billy White","state":"Cayo District","ISO3166-2-lvl4":"BZ-CY","country":"Belize","country_code":"bz"},"osm_type":"node","osm_id":2794036353,"type":"village","location":[-89.050299,17.2112449],"bbox":[-89.070299,17.1912449,-89.030299,17.2312449]}
{"name":"Esperanza","display_name":"Esperanza, Cayo District, Belize","address":{"village":"Esperanza","state":"Cayo District","ISO3166-2-lvl4":"BZ-CY","country":"Belize","country_code":"bz"},"population":1262,"osm_type":"node","osm_id":4920972085,"type":"village","location":[-89.039887,17.1782741],"bbox":[-89.059887,17.1582741,-89.019887,17.1982741]}
{"name":"Central Farm","display_name":"Central Farm, Cayo District, Belize","address":{"village":"Central Farm","state":"Cayo District","ISO3166-2-lvl4":"BZ-CY","country":"Belize","country_code":"bz"},"osm_type":"node","osm_id":5065253193,"type":"village","location":[-89.0012233,17.187157],"bbox":[-89.0212233,17.167157,-88.9812233,17.207157]}
{"name":"Cool Shade","display_name":"Cool Shade, Cayo District, Belize","address":{"village":"Cool Shade","state":"Cayo District","ISO3166-2-lvl4":"BZ-CY","country":"Belize","country_code":"bz"},"osm_type":"node","osm_id":2129544308,"type":"village","location":[-88.9633488,17.1577692],"bbox":[-88.9833488,17.1377692,-88.9433488,17.1777692]}
{"name":"Lower Barton Creek","display_name":"Lower Barton Creek, Cayo District, Belize","address":{"village":"Lower Barton Creek","state":"Cayo District","ISO3166-2-lvl4":"BZ-CY","country":"Belize","country_code":"bz"},"osm_type":"node","osm_id":2086556141,"type":"village","location":[-88.9134677,17.1635922],"bbox":[-88.9334677,17.1435922,-88.8934677,17.1835922]}
{"name":"Georgeville","display_name":"Georgeville, Cayo District, Belize","address":{"village":"Georgeville","state":"Cayo District","ISO3166-2-lvl4":"BZ-CY","country":"Belize","country_code":"bz"},"population":787,"osm_type":"node","osm_id":2129544742,"type":"village","location":[-88.9799039,17.193261],"bbox":[-88.9999039,17.173261,-88.9599039,17.213261]}
{"name":"Upper Barton Creek","display_name":"Upper Barton Creek, Cayo District, Belize","address":{"village":"Upper Barton Creek","state":"Cayo District","ISO3166-2-lvl4":"BZ-CY","country":"Belize","country_code":"bz"},"population":380,"osm_type":"node","osm_id":2086556142,"type":"village","location":[-88.9422038,17.127251],"bbox":[-88.9622038,17.107251,-88.9222038,17.147251]}
{"name":"New Holland","display_name":"New Holland, Cayo District, Belize","address":{"village":"New Holland","state":"Cayo District","ISO3166-2-lvl4":"BZ-CY","country":"Belize","country_code":"bz"},"osm_type":"node","osm_id":10673893212,"type":"village","location":[-88.886159,17.1775628],"bbox":[-88.906159,17.1575628,-88.866159,17.1975628]}
{"name":"Unitedville","display_name":"Unitedville, Cayo District, Belize","address":{"village":"Unitedville","state":"Cayo District","ISO3166-2-lvl4":"BZ-CY","country":"Belize","country_code":"bz"},"osm_type":"node","osm_id":2130131558,"type":"village","location":[-88.9363647,17.2123415],"bbox":[-88.9563647,17.1923415,-88.9163647,17.2323415]}
{"name":"Teakettle","display_name":"Teakettle, Cayo District, Belize","address":{"village":"Teakettle","state":"Cayo District","ISO3166-2-lvl4":"BZ-CY","country":"Belize","country_code":"bz"},"population":2191,"osm_type":"node","osm_id":1973961858,"type":"village","location":[-88.8531386,17.224794],"bbox":[-88.8731386,17.204794,-88.8331386,17.244794]}
{"name":"Blackman Eddy","display_name":"Blackman Eddy, Cayo District, Belize","address":{"village":"Blackman Eddy","state":"Cayo District","ISO3166-2-lvl4":"BZ-CY","country":"Belize","country_code":"bz"},"population":656,"osm_type":"node","osm_id":9950401718,"type":"village","location":[-88.9204036,17.2255339],"bbox":[-88.9404036,17.2055339,-88.9004036,17.2455339]}
{"name":"Ontario","display_name":"Ontario, Cayo District, Belize","address":{"village":"Ontario","state":"Cayo District","ISO3166-2-lvl4":"BZ-CY","country":"Belize","country_code":"bz"},"population":968,"osm_type":"node","osm_id":2129546117,"type":"village","location":[-88.8885171,17.2239629],"bbox":[-88.9085171,17.2039629,-88.8685171,17.2439629]}
{"name":"Springfield","display_name":"Springfield, Cayo District, Belize","address":{"village":"Springfield","state":"Cayo District","ISO3166-2-lvl4":"BZ-CY","country":"Belize","country_code":"bz"},"population":270,"osm_type":"node","osm_id":1638389623,"type":"village","location":[-88.8052912,17.1455508],"bbox":[-88.8252912,17.1255508,-88.7852912,17.1655508]}
{"name":"Agua Viva","other_names":{"name:en":"Agua Viva","name:es":"Água Viva"},"display_name":"Agua Viva, Cayo District, Belize","address":{"village":"Agua Viva","state":"Cayo District","ISO3166-2-lvl4":"BZ-CY","country":"Belize","country_code":"bz"},"osm_type":"node","osm_id":2202747278,"type":"village","location":[-88.787093,17.1687414],"bbox":[-88.807093,17.1487414,-88.767093,17.1887414]}
{"name":"Arizona","display_name":"Arizona, Cayo District, Belize","address":{"village":"Arizona","state":"Cayo District","ISO3166-2-lvl4":"BZ-CY","country":"Belize","country_code":"bz"},"population":715,"osm_type":"node","osm_id":1973961857,"type":"village","location":[-88.8511645,17.214628],"bbox":[-88.8711645,17.194628,-88.8311645,17.234628]}
{"name":"St. Margaret's","display_name":"St. Margaret's, Cayo District, Belize","address":{"village":"St. Margaret's","state":"Cayo District","ISO3166-2-lvl4":"BZ-CY","country":"Belize","country_code":"bz"},"osm_type":"node","osm_id":5402404919,"type":"village","location":[-88.6341942,17.091656],"bbox":[-88.6541942,17.071656,-88.6141942,17.111656]}
{"name":"Santa Marta","display_name":"Santa Marta, Cayo District, Belize","address":{"village":"Santa Marta","state":"Cayo District","ISO3166-2-lvl4":"BZ-CY","country":"Belize","country_code":"bz"},"osm_type":"node","osm_id":2609003380,"type":"village","location":[-88.6118965,17.0920157],"bbox":[-88.6318965,17.0720157,-88.5918965,17.1120157]}
{"name":"Armenia","other_names":{"name:en":"Armenia","old_name":"San Jacinto"},"display_name":"Armenia, Cayo District, Belize","address":{"village":"Armenia","state":"Cayo District","ISO3166-2-lvl4":"BZ-CY","country":"Belize","country_code":"bz"},"osm_type":"node","osm_id":5402419170,"type":"village","location":[-88.7458949,17.1555891],"bbox":[-88.7658949,17.1355891,-88.7258949,17.1755891]}
{"name":"Duck Run III","display_name":"Duck Run III, Cayo District, Belize","address":{"village":"Duck Run III","state":"Cayo District","ISO3166-2-lvl4":"BZ-CY","country":"Belize","country_code":"bz"},"population":489,"osm_type":"node","osm_id":8990874127,"type":"village","location":[-89.0404333,17.2593634],"bbox":[-89.0604333,17.2393634,-89.0204333,17.2793634]}
{"name":"Duck Run II","display_name":"Duck Run II, Cayo District, Belize","address":{"village":"Duck Run II","state":"Cayo District","ISO3166-2-lvl4":"BZ-CY","country":"Belize","country_code":"bz"},"population":455,"osm_type":"node","osm_id":10589281864,"type":"village","location":[-89.0270429,17.2420054],"bbox":[-89.0470429,17.2220054,-89.0070429,17.2620054]}
{"name":"Iguana Creek","display_name":"Iguana Creek, Cayo District, Belize","address":{"village":"Iguana Creek","state":"Cayo District","ISO3166-2-lvl4":"BZ-CY","country":"Belize","country_code":"bz"},"population":14,"osm_type":"node","osm_id":4850228332,"type":"village","location":[-88.9366256,17.2359393],"bbox":[-88.9566256,17.2159393,-88.9166256,17.2559393]}
{"name":"Buena Vista","display_name":"Buena Vista, Cayo District, Belize","address":{"village":"Buena Vista","state":"Cayo District","ISO3166-2-lvl4":"BZ-CY","country":"Belize","country_code":"bz"},"population":437,"osm_type":"node","osm_id":2578339460,"type":"village","location":[-88.9407901,17.2505241],"bbox":[-88.9607901,17.2305241,-88.9207901,17.2705241]}
{"name":"Los Tambos","other_names":{"name:en":"Los Tambos","name:es":"Los Tambos"},"display_name":"Los Tambos, Cayo District, Belize","address":{"village":"Los Tambos","state":"Cayo District","ISO3166-2-lvl4":"BZ-CY","country":"Belize","country_code":"bz"},"osm_type":"node","osm_id":2578351951,"type":"village","location":[-89.0115279,17.3237401],"bbox":[-89.0315279,17.3037401,-88.9915279,17.3437401]}
{"name":"Selena","display_name":"Selena, Cayo District, Belize","address":{"village":"Selena","state":"Cayo District","ISO3166-2-lvl4":"BZ-CY","country":"Belize","country_code":"bz"},"population":108,"osm_type":"node","osm_id":3654927094,"type":"village","location":[-88.989527,17.2884821],"bbox":[-89.009527,17.2684821,-88.969527,17.3084821]}
{"name":"Roaring Creek","display_name":"Roaring Creek, Cayo District, Belize","address":{"village":"Roaring Creek","state":"Cayo District","ISO3166-2-lvl4":"BZ-CY","country":"Belize","country_code":"bz"},"population":2297,"osm_type":"node","osm_id":282295658,"type":"village","location":[-88.7968098,17.260102],"bbox":[-88.8168098,17.240102,-88.7768098,17.280102]}
{"name":"Camalote","display_name":"Camalote, Cayo District, Belize","address":{"village":"Camalote","state":"Cayo District","ISO3166-2-lvl4":"BZ-CY","country":"Belize","country_code":"bz"},"osm_type":"node","osm_id":7989827692,"type":"village","location":[-88.8082654,17.2578719],"bbox":[-88.8282654,17.2378719,-88.7882654,17.2778719]}
{"name":"St. Matthew's","display_name":"St. Matthew's, Cayo District, Belize","address":{"village":"St. Matthew's","state":"Cayo District","ISO3166-2-lvl4":"BZ-CY","country":"Belize","country_code":"bz"},"population":1341,"osm_type":"node","osm_id":5124972945,"type":"village","location":[-88.6462348,17.2749985],"bbox":[-88.6662348,17.2549985,-88.6262348,17.2949985]}
{"name":"La Gracia","display_name":"La Gracia, Cayo District, Belize","address":{"village":"La Gracia","state":"Cayo District","ISO3166-2-lvl4":"BZ-CY","country":"Belize","country_code":"bz"},"population":194,"osm_type":"node","osm_id":2578349516,"type":"village","location":[-88.9332211,17.3534877],"bbox":[-88.9532211,17.3334877,-88.9132211,17.3734877]}
{"name":"Cotton Tree","display_name":"Cotton Tree, Cayo District, Belize","address":{"village":"Cotton Tree","state":"Cayo District","ISO3166-2-lvl4":"BZ-CY","country":"Belize","country_code":"bz"},"population":1829,"osm_type":"node","osm_id":2111840100,"type":"village","location":[-88.7134258,17.2757091],"bbox":[-88.7334258,17.2557091,-88.6934258,17.2957091]}
{"name":"Valley of Peace","display_name":"Valley of Peace, Cayo District, Belize","address":{"village":"Valley of Peace","state":"Cayo District","ISO3166-2-lvl4":"BZ-CY","country":"Belize","country_code":"bz"},"population":2605,"osm_type":"node","osm_id":2087996867,"type":"village","location":[-88.8375663,17.3316557],"bbox":[-88.8575663,17.3116557,-88.8175663,17.3516557]}
{"name":"Frank's Eddy","display_name":"Frank's Eddy, Cayo District, Belize","address":{"village":"Frank's Eddy","state":"Cayo District","ISO3166-2-lvl4":"BZ-CY","country":"Belize","country_code":"bz"},"population":440,"osm_type":"node","osm_id":5125004581,"type":"village","location":[-88.6341371,17.2546293],"bbox":[-88.6541371,17.2346293,-88.6141371,17.2746293]}
{"name":"More Tomorrow","display_name":"More Tomorrow, Cayo District, Belize","address":{"village":"More Tomorrow","state":"Cayo District","ISO3166-2-lvl4":"BZ-CY","country":"Belize","country_code":"bz"},"osm_type":"node","osm_id":2133187009,"type":"village","location":[-88.6949636,17.3478229],"bbox":[-88.7149636,17.3278229,-88.6749636,17.3678229]}
{"name":"Harmonyville","other_names":{"name:en":"Harmonyville","old_name":"Valle Nuevo"},"display_name":"Harmonyville, Cayo District, Belize","address":{"village":"Harmonyville","state":"Cayo District","ISO3166-2-lvl4":"BZ-CY","country":"Belize","country_code":"bz"},"osm_type":"node","osm_id":8169317077,"type":"village","location":[-88.6734668,17.2758325],"bbox":[-88.6934668,17.2558325,-88.6534668,17.2958325]}
{"name":"Beaver Dam","display_name":"Beaver Dam, Cayo District, Belize","address":{"village":"Beaver Dam","state":"Cayo District","ISO3166-2-lvl4":"BZ-CY","country":"Belize","country_code":"bz"},"population":618,"osm_type":"node","osm_id":5124972944,"type":"village","location":[-88.6618857,17.2779231],"bbox":[-88.6818857,17.2579231,-88.6418857,17.2979231]}
{"name":"Rancho Dolores","display_name":"Rancho Dolores, Belize District, Belize","address":{"village":"Rancho Dolores","state":"Belize District","ISO3166-2-lvl4":"BZ-BZ","country":"Belize","country_code":"bz"},"osm_type":"node","osm_id":4806104778,"type":"village","location":[-88.6259324,17.5362692],"bbox":[-88.6459324,17.5162692,-88.6059324,17.5562692]}
{"name":"San Carlos","display_name":"San Carlos, Orange Walk District, Belize","address":{"village":"San Carlos","state":"Orange Walk District","ISO3166-2-lvl4":"BZ-OW","country":"Belize","country_code":"bz"},"population":138,"osm_type":"node","osm_id":6208725697,"type":"village","location":[-88.6537886,17.7184884],"bbox":[-88.6737886,17.6984884,-88.6337886,17.7384884]}
{"name":"Indian Church","display_name":"Indian Church, Orange Walk District, Belize","address":{"village":"Indian Church","state":"Orange Walk District","ISO3166-2-lvl4":"BZ-OW","country":"Belize","country_code":"bz"},"osm_type":"node","osm_id":458456307,"type":"village","location":[-88.6576322,17.7535555],"bbox":[-88.6776322,17.7335555,-88.6376322,17.7735555]}
{"name":"Blue Creek","display_name":"Blue Creek, Orange Walk District, Belize","address":{"village":"Blue Creek","state":"Orange Walk District","ISO3166-2-lvl4":"BZ-OW","country":"Belize","country_code":"bz"},"population":719,"osm_type":"node","osm_id":1639627473,"type":"village","location":[-88.9408904,17.888619],"bbox":[-88.9608904,17.868619,-88.9208904,17.908619]}
{"name":"San Felipe","display_name":"San Felipe, Orange Walk District, Belize","address":{"village":"San Felipe","county":"Orange Walk District","state":"Orange Walk District","ISO3166-2-lvl4":"BZ-OW","country":"Belize","country_code":"bz"},"osm_type":"node","osm_id":849567136,"type":"village","location":[-88.7730259,17.8721697],"bbox":[-88.7930259,17.8521697,-88.7530259,17.8921697]}
{"name":"Fireburn","display_name":"Fireburn, Orange Walk District, Belize","address":{"village":"Fireburn","state":"Orange Walk District","ISO3166-2-lvl4":"BZ-OW","country":"Belize","country_code":"bz"},"osm_type":"node","osm_id":6076988271,"type":"village","location":[-88.627714,17.8677419],"bbox":[-88.647714,17.8477419,-88.607714,17.8877419]}
{"name":"Guinea Grass","display_name":"Guinea Grass, Orange Walk District, Belize","address":{"village":"Guinea Grass","state":"Orange Walk District","ISO3166-2-lvl4":"BZ-OW","country":"Belize","country_code":"bz"},"osm_type":"node","osm_id":1639757697,"type":"village","location":[-88.5969449,17.9683882],"bbox":[-88.6169449,17.9483882,-88.5769449,17.9883882]}
{"name":"Trinidad","display_name":"Trinidad, Orange Walk District, Belize","address":{"village":"Trinidad","state":"Orange Walk District","ISO3166-2-lvl4":"BZ-OW","country":"Belize","country_code":"bz"},"osm_type":"node","osm_id":1378697540,"type":"village","location":[-88.684429,18.0259934],"bbox":[-88.704429,18.0059934,-88.664429,18.0459934]}
{"name":"Lemonal","display_name":"Lemonal, Belize District, Belize","address":{"village":"Lemonal","state":"Belize District","ISO3166-2-lvl4":"BZ-BZ","country":"Belize","country_code":"bz"},"osm_type":"node","osm_id":4806103045,"type":"village","location":[-88.5974435,17.6111399],"bbox":[-88.6174435,17.5911399,-88.5774435,17.6311399]}
{"name":"San Lazaro","display_name":"San Lazaro, Orange Walk District, Belize","address":{"village":"San Lazaro","state":"Orange Walk District","ISO3166-2-lvl4":"BZ-OW","country":"Belize","country_code":"bz"},"osm_type":"node","osm_id":1378697539,"type":"village","location":[-88.6622852,18.0387533],"bbox":[-88.6822852,18.0187533,-88.6422852,18.0587533]}
{"name":"Yo Creek","display_name":"Yo Creek, Orange Walk District, Belize","address":{"village":"Yo Creek","state":"Orange Walk District","ISO3166-2-lvl4":"BZ-OW","country":"Belize","country_code":"bz"},"osm_type":"node","osm_id":3459376534,"type":"village","location":[-88.6384176,18.0915394],"bbox":[-88.6584176,18.0715394,-88.6184176,18.1115394]}
{"name":"Indian Creek","display_name":"Indian Creek, Orange Walk District, Belize","address":{"village":"Indian Creek","state":"Orange Walk District","ISO3166-2-lvl4":"BZ-OW","country":"Belize","country_code":"bz"},"population":903,"osm_type":"node","osm_id":3940290719,"type":"village","location":[-88.7192163,17.7522423],"bbox":[-88.7392163,17.7322423,-88.6992163,17.7722423]}
{"name":"Hummingbird Community","display_name":"Hummingbird Community, Stann Creek District, Belize","address":{"village":"Hummingbird Community","state":"Stann Creek District","ISO3166-2-lvl4":"BZ-SC","country":"Belize","country_code":"bz"},"population":571,"osm_type":"node","osm_id":8119859899,"type":"village","location":[-88.5296089,17.0429913],"bbox":[-88.5496089,17.0229913,-88.5096089,17.0629913]}
{"name":"Kingsville","display_name":"Kingsville, Stann Creek District, Belize","address":{"village":"Kingsville","state":"Stann Creek District","ISO3166-2-lvl4":"BZ-SC","country":"Belize","country_code":"bz"},"osm_type":"node","osm_id":5489794004,"type":"village","location":[-88.520003,17.0333001],"bbox":[-88.540003,17.0133001,-88.500003,17.0533001]}
{"name":"Santa Cruz","display_name":"Santa Cruz, Orange Walk District, Belize","address":{"village":"Santa Cruz","state":"Orange Walk District","ISO3166-2-lvl4":"BZ-OW","country":"Belize","country_code":"bz"},"osm_type":"node","osm_id":4589370470,"type":"village","location":[-88.7056668,18.1156332],"bbox":[-88.7256668,18.0956332,-88.6856668,18.1356332]}
{"name":"Valley Community","display_name":"Valley Community, Stann Creek District, Belize","address":{"village":"Valley Community","state":"Stann Creek District","ISO3166-2-lvl4":"BZ-SC","country":"Belize","country_code":"bz"},"population":762,"osm_type":"node","osm_id":5305337554,"type":"village","location":[-88.4494124,17.0022031],"bbox":[-88.4694124,16.9822031,-88.4294124,17.0222031]}
{"name":"San Antonio","display_name":"San Antonio, Orange Walk District, Belize","address":{"village":"San Antonio","state":"Orange Walk District","ISO3166-2-lvl4":"BZ-OW","country":"Belize","country_code":"bz"},"osm_type":"node","osm_id":4589375968,"type":"village","location":[-88.6751861,18.1314002],"bbox":[-88.6951861,18.1114002,-88.6551861,18.1514002]}
{"name":"Steadfast Community","display_name":"Steadfast Community, Stann Creek District, Belize","address":{"village":"Steadfast Community","state":"Stann Creek District","ISO3166-2-lvl4":"BZ-SC","country":"Belize","country_code":"bz"},"population":591,"osm_type":"node","osm_id":5341300910,"type":"village","location":[-88.4244522,16.9991339],"bbox":[-88.4444522,16.9791339,-88.4044522,17.0191339]}
{"name":"San Roman","display_name":"San Román, Orange Walk District, Belize","address":{"village":"San Román","state":"Orange Walk District","ISO3166-2-lvl4":"BZ-OW","country":"Belize","country_code":"bz"},"osm_type":"node","osm_id":5238630485,"type":"village","location":[-88.6414518,18.1923796],"bbox":[-88.6614518,18.1723796,-88.6214518,18.2123796]}
{"name":"San Luis","display_name":"San Luis, Orange Walk District, Belize","address":{"village":"San Luis","state":"Orange Walk District","ISO3166-2-lvl4":"BZ-OW","country":"Belize","country_code":"bz"},"osm_type":"node","osm_id":4569357035,"type":"village","location":[-88.603013,18.1925699],"bbox":[-88.623013,18.1725699,-88.583013,18.2125699]}
{"name":"Douglas","display_name":"Douglas, Orange Walk District, Belize","address":{"village":"Douglas","state":"Orange Walk District","ISO3166-2-lvl4":"BZ-OW","country":"Belize","country_code":"bz"},"osm_type":"node","osm_id":4569352356,"type":"village","location":[-88.6012379,18.2371143],"bbox":[-88.6212379,18.2171143,-88.5812379,18.2571143]}
{"name":"Silk Grass","display_name":"Silk Grass, Stann Creek District, Belize","address":{"village":"Silk Grass","state":"Stann Creek District","ISO3166-2-lvl4":"BZ-SC","country":"Belize","country_code":"bz"},"osm_type":"node","osm_id":1974498990,"type":"village","location":[-88.3364461,16.8849414],"bbox":[-88.3564461,16.8649414,-88.3164461,16.9049414]}
{"name":"Alta Vista","display_name":"Alta Vista, Stann Creek District, Belize","address":{"village":"Alta Vista","state":"Stann Creek District","ISO3166-2-lvl4":"BZ-SC","country":"Belize","country_code":"bz"},"population":438,"osm_type":"node","osm_id":5305337555,"type":"village","location":[-88.4076015,16.9979595],"bbox":[-88.4276015,16.9779595,-88.3876015,17.0179595]}
{"name":"Hope Creek","display_name":"Hope Creek, Stann Creek District, Belize","address":{"village":"Hope Creek","state":"Stann Creek District","ISO3166-2-lvl4":"BZ-SC","country":"Belize","country_code":"bz"},"osm_type":"node","osm_id":5285140560,"type":"village","location":[-88.3124925,17.0031794],"bbox":[-88.3324925,16.9831794,-88.2924925,17.0231794]}
{"name":"August Pine Ridge","display_name":"August Pine Ridge, Orange Walk District, Belize","address":{"village":"August Pine Ridge","state":"Orange Walk District","ISO3166-2-lvl4":"BZ-OW","country":"Belize","country_code":"bz"},"population":2197,"osm_type":"node","osm_id":1378697538,"type":"village","location":[-88.7276547,17.9747117],"bbox":[-88.7476547,17.9547117,-88.7076547,17.9947117]}
{"name":"Pomona","display_name":"Pomona, Stann Creek District, Belize","address":{"village":"Pomona","state":"Stann Creek District","ISO3166-2-lvl4":"BZ-SC","country":"Belize","country_code":"bz"},"osm_type":"node","osm_id":5285140561,"type":"village","location":[-88.3479817,16.9976748],"bbox":[-88.3679817,16.9776748,-88.3279817,17.0176748]}
{"name":"Gales Point","display_name":"Gales Point, Belize District, Belize","address":{"village":"Gales Point","state":"Belize District","ISO3166-2-lvl4":"BZ-BZ","country":"Belize","country_code":"bz"},"osm_type":"node","osm_id":2553118830,"type":"village","location":[-88.3321343,17.1821128],"bbox":[-88.3521343,17.1621128,-88.3121343,17.2021128]}
{"name":"Bird Walk","display_name":"Bird Walk, Belize District, Belize","address":{"village":"Bird Walk","state":"Belize District","ISO3166-2-lvl4":"BZ-BZ","country":"Belize","country_code":"bz"},"population":78,"osm_type":"node","osm_id":6682525975,"type":"village","location":[-88.5290851,17.1706257],"bbox":[-88.5490851,17.1506257,-88.5090851,17.1906257]}
{"name":"Mullins River","display_name":"Mullins River, Stann Creek District, Belize","address":{"village":"Mullins River","state":"Stann Creek District","ISO3166-2-lvl4":"BZ-SC","country":"Belize","country_code":"bz"},"osm_type":"node","osm_id":5305348790,"type":"village","location":[-88.3091473,17.1076179],"bbox":[-88.3291473,17.0876179,-88.2891473,17.1276179]}
{"name":"Rockville","other_names":{"name:de":"Steindorf","name:en":"Rockville"},"display_name":"Rockville, Belize District, Belize","address":{"village":"Rockville","state":"Belize District","ISO3166-2-lvl4":"BZ-BZ","country":"Belize","country_code":"bz"},"osm_type":"node","osm_id":6006323664,"type":"village","location":[-88.461215,17.4056588],"bbox":[-88.481215,17.3856588,-88.441215,17.4256588]}
{"name":"Jih Chan","display_name":"Jih Chan, Belize District, Belize","address":{"village":"Jih Chan","state":"Belize District","ISO3166-2-lvl4":"BZ-BZ","country":"Belize","country_code":"bz"},"osm_type":"node","osm_id":5840157842,"type":"village","location":[-88.5127904,17.3954821],"bbox":[-88.5327904,17.3754821,-88.4927904,17.4154821]}
{"name":"Mahogany Heights","display_name":"Mahogany Heights, Belize District, Belize","address":{"village":"Mahogany Heights","state":"Belize District","ISO3166-2-lvl4":"BZ-BZ","country":"Belize","country_code":"bz"},"population":1293,"osm_type":"node","osm_id":2134030073,"type":"village","location":[-88.5672284,17.3385312],"bbox":[-88.5872284,17.3185312,-88.5472284,17.3585312]}
{"name":"Saint Paul's Village","display_name":"Saint Paul's Village, Belize District, Belize","address":{"village":"Saint Paul's Village","state":"Belize District","ISO3166-2-lvl4":"BZ-BZ","country":"Belize","country_code":"bz"},"osm_type":"node","osm_id":4806111923,"type":"village","location":[-88.5868587,17.5154395],"bbox":[-88.6068587,17.4954395,-88.5668587,17.5354395]}
{"name":"La Democracia","display_name":"La Democracia, Belize District, Belize","address":{"village":"La Democracia","state":"Belize District","ISO3166-2-lvl4":"BZ-BZ","country":"Belize","country_code":"bz"},"osm_type":"node","osm_id":5840064835,"type":"village","location":[-88.5514146,17.3425426],"bbox":[-88.5714146,17.3225426,-88.5314146,17.3625426]}
{"name":"Willows Bank","display_name":"Willows Bank, Belize District, Belize","address":{"village":"Willows Bank","state":"Belize District","ISO3166-2-lvl4":"BZ-BZ","country":"Belize","country_code":"bz"},"population":185,"osm_type":"node","osm_id":9135725026,"type":"village","location":[-88.5741517,17.5292644],"bbox":[-88.5941517,17.5092644,-88.5541517,17.5492644]}
{"name":"Double Head Cabbage","display_name":"Double Head Cabbage, Belize District, Belize","address":{"village":"Double Head Cabbage","state":"Belize District","ISO3166-2-lvl4":"BZ-BZ","country":"Belize","country_code":"bz"},"osm_type":"node","osm_id":6208710513,"type":"village","location":[-88.5542162,17.5474205],"bbox":[-88.5742162,17.5274205,-88.5342162,17.5674205]}
{"name":"Bermudian Landing","display_name":"Bermudian Landing, Belize District, Belize","address":{"village":"Bermudian Landing","state":"Belize District","ISO3166-2-lvl4":"BZ-BZ","country":"Belize","country_code":"bz"},"osm_type":"node","osm_id":4806104267,"type":"village","location":[-88.5349883,17.5579969],"bbox":[-88.5549883,17.5379969,-88.5149883,17.5779969]}
{"name":"Hattieville","display_name":"Hattieville, Belize District, Belize","address":{"village":"Hattieville","state":"Belize District","ISO3166-2-lvl4":"BZ-BZ","country":"Belize","country_code":"bz"},"population":2344,"osm_type":"node","osm_id":2111840101,"type":"village","location":[-88.3933402,17.4493159],"bbox":[-88.4133402,17.4293159,-88.3733402,17.4693159]}
{"name":"Tropical Park","display_name":"Tropical Park, Belize District, Belize","address":{"village":"Tropical Park","state":"Belize District","ISO3166-2-lvl4":"BZ-BZ","country":"Belize","country_code":"bz"},"population":209,"osm_type":"node","osm_id":5060771954,"type":"village","location":[-88.3848817,17.467238],"bbox":[-88.4048817,17.447238,-88.3648817,17.487238]}
{"name":"Lord's Bank","display_name":"Lord's Bank, Belize District, Belize","address":{"village":"Lord's Bank","state":"Belize District","ISO3166-2-lvl4":"BZ-BZ","country":"Belize","country_code":"bz"},"population":3140,"osm_type":"node","osm_id":1291645077,"type":"village","location":[-88.32291,17.5516127],"bbox":[-88.34291,17.5316127,-88.30291,17.5716127]}
{"name":"Fresh Pond Community","display_name":"Fresh Pond Community, Belize District, Belize","address":{"village":"Fresh Pond Community","state":"Belize District","ISO3166-2-lvl4":"BZ-BZ","country":"Belize","country_code":"bz"},"population":388,"osm_type":"node","osm_id":5062775854,"type":"village","location":[-88.3987693,17.5540574],"bbox":[-88.4187693,17.5340574,-88.3787693,17.5740574]}
{"name":"Burrell Boom","display_name":"Burrell Boom, Belize District, Belize","address":{"village":"Burrell Boom","state":"Belize District","ISO3166-2-lvl4":"BZ-BZ","country":"Belize","country_code":"bz"},"population":1475,"osm_type":"node","osm_id":2111840099,"type":"village","location":[-88.4065719,17.5671733],"bbox":[-88.4265719,17.5471733,-88.3865719,17.5871733]}
{"name":"Western Paradise","other_names":{"name:en":"Western Paradise","alt_name":"Mile 8 Community"},"display_name":"Western Paradise, Belize District, Belize","address":{"village":"Western Paradise","state":"Belize District","ISO3166-2-lvl4":"BZ-BZ","country":"Belize","country_code":"bz"},"population":1258,"osm_type":"node","osm_id":5079593744,"type":"village","location":[-88.2954587,17.4708758],"bbox":[-88.3154587,17.4508758,-88.2754587,17.4908758]}
{"name":"H.R.C.U. Community","other_names":{"name:en":"H.R.C.U. Community","alt_name":"Eagle Jem Estate"},"display_name":"H.R.C.U. Community, Belize District, Belize","address":{"village":"H.R.C.U. Community","state":"Belize District","ISO3166-2-lvl4":"BZ-BZ","country":"Belize","country_code":"bz"},"osm_type":"node","osm_id":10848020303,"type":"village","location":[-88.3628058,17.5923246],"bbox":[-88.3828058,17.5723246,-88.3428058,17.6123246]}
{"name":"St. George's Caye","display_name":"St. George's Caye, Belize District, Belize","address":{"village":"St. George's Caye","state":"Belize District","ISO3166-2-lvl4":"BZ-BZ","country":"Belize","country_code":"bz"},"osm_type":"node","osm_id":10299677540,"type":"village","location":[-88.0721964,17.560438],"bbox":[-88.0921964,17.540438,-88.0521964,17.580438]}
{"name":"Biscayne","display_name":"Biscayne, Belize District, Belize","address":{"village":"Biscayne","state":"Belize District","ISO3166-2-lvl4":"BZ-BZ","country":"Belize","country_code":"bz"},"population":517,"osm_type":"node","osm_id":1291645078,"type":"village","location":[-88.464846,17.7356223],"bbox":[-88.484846,17.7156223,-88.444846,17.7556223]}
{"name":"Flowers Bank","display_name":"Flowers Bank, Belize District, Belize","address":{"village":"Flowers Bank","state":"Belize District","ISO3166-2-lvl4":"BZ-BZ","country":"Belize","country_code":"bz"},"osm_type":"node","osm_id":4806116961,"type":"village","location":[-88.4974965,17.613039],"bbox":[-88.5174965,17.593039,-88.4774965,17.633039]}
{"name":"Crooked Tree","display_name":"Crooked Tree, Belize District, Belize","address":{"village":"Crooked Tree","state":"Belize District","ISO3166-2-lvl4":"BZ-BZ","country":"Belize","country_code":"bz"},"osm_type":"node","osm_id":1291643984,"type":"village","location":[-88.5383171,17.7791087],"bbox":[-88.5583171,17.7591087,-88.5183171,17.7991087]}
{"name":"Sand Hill","display_name":"Sand Hill, Belize District, Belize","address":{"village":"Sand Hill","state":"Belize District","ISO3166-2-lvl4":"BZ-BZ","country":"Belize","country_code":"bz"},"population":1842,"osm_type":"node","osm_id":1291645079,"type":"village","location":[-88.3716124,17.6445813],"bbox":[-88.3916124,17.6245813,-88.3516124,17.6645813]}
{"name":"Gardenia","display_name":"Gardenia, Belize District, Belize","address":{"village":"Gardenia","state":"Belize District","ISO3166-2-lvl4":"BZ-BZ","country":"Belize","country_code":"bz"},"osm_type":"node","osm_id":6164622479,"type":"village","location":[-88.4179016,17.6704149],"bbox":[-88.4379016,17.6504149,-88.3979016,17.6904149]}
{"name":"Rhaburn Ridge","display_name":"Rhaburn Ridge, Belize District, Belize","address":{"village":"Rhaburn Ridge","state":"Belize District","ISO3166-2-lvl4":"BZ-BZ","country":"Belize","country_code":"bz"},"osm_type":"node","osm_id":6006323202,"type":"village","location":[-88.4891414,17.8632495],"bbox":[-88.5091414,17.8432495,-88.4691414,17.8832495]}
{"name":"Maskall","display_name":"Maskall, Belize District, Belize","address":{"village":"Maskall","state":"Belize District","ISO3166-2-lvl4":"BZ-BZ","country":"Belize","country_code":"bz"},"osm_type":"node","osm_id":2285155355,"type":"village","location":[-88.3138813,17.8757158],"bbox":[-88.3338813,17.8557158,-88.2938813,17.8957158]}
{"name":"Caye Caulker Village","display_name":"Caye Caulker Village, Belize District, Belize","address":{"village":"Caye Caulker Village","state":"Belize District","ISO3166-2-lvl4":"BZ-BZ","country":"Belize","country_code":"bz"},"osm_type":"node","osm_id":450141370,"type":"village","location":[-88.0249982,17.7432288],"bbox":[-88.0449982,17.7232288,-88.0049982,17.7632288]}
{"name":"Carmelita","display_name":"Carmelita, Orange Walk District, Belize","address":{"village":"Carmelita","state":"Orange Walk District","ISO3166-2-lvl4":"BZ-OW","country":"Belize","country_code":"bz"},"osm_type":"node","osm_id":2169455462,"type":"village","location":[-88.5429114,18.0105153],"bbox":[-88.5629114,17.9905153,-88.5229114,18.0305153]}
{"name":"San Jose Palmar","other_names":{"name:en":"San Jose Palmar","old_name":"San Jose Nuevo Palmar"},"display_name":"San Jose Palmar, Orange Walk District, Belize","address":{"village":"San Jose Palmar","state":"Orange Walk District","ISO3166-2-lvl4":"BZ-OW","country":"Belize","country_code":"bz"},"population":1388,"osm_type":"node","osm_id":2182168666,"type":"village","location":[-88.5602219,18.0642786],"bbox":[-88.5802219,18.0442786,-88.5402219,18.0842786]}
{"name":"Chan Pine Ridge","display_name":"Chan Pine Ridge, Orange Walk District, Belize","address":{"village":"Chan Pine Ridge","state":"Orange Walk District","ISO3166-2-lvl4":"BZ-OW","country":"Belize","country_code":"bz"},"osm_type":"node","osm_id":4569341390,"type":"village","location":[-88.5819967,18.0370222],"bbox":[-88.6019967,18.0170222,-88.5619967,18.0570222]}
{"name":"Tower Hill","display_name":"Tower Hill, Orange Walk District, Belize","address":{"village":"Tower Hill","state":"Orange Walk District","ISO3166-2-lvl4":"BZ-OW","country":"Belize","country_code":"bz"},"osm_type":"node","osm_id":4569338313,"type":"village","location":[-88.5614335,18.027827],"bbox":[-88.5814335,18.007827,-88.5414335,18.047827]}
{"name":"Trial Farm","display_name":"Trial Farm, Orange Walk District, Belize","address":{"village":"Trial Farm","state":"Orange Walk District","ISO3166-2-lvl4":"BZ-OW","country":"Belize","country_code":"bz"},"osm_type":"node","osm_id":4493209408,"type":"village","location":[-88.561146,18.098457],"bbox":[-88.581146,18.078457,-88.541146,18.118457]}
{"name":"Honey Camp","display_name":"Honey Camp, Orange Walk District, Belize","address":{"village":"Honey Camp","state":"Orange Walk District","ISO3166-2-lvl4":"BZ-OW","country":"Belize","country_code":"bz"},"osm_type":"node","osm_id":1639690692,"type":"village","location":[-88.4443968,18.0313349],"bbox":[-88.4643968,18.0113349,-88.4243968,18.0513349]}
{"name":"Neuland","display_name":"Neuland, Corozal District, Belize","address":{"village":"Neuland","state":"Corozal District","ISO3166-2-lvl4":"BZ-CZL","country":"Belize","country_code":"bz"},"osm_type":"node","osm_id":2466091012,"type":"village","location":[-88.2482412,18.0518998],"bbox":[-88.2682412,18.0318998,-88.2282412,18.0718998]}
{"name":"Santa Martha","display_name":"Santa Martha, Orange Walk District, Belize","address":{"village":"Santa Martha","state":"Orange Walk District","ISO3166-2-lvl4":"BZ-OW","country":"Belize","country_code":"bz"},"osm_type":"node","osm_id":2285155358,"type":"village","location":[-88.3859954,17.9699904],"bbox":[-88.4059954,17.9499904,-88.3659954,17.9899904]}
{"name":"San Victor","display_name":"San Victor, Corozal District, Belize","address":{"village":"San Victor","county":"Corozal District","state":"Corozal District","ISO3166-2-lvl4":"BZ-CZL","country":"Belize","country_code":"bz"},"population":1188,"osm_type":"node","osm_id":4569356439,"type":"village","location":[-88.5770056,18.2594074],"bbox":[-88.5970056,18.2394074,-88.5570056,18.2794074]}
{"name":"San Jose","display_name":"San Jose, Orange Walk District, Belize","address":{"village":"San Jose","state":"Orange Walk District","ISO3166-2-lvl4":"BZ-OW","country":"Belize","country_code":"bz"},"population":2862,"osm_type":"node","osm_id":4546789731,"type":"village","location":[-88.5743117,18.1927003],"bbox":[-88.5943117,18.1727003,-88.5543117,18.2127003]}
{"name":"San Estevan","display_name":"San Estevan, Orange Walk District, Belize","address":{"village":"San Estevan","state":"Orange Walk District","ISO3166-2-lvl4":"BZ-OW","country":"Belize","country_code":"bz"},"osm_type":"node","osm_id":4569344799,"type":"village","location":[-88.5120845,18.151826],"bbox":[-88.5320845,18.131826,-88.4920845,18.171826]}
{"name":"San Pablo","display_name":"San Pablo, Orange Walk District, Belize","address":{"village":"San Pablo","state":"Orange Walk District","ISO3166-2-lvl4":"BZ-OW","country":"Belize","country_code":"bz"},"population":1129,"osm_type":"node","osm_id":4546795011,"type":"village","location":[-88.5655933,18.2094114],"bbox":[-88.5855933,18.1894114,-88.5455933,18.2294114]}
{"name":"Nuevo San Juan","display_name":"Nuevo San Juan, Orange Walk District, Belize","address":{"village":"Nuevo San Juan","state":"Orange Walk District","ISO3166-2-lvl4":"BZ-OW","country":"Belize","country_code":"bz"},"osm_type":"node","osm_id":4569347885,"type":"village","location":[-88.5794369,18.2277953],"bbox":[-88.5994369,18.2077953,-88.5594369,18.2477953]}
{"name":"Buena Vista","display_name":"Buena Vista, Corozal District, Belize","address":{"village":"Buena Vista","state":"Corozal District","ISO3166-2-lvl4":"BZ-CZL","country":"Belize","country_code":"bz"},"population":628,"osm_type":"node","osm_id":4578168385,"type":"village","location":[-88.5247234,18.2382268],"bbox":[-88.5447234,18.2182268,-88.5047234,18.2582268]}
{"name":"Progresso","display_name":"Progresso, Corozal District, Belize","address":{"village":"Progresso","county":"Corozal District","state":"Corozal District","ISO3166-2-lvl4":"BZ-CZL","country":"Belize","country_code":"bz"},"osm_type":"node","osm_id":341853735,"type":"village","location":[-88.408487,18.232655],"bbox":[-88.428487,18.212655,-88.388487,18.252655]}
{"name":"Caledonia","display_name":"Caledonia, Corozal District, Belize","address":{"village":"Caledonia","state":"Corozal District","ISO3166-2-lvl4":"BZ-CZL","country":"Belize","country_code":"bz"},"population":1788,"osm_type":"node","osm_id":2169524229,"type":"village","location":[-88.4781083,18.2325959],"bbox":[-88.4981083,18.2125959,-88.4581083,18.2525959]}
{"name":"Little Belize","display_name":"Little Belize, Corozal District, Belize","address":{"village":"Little Belize","county":"Corozal District","state":"Corozal District","ISO3166-2-lvl4":"BZ-CZL","country":"Belize","country_code":"bz"},"population":2650,"osm_type":"node","osm_id":1639695283,"type":"village","location":[-88.3592958,18.2010663],"bbox":[-88.3792958,18.1810663,-88.3392958,18.2210663]}
{"name":"Caribeville","display_name":"Caribeville, San Pedro Town, Belize District, Belize","address":{"village":"Caribeville","town":"San Pedro Town","state":"Belize District","ISO3166-2-lvl4":"BZ-BZ","country":"Belize","country_code":"bz"},"osm_type":"node","osm_id":9569715494,"type":"village","location":[-87.9466269,17.9436399],"bbox":[-87.9666269,17.9236399,-87.9266269,17.9636399]}
{"name":"Viva Esperanza","display_name":"Viva Esperanza, Corozal District, Belize","address":{"village":"Viva Esperanza","county":"Corozal District","state":"Corozal District","ISO3166-2-lvl4":"BZ-CZL","country":"Belize","country_code":"bz"},"osm_type":"node","osm_id":7004667761,"type":"village","location":[-88.3221432,18.2658858],"bbox":[-88.3421432,18.2458858,-88.3021432,18.2858858]}
{"name":"Fireburn","display_name":"Fireburn, Corozal District, Belize","address":{"village":"Fireburn","state":"Corozal District","ISO3166-2-lvl4":"BZ-CZL","country":"Belize","country_code":"bz"},"osm_type":"node","osm_id":2169055115,"type":"village","location":[-88.1994994,18.2086649],"bbox":[-88.2194994,18.1886649,-88.1794994,18.2286649]}
{"name":"Santa Clara","display_name":"Santa Clara, Corozal District, Belize","address":{"village":"Santa Clara","county":"Corozal District","state":"Corozal District","ISO3166-2-lvl4":"BZ-CZL","country":"Belize","country_code":"bz"},"population":1059,"osm_type":"node","osm_id":6006323200,"type":"village","location":[-88.5101176,18.2902287],"bbox":[-88.5301176,18.2702287,-88.4901176,18.3102287]}
{"name":"San Roman","display_name":"San Roman, Corozal District, Belize","address":{"village":"San Roman","county":"Corozal District","state":"Corozal District","ISO3166-2-lvl4":"BZ-CZL","country":"Belize","country_code":"bz"},"population":1103,"osm_type":"node","osm_id":6006323201,"type":"village","location":[-88.5100305,18.3006014],"bbox":[-88.5300305,18.2806014,-88.4900305,18.3206014]}
{"name":"San Narciso","display_name":"San Narciso, Corozal District, Belize","address":{"village":"San Narciso","county":"Corozal District","state":"Corozal District","ISO3166-2-lvl4":"BZ-CZL","country":"Belize","country_code":"bz"},"population":2971,"osm_type":"node","osm_id":3756445776,"type":"village","location":[-88.519679,18.3038921],"bbox":[-88.539679,18.2838921,-88.499679,18.3238921]}
{"name":"Louisville","display_name":"Louisville, Corozal District, Belize","address":{"village":"Louisville","county":"Corozal District","state":"Corozal District","ISO3166-2-lvl4":"BZ-CZL","country":"Belize","country_code":"bz"},"population":1082,"osm_type":"node","osm_id":6071182340,"type":"village","location":[-88.5117255,18.3203898],"bbox":[-88.5317255,18.3003898,-88.4917255,18.3403898]}
{"name":"Concepcion","other_names":{"name:en":"Concepcion","name:es":"Concepción"},"display_name":"Concepcion, Corozal District, Belize","address":{"village":"Concepcion","state":"Corozal District","ISO3166-2-lvl4":"BZ-CZL","country":"Belize","country_code":"bz"},"population":1545,"osm_type":"node","osm_id":3756450067,"type":"village","location":[-88.4659285,18.3239029],"bbox":[-88.4859285,18.3039029,-88.4459285,18.3439029]}
{"name":"Libertad","other_names":{"name:en":"Libertad","old_name":"Pembroke Hall"},"display_name":"Libertad, Corozal District, Belize","address":{"village":"Libertad","state":"Corozal District","ISO3166-2-lvl4":"BZ-CZL","country":"Belize","country_code":"bz"},"osm_type":"node","osm_id":4569347155,"type":"village","location":[-88.4561985,18.3083893],"bbox":[-88.4761985,18.2883893,-88.4361985,18.3283893]}
{"name":"San Pedro","display_name":"San Pedro, Corozal District, Belize","address":{"village":"San Pedro","state":"Corozal District","ISO3166-2-lvl4":"BZ-CZL","country":"Belize","country_code":"bz"},"population":634,"osm_type":"node","osm_id":5879593758,"type":"village","location":[-88.4952528,18.3385539],"bbox":[-88.5152528,18.3185539,-88.4752528,18.3585539]}
{"name":"Cristo Rey","display_name":"Cristo Rey, Corozal District, Belize","address":{"village":"Cristo Rey","state":"Corozal District","ISO3166-2-lvl4":"BZ-CZL","country":"Belize","country_code":"bz"},"population":1065,"osm_type":"node","osm_id":5879593757,"type":"village","location":[-88.4970163,18.349058],"bbox":[-88.5170163,18.329058,-88.4770163,18.369058]}
{"name":"Patchakan","display_name":"Patchakan, Corozal District, Belize","address":{"village":"Patchakan","state":"Corozal District","ISO3166-2-lvl4":"BZ-CZL","country":"Belize","country_code":"bz"},"population":1689,"osm_type":"node","osm_id":6206736747,"type":"village","location":[-88.4734865,18.4014562],"bbox":[-88.4934865,18.3814562,-88.4534865,18.4214562]}
{"name":"San Joaquin","other_names":{"name:en":"San Joaquin","name:es":"San Joaquín"},"display_name":"San Joaquin, Corozal District, Belize","address":{"village":"San Joaquin","state":"Corozal District","ISO3166-2-lvl4":"BZ-CZL","country":"Belize","country_code":"bz"},"population":1763,"osm_type":"node","osm_id":5723838009,"type":"village","location":[-88.4419052,18.3482799],"bbox":[-88.4619052,18.3282799,-88.4219052,18.3682799]}
{"name":"Xaibe","display_name":"Xaibe, Corozal District, Belize","address":{"village":"Xaibe","state":"Corozal District","ISO3166-2-lvl4":"BZ-CZL","country":"Belize","country_code":"bz"},"population":1575,"osm_type":"node","osm_id":3665545687,"type":"village","location":[-88.4335,18.383028],"bbox":[-88.4535,18.363028,-88.4135,18.403028]}
{"name":"Calcutta","display_name":"Calcutta, Corozal District, Belize","address":{"village":"Calcutta","state":"Corozal District","ISO3166-2-lvl4":"BZ-CZL","country":"Belize","country_code":"bz"},"population":1014,"osm_type":"node","osm_id":5723854823,"type":"village","location":[-88.4385545,18.3618701],"bbox":[-88.4585545,18.3418701,-88.4185545,18.3818701]}
{"name":"Carolina","display_name":"Carolina, Corozal District, Belize","address":{"village":"Carolina","state":"Corozal District","ISO3166-2-lvl4":"BZ-CZL","country":"Belize","country_code":"bz"},"population":207,"osm_type":"node","osm_id":6006323199,"type":"village","location":[-88.4283211,18.3686606],"bbox":[-88.4483211,18.3486606,-88.4083211,18.3886606]}
{"name":"Chan Chen","other_names":{"name:es":"Chan Chen"},"display_name":"Chan Chen, Corozal District, Belize","address":{"village":"Chan Chen","state":"Corozal District","ISO3166-2-lvl4":"BZ-CZL","country":"Belize","country_code":"bz"},"population":905,"osm_type":"node","osm_id":5003693290,"type":"village","location":[-88.4274942,18.4366095],"bbox":[-88.4474942,18.4166095,-88.4074942,18.4566095]}
{"name":"San Antonio","display_name":"San Antonio, Corozal District, Belize","address":{"village":"San Antonio","state":"Corozal District","ISO3166-2-lvl4":"BZ-CZL","country":"Belize","country_code":"bz"},"osm_type":"node","osm_id":6006323198,"type":"village","location":[-88.4018523,18.4022328],"bbox":[-88.4218523,18.3822328,-88.3818523,18.4222328]}
{"name":"Ranchito","display_name":"Ranchito, Corozal District, Belize","address":{"village":"Ranchito","state":"Corozal District","ISO3166-2-lvl4":"BZ-CZL","country":"Belize","country_code":"bz"},"population":1344,"osm_type":"node","osm_id":2169450063,"type":"village","location":[-88.4122725,18.3776015],"bbox":[-88.4322725,18.3576015,-88.3922725,18.3976015]}
{"name":"Chunox","display_name":"Chunox, Corozal District, Belize","address":{"village":"Chunox","county":"Corozal District","state":"Corozal District","ISO3166-2-lvl4":"BZ-CZL","country":"Belize","country_code":"bz"},"osm_type":"node","osm_id":2169070256,"type":"village","location":[-88.357051,18.294795],"bbox":[-88.377051,18.274795,-88.337051,18.314795]}
{"name":"Copper Bank","display_name":"Copper Bank, Corozal District, Belize","address":{"village":"Copper Bank","county":"Corozal District","state":"Corozal District","ISO3166-2-lvl4":"BZ-CZL","country":"Belize","country_code":"bz"},"osm_type":"node","osm_id":1639705755,"type":"village","location":[-88.3554035,18.3223004],"bbox":[-88.3754035,18.3023004,-88.3354035,18.3423004]}
{"name":"Paraiso","other_names":{"name:en":"Paraiso","name:es":"Paraíso"},"display_name":"Paraiso, Corozal District, Belize","address":{"village":"Paraiso","state":"Corozal District","ISO3166-2-lvl4":"BZ-CZL","country":"Belize","country_code":"bz"},"osm_type":"node","osm_id":9244142627,"type":"village","location":[-88.3929516,18.4100317],"bbox":[-88.4129516,18.3900317,-88.3729516,18.4300317]}
{"name":"Corozal Free Zone","other_names":{"name:en":"Corozal Free Zone","name:es":"Zona Libre de Corozal","alt_name":"Santa Elena"},"display_name":"Corozal Free Zone, Corozal District, Belize","address":{"village":"Corozal Free Zone","state":"Corozal District","ISO3166-2-lvl4":"BZ-CZL","country":"Belize","country_code":"bz"},"osm_type":"node","osm_id":3665526850,"type":"village","location":[-88.3939481,18.4829839],"bbox":[-88.4139481,18.4629839,-88.3739481,18.5029839]}
{"name":"Consejo","display_name":"Consejo, Corozal District, Belize","address":{"village":"Consejo","state":"Corozal District","ISO3166-2-lvl4":"BZ-CZL","country":"Belize","country_code":"bz"},"population":350,"osm_type":"node","osm_id":3401474106,"type":"village","location":[-88.2983933,18.4576861],"bbox":[-88.3183933,18.4376861,-88.2783933,18.4776861]}
{"name":"Sarteneja","display_name":"Sarteneja, Corozal District, Belize","address":{"village":"Sarteneja","state":"Corozal District","ISO3166-2-lvl4":"BZ-CZL","country":"Belize","country_code":"bz"},"population":1824,"osm_type":"node","osm_id":1174961293,"type":"village","location":[-88.1451666,18.3533388],"bbox":[-88.1651666,18.3333388,-88.1251666,18.3733388]}
{"name":"Malacate Beach","display_name":"Malacate Beach, Independence, Stann Creek District, Belize","address":{"hamlet":"Malacate Beach","city_district":"Independence","town":"Independence","state":"Stann Creek District","ISO3166-2-lvl4":"BZ-SC","country":"Belize","country_code":"bz"},"osm_type":"way","osm_id":1037837558,"type":"hamlet","location":[-88.40233660377719,16.53492855],"bbox":[-88.4037636,16.5314382,-88.3983135,16.5384184]}
{"name":"Mayan King","display_name":"Mayan King, Stann Creek District, Belize","address":{"hamlet":"Mayan King","state":"Stann Creek District","ISO3166-2-lvl4":"BZ-SC","country":"Belize","country_code":"bz"},"osm_type":"way","osm_id":522213333,"type":"hamlet","location":[-88.41606946901224,16.715246299999997],"bbox":[-88.4179565,16.713889,-88.4136717,16.7165613]}
{"name":"Kendal","display_name":"Kendal, Stann Creek District, Belize","address":{"hamlet":"Kendal","state":"Stann Creek District","ISO3166-2-lvl4":"BZ-SC","country":"Belize","country_code":"bz"},"osm_type":"way","osm_id":253720464,"type":"hamlet","location":[-88.37790793414166,16.81305935],"bbox":[-88.3786798,16.8117061,-88.3773215,16.8142099]}
{"name":"Maya Flats","display_name":"Maya Flats, Cayo District, Belize","address":{"hamlet":"Maya Flats","state":"Cayo District","ISO3166-2-lvl4":"BZ-CY","country":"Belize","country_code":"bz"},"population":84,"osm_type":"way","osm_id":562297820,"type":"hamlet","location":[-89.104634,17.0986139],"bbox":[-89.1065177,17.0975138,-89.1031367,17.0999777]}
{"name":"Waterside Community","display_name":"Waterside Community, Belize District, Belize","address":{"hamlet":"Waterside Community","state":"Belize District","ISO3166-2-lvl4":"BZ-BZ","country":"Belize","country_code":"bz"},"osm_type":"relation","osm_id":14451272,"type":"hamlet","location":[-88.51145327053561,17.6027736],"bbox":[-88.5173129,17.5976991,-88.5060983,17.607329]}
{"name":"Davis Bank","display_name":"Davis Bank, Belize District, Belize","address":{"hamlet":"Davis Bank","state":"Belize District","ISO3166-2-lvl4":"BZ-BZ","country":"Belize","country_code":"bz"},"population":32,"osm_type":"relation","osm_id":15701713,"type":"hamlet","location":[-88.3965056,17.646358],"bbox":[-88.3993059,17.6417237,-88.3921913,17.6520886]}
{"name":"Gentleville","display_name":"Gentleville, Belize District, Belize","address":{"hamlet":"Gentleville","state":"Belize District","ISO3166-2-lvl4":"BZ-BZ","country":"Belize","country_code":"bz"},"osm_type":"relation","osm_id":15701711,"type":"hamlet","location":[-88.3482104,17.5825602],"bbox":[-88.362139,17.5744768,-88.3459996,17.5848169]}
{"name":"Grace Bank","display_name":"Grace Bank, Belize District, Belize","address":{"hamlet":"Grace Bank","state":"Belize District","ISO3166-2-lvl4":"BZ-BZ","country":"Belize","country_code":"bz"},"population":32,"osm_type":"relation","osm_id":15701714,"type":"hamlet","location":[-88.4015788,17.6503982],"bbox":[-88.4125453,17.6428028,-88.397869,17.6523287]}
{"name":"Consejo Shores","display_name":"Consejo Shores, Consejo, Corozal District, Belize","address":{"hamlet":"Consejo Shores","village":"Consejo","state":"Corozal District","ISO3166-2-lvl4":"BZ-CZL","country":"Belize","country_code":"bz"},"osm_type":"relation","osm_id":14451295,"type":"hamlet","location":[-88.3101288,18.4492574],"bbox":[-88.3231394,18.4428682,-88.2993392,18.4556666]}
{"name":"Old Mabilha","other_names":{"name:en":"Old Mabilha","alt_name":"Old Marbel Ha"},"display_name":"Old Mabilha, New Mabilha, Toledo District, Belize","address":{"hamlet":"Old Mabilha","village":"New Mabilha","state":"Toledo District","ISO3166-2-lvl4":"BZ-TOL","country":"Belize","country_code":"bz"},"osm_type":"node","osm_id":4805038649,"type":"hamlet","location":[-89.0973825,16.1012105],"bbox":[-89.1173825,16.0812105,-89.0773825,16.1212105]}
{"name":"San Antonia","display_name":"San Antonia, Toledo District, Belize","address":{"hamlet":"San Antonia","state":"Toledo District","ISO3166-2-lvl4":"BZ-TOL","country":"Belize","country_code":"bz"},"osm_type":"node","osm_id":8195617244,"type":"hamlet","location":[-88.9300547,16.10002],"bbox":[-88.9500547,16.08002,-88.9100547,16.12002]}
{"name":"Wilson Road","display_name":"Wilson Road, Cattle Landing, Toledo District, Belize","address":{"hamlet":"Wilson Road","village":"Cattle Landing","state":"Toledo District","ISO3166-2-lvl4":"BZ-TOL","country":"Belize","country_code":"bz"},"population":56,"osm_type":"node","osm_id":10797758706,"type":"hamlet","location":[-88.8129623,16.1358041],"bbox":[-88.8329623,16.1158041,-88.7929623,16.1558041]}
{"name":"Crique Trosa","display_name":"Crique Trosa, Mafredi, Toledo District, Belize","address":{"hamlet":"Crique Trosa","village":"Mafredi","state":"Toledo District","ISO3166-2-lvl4":"BZ-TOL","country":"Belize","country_code":"bz"},"population":84,"osm_type":"node","osm_id":9951209791,"type":"hamlet","location":[-88.9864088,16.2472857],"bbox":[-89.0064088,16.2272857,-88.9664088,16.2672857]}
{"name":"Esperanza","display_name":"Esperanza, Big Falls, Toledo District, Belize","address":{"hamlet":"Esperanza","village":"Big Falls","state":"Toledo District","ISO3166-2-lvl4":"BZ-TOL","country":"Belize","country_code":"bz"},"osm_type":"node","osm_id":8195617483,"type":"hamlet","location":[-88.8967015,16.2555157],"bbox":[-88.9167015,16.2355157,-88.8767015,16.2755157]}
{"name":"Tambran","display_name":"Tambran, Toledo District, Belize","address":{"hamlet":"Tambran","state":"Toledo District","ISO3166-2-lvl4":"BZ-TOL","country":"Belize","country_code":"bz"},"osm_type":"node","osm_id":2575218308,"type":"hamlet","location":[-88.775244,16.3863811],"bbox":[-88.795244,16.3663811,-88.755244,16.4063811]}
{"name":"Trion","display_name":"Trion, Toledo District, Belize","address":{"hamlet":"Trion","state":"Toledo District","ISO3166-2-lvl4":"BZ-TOL","country":"Belize","country_code":"bz"},"osm_type":"node","osm_id":9515275514,"type":"hamlet","location":[-88.5973493,16.5173882],"bbox":[-88.6173493,16.4973882,-88.5773493,16.5373882]}
{"name":"Deep River","display_name":"Deep River, Toledo District, Belize","address":{"hamlet":"Deep River","state":"Toledo District","ISO3166-2-lvl4":"BZ-TOL","country":"Belize","country_code":"bz"},"osm_type":"node","osm_id":9402675615,"type":"hamlet","location":[-88.7652113,16.3985659],"bbox":[-88.7852113,16.3785659,-88.7452113,16.4185659]}
{"name":"Buena Vista","display_name":"Buena Vista, Toledo District, Belize","address":{"hamlet":"Buena Vista","state":"Toledo District","ISO3166-2-lvl4":"BZ-TOL","country":"Belize","country_code":"bz"},"osm_type":"node","osm_id":8809987346,"type":"hamlet","location":[-88.567297,16.5849265],"bbox":[-88.587297,16.5649265,-88.547297,16.6049265]}
{"name":"Punta Negra","display_name":"Punta Negra, Toledo District, Belize","address":{"hamlet":"Punta Negra","state":"Toledo District","ISO3166-2-lvl4":"BZ-TOL","country":"Belize","country_code":"bz"},"population":52,"osm_type":"node","osm_id":8441148825,"type":"hamlet","location":[-88.5447919,16.2915047],"bbox":[-88.5647919,16.2715047,-88.5247919,16.3115047]}
{"name":"Mango Walk","other_names":{"name:en":"Mango Walk","alt_name":"Esparasca"},"display_name":"Mango Walk, Toledo District, Belize","address":{"hamlet":"Mango Walk","state":"Toledo District","ISO3166-2-lvl4":"BZ-TOL","country":"Belize","country_code":"bz"},"population":299,"osm_type":"node","osm_id":7526655247,"type":"hamlet","location":[-88.5271395,16.4418058],"bbox":[-88.5471395,16.4218058,-88.5071395,16.4618058]}
{"name":"Surfside Lagoon Residences","display_name":"Surfside Lagoon Residences, Seine Bight, Stann Creek District, Belize","address":{"hamlet":"Surfside Lagoon Residences","village":"Seine Bight","state":"Stann Creek District","ISO3166-2-lvl4":"BZ-SC","country":"Belize","country_code":"bz"},"osm_type":"node","osm_id":4785221485,"type":"hamlet","location":[-88.364263,16.5833018],"bbox":[-88.384263,16.5633018,-88.344263,16.6033018]}
{"name":"Flour Camp","display_name":"Flour Camp, Stann Creek District, Belize","address":{"hamlet":"Flour Camp","state":"Stann Creek District","ISO3166-2-lvl4":"BZ-SC","country":"Belize","country_code":"bz"},"osm_type":"node","osm_id":8793763000,"type":"hamlet","location":[-88.3974942,16.6149983],"bbox":[-88.4174942,16.5949983,-88.3774942,16.6349983]}
{"name":"Augustine","display_name":"Augustine, Cayo District, Belize","address":{"hamlet":"Augustine","state":"Cayo District","ISO3166-2-lvl4":"BZ-CY","country":"Belize","country_code":"bz"},"osm_type":"node","osm_id":5603318979,"type":"hamlet","location":[-88.9932084,16.9709879],"bbox":[-89.0132084,16.9509879,-88.9732084,16.9909879]}
{"name":"San Lorenzo","display_name":"San Lorenzo, Cayo District, Belize","address":{"hamlet":"San Lorenzo","state":"Cayo District","ISO3166-2-lvl4":"BZ-CY","country":"Belize","country_code":"bz"},"osm_type":"node","osm_id":9140589442,"type":"hamlet","location":[-89.127885,17.0999275],"bbox":[-89.147885,17.0799275,-89.107885,17.1199275]}
{"name":"Centerville Community","display_name":"Centerville Community, Cayo District, Belize","address":{"hamlet":"Centerville Community","state":"Cayo District","ISO3166-2-lvl4":"BZ-CY","country":"Belize","country_code":"bz"},"osm_type":"node","osm_id":8858762018,"type":"hamlet","location":[-88.9975772,17.0890831],"bbox":[-89.0175772,17.0690831,-88.9775772,17.1090831]}
{"name":"Santa Rosa","display_name":"Santa Rosa, Cayo District, Belize","address":{"hamlet":"Santa Rosa","state":"Cayo District","ISO3166-2-lvl4":"BZ-CY","country":"Belize","country_code":"bz"},"osm_type":"node","osm_id":9140589614,"type":"hamlet","location":[-89.1387287,17.1382467],"bbox":[-89.1587287,17.1182467,-89.1187287,17.1582467]}
{"name":"San Fransisco Heights","display_name":"San Fransisco Heights, San Ignacio, San Ignacio & Santa Elena, Cayo District, Belize","address":{"hamlet":"San Fransisco Heights","town":"San Ignacio","city":"San Ignacio & Santa Elena","state":"Cayo District","ISO3166-2-lvl4":"BZ-CY","country":"Belize","country_code":"bz"},"osm_type":"node","osm_id":8858762025,"type":"hamlet","location":[-89.0918341,17.1335191],"bbox":[-89.1118341,17.1135191,-89.0718341,17.1535191]}
{"name":"Plant Sucker","display_name":"Plant Sucker, Cayo District, Belize","address":{"hamlet":"Plant Sucker","state":"Cayo District","ISO3166-2-lvl4":"BZ-CY","country":"Belize","country_code":"bz"},"osm_type":"node","osm_id":9140589616,"type":"hamlet","location":[-89.1325754,17.1565531],"bbox":[-89.1525754,17.1365531,-89.1125754,17.1765531]}
{"name":"Ramonal","display_name":"Ramonal, Cayo District, Belize","address":{"hamlet":"Ramonal","state":"Cayo District","ISO3166-2-lvl4":"BZ-CY","country":"Belize","country_code":"bz"},"osm_type":"node","osm_id":9140589617,"type":"hamlet","location":[-89.1310816,17.1604462],"bbox":[-89.1510816,17.1404462,-89.1110816,17.1804462]}
{"name":"San Jose","display_name":"San Jose, San Ignacio, San Ignacio & Santa Elena, Cayo District, Belize","address":{"hamlet":"San Jose","town":"San Ignacio","city":"San Ignacio & Santa Elena","state":"Cayo District","ISO3166-2-lvl4":"BZ-CY","country":"Belize","country_code":"bz"},"osm_type":"node","osm_id":9140589440,"type":"hamlet","location":[-89.0981776,17.1729395],"bbox":[-89.1181776,17.1529395,-89.0781776,17.1929395]}
{"name":"Paslow Falls","display_name":"Paslow Falls, Cayo District, Belize","address":{"hamlet":"Paslow Falls","state":"Cayo District","ISO3166-2-lvl4":"BZ-CY","country":"Belize","country_code":"bz"},"population":193,"osm_type":"node","osm_id":5644825103,"type":"hamlet","location":[-89.1303922,17.168524],"bbox":[-89.1503922,17.148524,-89.1103922,17.188524]}
{"name":"Maya Flats","display_name":"Maya Flats, Cayo District, Belize","address":{"hamlet":"Maya Flats","state":"Cayo District","ISO3166-2-lvl4":"BZ-CY","country":"Belize","country_code":"bz"},"osm_type":"node","osm_id":5045547547,"type":"hamlet","location":[-89.104634,17.0986139],"bbox":[-89.124634,17.0786139,-89.084634,17.1186139]}
{"name":"Pilgrimage Valley","display_name":"Pilgrimage Valley, Cayo District, Belize","address":{"hamlet":"Pilgrimage Valley","state":"Cayo District","ISO3166-2-lvl4":"BZ-CY","country":"Belize","country_code":"bz"},"population":22,"osm_type":"node","osm_id":8017722164,"type":"hamlet","location":[-89.0298678,17.1504006],"bbox":[-89.0498678,17.1304006,-89.0098678,17.1704006]}
{"name":"San Miguel Farms","display_name":"San Miguel Farms, Cayo District, Belize","address":{"hamlet":"San Miguel Farms","state":"Cayo District","ISO3166-2-lvl4":"BZ-CY","country":"Belize","country_code":"bz"},"osm_type":"node","osm_id":5054381898,"type":"hamlet","location":[-89.0338436,17.1809415],"bbox":[-89.0538436,17.1609415,-89.0138436,17.2009415]}
{"name":"West Land","display_name":"West Land, Lower Barton Creek, Cayo District, Belize","address":{"hamlet":"West Land","village":"Lower Barton Creek","state":"Cayo District","ISO3166-2-lvl4":"BZ-CY","country":"Belize","country_code":"bz"},"osm_type":"node","osm_id":10673893213,"type":"hamlet","location":[-88.8976816,17.1601263],"bbox":[-88.9176816,17.1401263,-88.8776816,17.1801263]}
{"name":"Riverwalk","display_name":"Riverwalk, Cayo District, Belize","address":{"hamlet":"Riverwalk","state":"Cayo District","ISO3166-2-lvl4":"BZ-CY","country":"Belize","country_code":"bz"},"osm_type":"node","osm_id":2493280630,"type":"hamlet","location":[-88.9527246,17.2008968],"bbox":[-88.9727246,17.1808968,-88.9327246,17.2208968]}
{"name":"Caves Branch","display_name":"Caves Branch, Cayo District, Belize","address":{"hamlet":"Caves Branch","state":"Cayo District","ISO3166-2-lvl4":"BZ-CY","country":"Belize","country_code":"bz"},"osm_type":"node","osm_id":9140530383,"type":"hamlet","location":[-88.7118916,17.1498547],"bbox":[-88.7318916,17.1298547,-88.6918916,17.1698547]}
{"name":"Ringtail","display_name":"Ringtail, Cayo District, Belize","address":{"hamlet":"Ringtail","state":"Cayo District","ISO3166-2-lvl4":"BZ-CY","country":"Belize","country_code":"bz"},"osm_type":"node","osm_id":6292405012,"type":"hamlet","location":[-88.6687136,17.1507907],"bbox":[-88.6887136,17.1307907,-88.6487136,17.1707907]}
{"name":"Duck Run IV","display_name":"Duck Run IV, Cayo District, Belize","address":{"hamlet":"Duck Run IV","state":"Cayo District","ISO3166-2-lvl4":"BZ-CY","country":"Belize","country_code":"bz"},"population":144,"osm_type":"node","osm_id":5977094469,"type":"hamlet","location":[-89.0920129,17.2826387],"bbox":[-89.1120129,17.2626387,-89.0720129,17.3026387]}
{"name":"Red Hill","display_name":"Red Hill, Selena, Cayo District, Belize","address":{"hamlet":"Red Hill","village":"Selena","state":"Cayo District","ISO3166-2-lvl4":"BZ-CY","country":"Belize","country_code":"bz"},"population":50,"osm_type":"node","osm_id":3654938867,"type":"hamlet","location":[-89.0022574,17.2990854],"bbox":[-89.0222574,17.2790854,-88.9822574,17.3190854]}
{"name":"Santa Terresita","display_name":"Santa Terresita, Selena, Cayo District, Belize","address":{"hamlet":"Santa Terresita","village":"Selena","state":"Cayo District","ISO3166-2-lvl4":"BZ-CY","country":"Belize","country_code":"bz"},"osm_type":"node","osm_id":7880203623,"type":"hamlet","location":[-88.9906979,17.2815555],"bbox":[-89.0106979,17.2615555,-88.9706979,17.3015555]}
{"name":"Yalbac","display_name":"Yalbac, Cayo District, Belize","address":{"hamlet":"Yalbac","state":"Cayo District","ISO3166-2-lvl4":"BZ-CY","country":"Belize","country_code":"bz"},"osm_type":"node","osm_id":10728652487,"type":"hamlet","location":[-88.9446799,17.3780477],"bbox":[-88.9646799,17.3580477,-88.9246799,17.3980477]}
{"name":"Camino del Rio","display_name":"Camino del Rio, Cayo District, Belize","address":{"hamlet":"Camino del Rio","state":"Cayo District","ISO3166-2-lvl4":"BZ-CY","country":"Belize","country_code":"bz"},"osm_type":"node","osm_id":9515324036,"type":"hamlet","location":[-88.6126044,17.2430161],"bbox":[-88.6326044,17.2230161,-88.5926044,17.2630161]}
{"name":"Chan Chich","display_name":"Chan Chich, Orange Walk District, Belize","address":{"hamlet":"Chan Chich","state":"Orange Walk District","ISO3166-2-lvl4":"BZ-OW","country":"Belize","country_code":"bz"},"population":63,"osm_type":"node","osm_id":1638358205,"type":"hamlet","location":[-89.0920689,17.5872808],"bbox":[-89.1120689,17.5672808,-89.0720689,17.6072808]}
{"name":"Hill Bank","display_name":"Hill Bank, Orange Walk District, Belize","address":{"hamlet":"Hill Bank","state":"Orange Walk District","ISO3166-2-lvl4":"BZ-OW","country":"Belize","country_code":"bz"},"osm_type":"node","osm_id":1639673308,"type":"hamlet","location":[-88.7004952,17.6017393],"bbox":[-88.7204952,17.5817393,-88.6804952,17.6217393]}
{"name":"Bergthal (Camp 57)","display_name":"Bergthal (Camp 57), Indian Creek, Orange Walk District, Belize","address":{"hamlet":"Bergthal (Camp 57)","village":"Indian Creek","state":"Orange Walk District","ISO3166-2-lvl4":"BZ-OW","country":"Belize","country_code":"bz"},"osm_type":"node","osm_id":10239334716,"type":"hamlet","location":[-88.7283612,17.7230291],"bbox":[-88.7483612,17.7030291,-88.7083612,17.7430291]}
{"name":"Middlesex","display_name":"Middlesex, Kingsville, Stann Creek District, Belize","address":{"hamlet":"Middlesex","village":"Kingsville","state":"Stann Creek District","ISO3166-2-lvl4":"BZ-SC","country":"Belize","country_code":"bz"},"osm_type":"node","osm_id":6124109534,"type":"hamlet","location":[-88.5106365,17.0250101],"bbox":[-88.5306365,17.0050101,-88.4906365,17.0450101]}
{"name":"Mountain Valley Community","display_name":"Mountain Valley Community, Stann Creek District, Belize","address":{"hamlet":"Mountain Valley Community","state":"Stann Creek District","ISO3166-2-lvl4":"BZ-SC","country":"Belize","country_code":"bz"},"osm_type":"node","osm_id":9840178955,"type":"hamlet","location":[-88.3814711,16.9885979],"bbox":[-88.4014711,16.9685979,-88.3614711,17.0085979]}
{"name":"Green Hill Manatee","display_name":"Green Hill Manatee, Belize District, Belize","address":{"hamlet":"Green Hill Manatee","state":"Belize District","ISO3166-2-lvl4":"BZ-BZ","country":"Belize","country_code":"bz"},"osm_type":"node","osm_id":6202483318,"type":"hamlet","location":[-88.5547282,17.1225712],"bbox":[-88.5747282,17.1025712,-88.5347282,17.1425712]}
{"name":"Long Bank","display_name":"Long Bank, Stann Creek District, Belize","address":{"hamlet":"Long Bank","state":"Stann Creek District","ISO3166-2-lvl4":"BZ-SC","country":"Belize","country_code":"bz"},"osm_type":"node","osm_id":6259059735,"type":"hamlet","location":[-88.265704,16.980372],"bbox":[-88.285704,16.960372,-88.245704,17.000372]}
{"name":"Dry Creek Village","other_names":{"name:en":"Dry Creek Village","alt_name":"Mile 28"},"display_name":"Dry Creek Village, Cayo District, Belize","address":{"hamlet":"Dry Creek Village","state":"Cayo District","ISO3166-2-lvl4":"BZ-CY","country":"Belize","country_code":"bz"},"osm_type":"node","osm_id":9898099326,"type":"hamlet","location":[-88.575216,17.0555703],"bbox":[-88.595216,17.0355703,-88.555216,17.0755703]}
{"name":"Tobaccco Caye","display_name":"Tobaccco Caye, Stann Creek District, Belize","address":{"hamlet":"Tobaccco Caye","state":"Stann Creek District","ISO3166-2-lvl4":"BZ-SC","country":"Belize","country_code":"bz"},"population":50,"osm_type":"node","osm_id":9993852259,"type":"hamlet","location":[-88.0616861,16.8981206],"bbox":[-88.0816861,16.8781206,-88.0416861,16.9181206]}
{"name":"Butcher Burns","display_name":"Butcher Burns, Belize District, Belize","address":{"hamlet":"Butcher Burns","state":"Belize District","ISO3166-2-lvl4":"BZ-BZ","country":"Belize","country_code":"bz"},"osm_type":"node","osm_id":6006323663,"type":"hamlet","location":[-88.4404921,17.4218695],"bbox":[-88.4604921,17.4018695,-88.4204921,17.4418695]}
{"name":"Gracie Rock Bank","display_name":"Gracie Rock Bank, Belize District, Belize","address":{"hamlet":"Gracie Rock Bank","state":"Belize District","ISO3166-2-lvl4":"BZ-BZ","country":"Belize","country_code":"bz"},"osm_type":"node","osm_id":9140720809,"type":"hamlet","location":[-88.4508832,17.3684355],"bbox":[-88.4708832,17.3484355,-88.4308832,17.3884355]}
{"name":"Gracie Rock","display_name":"Gracie Rock, Belize District, Belize","address":{"hamlet":"Gracie Rock","state":"Belize District","ISO3166-2-lvl4":"BZ-BZ","country":"Belize","country_code":"bz"},"osm_type":"node","osm_id":9140720810,"type":"hamlet","location":[-88.4426788,17.3830753],"bbox":[-88.4626788,17.3630753,-88.4226788,17.4030753]}
{"name":"Cedar Bank","display_name":"Cedar Bank, Belize District, Belize","address":{"hamlet":"Cedar Bank","state":"Belize District","ISO3166-2-lvl4":"BZ-BZ","country":"Belize","country_code":"bz"},"osm_type":"node","osm_id":9140720808,"type":"hamlet","location":[-88.4362529,17.3886935],"bbox":[-88.4562529,17.3686935,-88.4162529,17.4086935]}
{"name":"Joe Wagner Boom","display_name":"Joe Wagner Boom, Belize District, Belize","address":{"hamlet":"Joe Wagner Boom","state":"Belize District","ISO3166-2-lvl4":"BZ-BZ","country":"Belize","country_code":"bz"},"osm_type":"node","osm_id":9140720805,"type":"hamlet","location":[-88.3606852,17.4262429],"bbox":[-88.3806852,17.4062429,-88.3406852,17.4462429]}
{"name":"Freetown Sibun","display_name":"Freetown Sibun, Belize District, Belize","address":{"hamlet":"Freetown Sibun","state":"Belize District","ISO3166-2-lvl4":"BZ-BZ","country":"Belize","country_code":"bz"},"osm_type":"node","osm_id":6006323662,"type":"hamlet","location":[-88.3533137,17.4299532],"bbox":[-88.3733137,17.4099532,-88.3333137,17.4499532]}
{"name":"Little Bermudian Landing","display_name":"Little Bermudian Landing, Belize District, Belize","address":{"hamlet":"Little Bermudian Landing","state":"Belize District","ISO3166-2-lvl4":"BZ-BZ","country":"Belize","country_code":"bz"},"osm_type":"node","osm_id":8241983569,"type":"hamlet","location":[-88.5400533,17.576541],"bbox":[-88.5600533,17.556541,-88.5200533,17.596541]}
{"name":"Gentleville","display_name":"Gentleville, Belize District, Belize","address":{"hamlet":"Gentleville","state":"Belize District","ISO3166-2-lvl4":"BZ-BZ","country":"Belize","country_code":"bz"},"osm_type":"node","osm_id":6001715464,"type":"hamlet","location":[-88.3482104,17.5825602],"bbox":[-88.3682104,17.5625602,-88.3282104,17.6025602]}
{"name":"Davis Bank","display_name":"Davis Bank, Belize District, Belize","address":{"hamlet":"Davis Bank","state":"Belize District","ISO3166-2-lvl4":"BZ-BZ","country":"Belize","country_code":"bz"},"population":32,"osm_type":"node","osm_id":9120812739,"type":"hamlet","location":[-88.3965056,17.646358],"bbox":[-88.4165056,17.626358,-88.3765056,17.666358]}
{"name":"Isabella Bank","display_name":"Isabella Bank, Belize District, Belize","address":{"hamlet":"Isabella Bank","state":"Belize District","ISO3166-2-lvl4":"BZ-BZ","country":"Belize","country_code":"bz"},"osm_type":"node","osm_id":8241983570,"type":"hamlet","location":[-88.5354184,17.5883436],"bbox":[-88.5554184,17.5683436,-88.5154184,17.6083436]}
{"name":"Salt Creek","display_name":"Salt Creek, Belize District, Belize","address":{"hamlet":"Salt Creek","state":"Belize District","ISO3166-2-lvl4":"BZ-BZ","country":"Belize","country_code":"bz"},"osm_type":"node","osm_id":9120812617,"type":"hamlet","location":[-88.3262523,17.6633026],"bbox":[-88.3462523,17.6433026,-88.3062523,17.6833026]}
{"name":"May Pen","display_name":"May Pen, Belize District, Belize","address":{"hamlet":"May Pen","state":"Belize District","ISO3166-2-lvl4":"BZ-BZ","country":"Belize","country_code":"bz"},"osm_type":"node","osm_id":6001715465,"type":"hamlet","location":[-88.4742658,17.6526585],"bbox":[-88.4942658,17.6326585,-88.4542658,17.6726585]}
{"name":"Grace Bank","display_name":"Grace Bank, Belize District, Belize","address":{"hamlet":"Grace Bank","state":"Belize District","ISO3166-2-lvl4":"BZ-BZ","country":"Belize","country_code":"bz"},"population":32,"osm_type":"node","osm_id":2613123087,"type":"hamlet","location":[-88.4015788,17.6503982],"bbox":[-88.4215788,17.6303982,-88.3815788,17.6703982]}
{"name":"Chicago","display_name":"Chicago, Belize District, Belize","address":{"hamlet":"Chicago","state":"Belize District","ISO3166-2-lvl4":"BZ-BZ","country":"Belize","country_code":"bz"},"osm_type":"node","osm_id":2285155351,"type":"hamlet","location":[-88.3115477,17.8149465],"bbox":[-88.3315477,17.7949465,-88.2915477,17.8349465]}
{"name":"Santana","display_name":"Santana, Belize District, Belize","address":{"hamlet":"Santana","state":"Belize District","ISO3166-2-lvl4":"BZ-BZ","country":"Belize","country_code":"bz"},"osm_type":"node","osm_id":2285155359,"type":"hamlet","location":[-88.3009689,17.8051935],"bbox":[-88.3209689,17.7851935,-88.2809689,17.8251935]}
{"name":"Boston","display_name":"Boston, Belize District, Belize","address":{"hamlet":"Boston","state":"Belize District","ISO3166-2-lvl4":"BZ-BZ","country":"Belize","country_code":"bz"},"osm_type":"node","osm_id":2285155350,"type":"hamlet","location":[-88.3599132,17.6733811],"bbox":[-88.3799132,17.6533811,-88.3399132,17.6933811]}
{"name":"Corozalito","display_name":"Corozalito, Belize District, Belize","address":{"hamlet":"Corozalito","state":"Belize District","ISO3166-2-lvl4":"BZ-BZ","country":"Belize","country_code":"bz"},"osm_type":"node","osm_id":2285155352,"type":"hamlet","location":[-88.2730326,17.8378941],"bbox":[-88.2930326,17.8178941,-88.2530326,17.8578941]}
{"name":"Nago Bank","display_name":"Nago Bank, Belize District, Belize","address":{"hamlet":"Nago Bank","state":"Belize District","ISO3166-2-lvl4":"BZ-BZ","country":"Belize","country_code":"bz"},"osm_type":"node","osm_id":2285155356,"type":"hamlet","location":[-88.2919915,17.8795765],"bbox":[-88.3119915,17.8595765,-88.2719915,17.8995765]}
{"name":"St. Anne's","display_name":"St. Anne's, Belize District, Belize","address":{"hamlet":"St. Anne's","state":"Belize District","ISO3166-2-lvl4":"BZ-BZ","country":"Belize","country_code":"bz"},"osm_type":"node","osm_id":8910191118,"type":"hamlet","location":[-88.3107928,17.8537374],"bbox":[-88.3307928,17.8337374,-88.2907928,17.8737374]}
{"name":"Rockstone Pond","other_names":{"name:en":"Rockstone Pond","name:es":"Rockstone Pond","name:ru":"Рокстоун-Понд"},"display_name":"Rockstone Pond, Belize District, Belize","address":{"hamlet":"Rockstone Pond","state":"Belize District","ISO3166-2-lvl4":"BZ-BZ","country":"Belize","country_code":"bz"},"osm_type":"node","osm_id":2285155357,"type":"hamlet","location":[-88.345406,17.7547359],"bbox":[-88.365406,17.7347359,-88.325406,17.7747359]}
{"name":"Cowhead Creek","display_name":"Cowhead Creek, Belize District, Belize","address":{"hamlet":"Cowhead Creek","state":"Belize District","ISO3166-2-lvl4":"BZ-BZ","country":"Belize","country_code":"bz"},"osm_type":"node","osm_id":2285155353,"type":"hamlet","location":[-88.3113083,17.7613564],"bbox":[-88.3313083,17.7413564,-88.2913083,17.7813564]}
{"name":"Lucky Strike","display_name":"Lucky Strike, Belize District, Belize","address":{"hamlet":"Lucky Strike","state":"Belize District","ISO3166-2-lvl4":"BZ-BZ","country":"Belize","country_code":"bz"},"osm_type":"node","osm_id":2285155354,"type":"hamlet","location":[-88.3189604,17.7786297],"bbox":[-88.3389604,17.7586297,-88.2989604,17.7986297]}
{"name":"Bomba","display_name":"Bomba, Belize District, Belize","address":{"hamlet":"Bomba","state":"Belize District","ISO3166-2-lvl4":"BZ-BZ","country":"Belize","country_code":"bz"},"osm_type":"node","osm_id":2285155349,"type":"hamlet","location":[-88.2759081,17.8909702],"bbox":[-88.2959081,17.8709702,-88.2559081,17.9109702]}
{"name":"Richmond Hill","display_name":"Richmond Hill, Orange Walk District, Belize","address":{"hamlet":"Richmond Hill","state":"Orange Walk District","ISO3166-2-lvl4":"BZ-OW","country":"Belize","country_code":"bz"},"population":38,"osm_type":"node","osm_id":8441138394,"type":"hamlet","location":[-88.5645401,18.0110014],"bbox":[-88.5845401,17.9910014,-88.5445401,18.0310014]}
{"name":"Pettville","display_name":"Pettville, Orange Walk District, Belize","address":{"hamlet":"Pettville","state":"Orange Walk District","ISO3166-2-lvl4":"BZ-OW","country":"Belize","country_code":"bz"},"osm_type":"node","osm_id":8131293792,"type":"hamlet","location":[-88.546207,18.082159],"bbox":[-88.566207,18.062159,-88.526207,18.102159]}
{"name":"Corozalito","display_name":"Corozalito, Corozal District, Belize","address":{"hamlet":"Corozalito","state":"Corozal District","ISO3166-2-lvl4":"BZ-CZL","country":"Belize","country_code":"bz"},"osm_type":"node","osm_id":6319916213,"type":"hamlet","location":[-88.3729217,18.1038532],"bbox":[-88.3929217,18.0838532,-88.3529217,18.1238532]}
{"name":"Mara Laguna Community","display_name":"Mara Laguna Community, San Pedro Town, Belize District, Belize","address":{"hamlet":"Mara Laguna Community","town":"San Pedro Town","state":"Belize District","ISO3166-2-lvl4":"BZ-BZ","country":"Belize","country_code":"bz"},"osm_type":"node","osm_id":8666292332,"type":"hamlet","location":[-87.9548899,17.9336904],"bbox":[-87.9748899,17.9136904,-87.9348899,17.9536904]}
{"name":"Santa Cruz","display_name":"Santa Cruz, Corozal District, Belize","address":{"hamlet":"Santa Cruz","state":"Corozal District","ISO3166-2-lvl4":"BZ-CZL","country":"Belize","country_code":"bz"},"osm_type":"node","osm_id":7797563366,"type":"hamlet","location":[-88.4577132,18.2526696],"bbox":[-88.4777132,18.2326696,-88.4377132,18.2726696]}
{"name":"Progresso Heights","display_name":"Progresso Heights, Corozal District, Belize","address":{"hamlet":"Progresso Heights","county":"Corozal District","state":"Corozal District","ISO3166-2-lvl4":"BZ-CZL","country":"Belize","country_code":"bz"},"osm_type":"node","osm_id":1639707161,"type":"hamlet","location":[-88.3935862,18.2429366],"bbox":[-88.4135862,18.2229366,-88.3735862,18.2629366]}
{"name":"Yo Chen","display_name":"Yo Chen, Corozal District, Belize","address":{"hamlet":"Yo Chen","state":"Corozal District","ISO3166-2-lvl4":"BZ-CZL","country":"Belize","country_code":"bz"},"population":149,"osm_type":"node","osm_id":5879593759,"type":"hamlet","location":[-88.4984179,18.3560028],"bbox":[-88.5184179,18.3360028,-88.4784179,18.3760028]}
{"name":"Aventura","display_name":"Aventura, Corozal District, Belize","address":{"hamlet":"Aventura","state":"Corozal District","ISO3166-2-lvl4":"BZ-CZL","country":"Belize","country_code":"bz"},"osm_type":"node","osm_id":9270948432,"type":"hamlet","location":[-88.4482111,18.3318729],"bbox":[-88.4682111,18.3118729,-88.4282111,18.3518729]}
{"name":"Xcanluum","display_name":"Xcanluum, Corozal District, Belize","address":{"hamlet":"Xcanluum","state":"Corozal District","ISO3166-2-lvl4":"BZ-CZL","country":"Belize","country_code":"bz"},"osm_type":"node","osm_id":9270948431,"type":"hamlet","location":[-88.457378,18.3942969],"bbox":[-88.477378,18.3742969,-88.437378,18.4142969]}
{"name":"Cerros Beach Resort","display_name":"Cerros Beach Resort, Corozal District, Belize","address":{"hamlet":"Cerros Beach Resort","state":"Corozal District","ISO3166-2-lvl4":"BZ-CZL","country":"Belize","country_code":"bz"},"osm_type":"node","osm_id":2169219795,"type":"hamlet","location":[-88.3412415,18.3612474],"bbox":[-88.3612415,18.3412474,-88.3212415,18.3812474]}
{"name":"Consejo Shores","display_name":"Consejo Shores, Consejo, Corozal District, Belize","address":{"hamlet":"Consejo Shores","village":"Consejo","state":"Corozal District","ISO3166-2-lvl4":"BZ-CZL","country":"Belize","country_code":"bz"},"osm_type":"node","osm_id":7818436293,"type":"hamlet","location":[-88.3101288,18.4492574],"bbox":[-88.3301288,18.4292574,-88.2901288,18.4692574]}