{"name":"عالي","other_names":{"name:ar":"عالي","name:cs":"Álí","name:de":"A'ali","name:en":"A'ali","name:es":"A'ali","name:fr":"A'ali","name:ml":"ആലി"},"display_name":"عالي, المحافظة الشمالية, 973, البحرين","address":{"city":"عالي","state":"المحافظة الشمالية","ISO3166-2-lvl4":"BH-17","postcode":"973","country":"البحرين","country_code":"bh"},"population":100553,"osm_type":"node","osm_id":2141284320,"type":"city","location":[50.5273639,26.1544539],"bbox":[50.3673639,25.9944539,50.6873639,26.3144539]}
{"name":"الرفاع","other_names":{"name:ar":"الرفاع","name:cs":"ar-Riffá","name:de":"Ar-Riffa","name:en":"Riffa","name:es":"Riffa","name:fa":"رفاع","name:fr":"Riffa","name:he":"ריפה","name:ks":"رفاع","name:ml":"റിഫാ","name:ru":"Эр-Рифа","name:ur":"رفاع"},"display_name":"الرفاع, المحافظة الجنوبية, 912, البحرين","address":{"city":"الرفاع","state":"المحافظة الجنوبية","ISO3166-2-lvl4":"BH-14","postcode":"912","country":"البحرين","country_code":"bh"},"population":121566,"osm_type":"node","osm_id":2189166838,"type":"city","location":[50.5503431,26.1315261],"bbox":[50.3903431,25.9715261,50.7103431,26.2915261]}
{"name":"المحرق","other_names":{"name:ar":"المحرق","name:cs":"Muhárrak","name:de":"al-Muharraq","name:en":"Muharraq","name:es":"Muharraq","name:fr":"Muharraq","name:he":"מוחארק","name:ml":"മുഹറഖ്","name:ru":"Мухаррак","name:zh":"穆哈拉克"},"display_name":"المحرق, محافظة المحرق, 204, البحرين","address":{"city":"المحرق","state":"محافظة المحرق","ISO3166-2-lvl4":"BH-15","postcode":"204","country":"البحرين","country_code":"bh"},"population":75000,"osm_type":"node","osm_id":2189170851,"type":"city","location":[50.6164127,26.2465946],"bbox":[50.4564127,26.0865946,50.7764127,26.4065946]}
{"name":"المنامة","other_names":{"name:af":"Manama","name:am":"ማናማ","name:an":"Manama","name:ar":"المنامة","name:az":"Manama","name:ba":"Манама","name:be":"Манама","name:bg":"Манама","name:bn":"মানামা","name:bo":"མ་ན་མ།","name:br":"Manama","name:bs":"Manama","name:ca":"Al-Manama","name:ce":"Манама","name:cs":"Manáma","name:cy":"Manama","name:da":"Manama","name:de":"Manama","name:el":"Μανάμα","name:en":"Manama","name:eo":"Manamo","name:es":"Manama","name:et":"Manama","name:eu":"Manama","name:fa":"منامه","name:fi":"Manama","name:fr":"Manama","name:fy":"Manama","name:ga":"Manama","name:gd":"Manama","name:gl":"Manama","name:he":"מנאמה","name:hi":"मनामा","name:hr":"Manama","name:ht":"Manama","name:hu":"Manáma","name:hy":"Մանամա","name:ia":"Manama","name:id":"Al-Manamah","name:ie":"Manama","name:io":"Al Manamah","name:is":"Manama","name:it":"Manama","name:ja":"マナーマ","name:ka":"მანამა","name:ki":"Manama","name:kk":"Манама","name:kn":"ಮನಾಮ","name:ko":"마나마","name:ku":"Mename","name:ky":"Манама","name:la":"Manama","name:lb":"Manama","name:lt":"Menama","name:lv":"Manāma","name:mg":"Manama","name:mk":"Манама","name:ml":"മനാമ","name:mn":"Манама","name:mr":"मनामा","name:ms":"Manama","name:mt":"Manama","name:my":"မာနာမာမြို့","name:na":"Manama","name:ne":"मनामा","name:nl":"Manamah","name:no":"Manama","name:oc":"Manama","name:os":"Манамæ","name:pa":"ਮਨਾਮਾ","name:pl":"Manama","name:ps":"منامه","name:pt":"Manama","name:rm":"Manama","name:ro":"Manama","name:ru":"Манама","name:rw":"Manama","name:sc":"Manama","name:sh":"Manama","name:sk":"Manáma","name:sl":"Manama","name:sn":"Manama","name:sq":"Manama","name:sr":"Манама","name:su":"Al-Manamah","name:sv":"Manama","name:sw":"Manama","name:ta":"மனாமா","name:tg":"Манама","name:th":"มานามา","name:tl":"Manama","name:tr":"Menâme","name:uk":"Манама","name:ur":"منامہ","name:uz":"Manama","name:vi":"Manama","name:vo":"Mänamä","name:yo":"Manama","name:zh":"麥納麥","name:ace":"Al-Manamah","name:als":"Manama","name:ang":"Manama","name:arz":"المنامه","name:ast":"Manama","name:azb":"منامه","name:bcl":"Manama","name:cdo":"Manama","name:ceb":"Manama","name:ckb":"مەنامە","name:diq":"Mename","name:frp":"Manama","name:hak":"Manama","name:hif":"Manama","name:hsb":"Manama","name:ilo":"Manama","name:kaa":"Manama","name:kab":"Manama","name:lij":"Manama","name:lmo":"Manama","name:mai":"मनामा","name:myv":"Манама","name:nah":"Manāmah","name:pap":"Manama","name:pih":"Manaama","name:pms":"Manama","name:pnb":"مانامہ","name:sat":"ᱢᱟᱱᱟᱢᱟ","name:scn":"Manama","name:sco":"Manama","name:udm":"Манама","name:vep":"Manam","name:war":"Manama","name:wuu":"麦纳麦","name:xmf":"მანამა","name:yue":"麥納瑪","name:be-tarask":"Манама"},"display_name":"المنامة, محافظة العاصمة, 308, البحرين","address":{"city":"المنامة","state":"محافظة العاصمة","ISO3166-2-lvl4":"BH-13","postcode":"308","country":"البحرين","country_code":"bh"},"population":157474,"osm_type":"node","osm_id":38903284,"type":"city","location":[50.5822436,26.2235041],"bbox":[50.4222436,26.0635041,50.7422436,26.3835041]}
{"name":"جو","other_names":{"name:ar":"جو","name:en":"Jaww","name:ml":"ജൗ","int_name":"Jaww"},"display_name":"جو, المحافظة الجنوبية, البحرين","address":{"town":"جو","state":"المحافظة الجنوبية","ISO3166-2-lvl4":"BH-14","country":"البحرين","country_code":"bh"},"osm_type":"node","osm_id":658736581,"type":"town","location":[50.6176993,26.0012848],"bbox":[50.5776993,25.9612848,50.6576993,26.0412848]}
{"name":"الزلاق","other_names":{"name:ar":"الزلاق","name:cs":"Zallak","name:en":"Zallaq","name:ko":"알잘라크","name:ml":"സല്ലഖ്","int_name":"Zallaq"},"display_name":"الزلاق, المحافظة الجنوبية, 902, البحرين","address":{"town":"الزلاق","state":"المحافظة الجنوبية","ISO3166-2-lvl4":"BH-14","postcode":"902","country":"البحرين","country_code":"bh"},"osm_type":"node","osm_id":315862374,"type":"town","location":[50.4869845,26.0484553],"bbox":[50.4469845,26.0084553,50.5269845,26.0884553]}
{"name":"كرزكان","other_names":{"name:ar":"كرزكان","name:cs":"Karzakan","name:de":"Karzakan","name:en":"Karzakan","name:es":"Karzakan","name:fr":"Karzakan","int_name":"Karzakkan"},"display_name":"كرزكان, المحافظة الشمالية, 1203, البحرين","address":{"town":"كرزكان","state":"المحافظة الشمالية","ISO3166-2-lvl4":"BH-17","postcode":"1203","country":"البحرين","country_code":"bh"},"osm_type":"node","osm_id":659462987,"type":"town","location":[50.4809962,26.1138329],"bbox":[50.4409962,26.0738329,50.5209962,26.1538329]}
{"name":"مدينة عيسى","other_names":{"name:ar":"مدينة عيسى","name:en":"Isa Town","name:ml":"ഈസ ടൗൺ","int_name":"Madinat 'Isa"},"display_name":"مدينة عيسى, المحافظة الجنوبية, 802, البحرين","address":{"town":"مدينة عيسى","state":"المحافظة الجنوبية","ISO3166-2-lvl4":"BH-14","postcode":"802","country":"البحرين","country_code":"bh"},"population":36876,"osm_type":"node","osm_id":2363170274,"type":"town","location":[50.5473432,26.1741995],"bbox":[50.5073432,26.1341995,50.5873432,26.2141995]}
{"name":"عوالي","other_names":{"name:ar":"عوالي","name:en":"Awali","name:fr":"Awali","name:ml":"അവാലി","int_name":"Awali"},"display_name":"عوالي, المحافظة الجنوبية, 912, البحرين","address":{"town":"عوالي","state":"المحافظة الجنوبية","ISO3166-2-lvl4":"BH-14","postcode":"912","country":"البحرين","country_code":"bh"},"osm_type":"node","osm_id":2189162638,"type":"town","location":[50.5489052,26.0834264],"bbox":[50.5089052,26.0434264,50.5889052,26.1234264]}
{"name":"سلماباد","other_names":{"name:ar":"سلماباد","name:de":"Salmabad","name:en":"Salmabad","name:fa":"سلم‌آباد","name:ml":"സൽമാബാദ്"},"display_name":"سلماباد, المحافظة الشمالية, 000, البحرين","address":{"town":"سلماباد","state":"المحافظة الشمالية","ISO3166-2-lvl4":"BH-17","postcode":"000","country":"البحرين","country_code":"bh"},"population":19342,"osm_type":"node","osm_id":8717747963,"type":"town","location":[50.5253883,26.1846],"bbox":[50.4853883,26.1446,50.5653883,26.2246]}
{"name":"المعامير","other_names":{"name:ar":"المعامير","name:en":"Ma'ameer","int_name":"Ma'ameer"},"display_name":"المعامير, محافظة العاصمة, 626, البحرين","address":{"town":"المعامير","state":"محافظة العاصمة","ISO3166-2-lvl4":"BH-13","postcode":"626","country":"البحرين","country_code":"bh"},"osm_type":"node","osm_id":2363091252,"type":"town","location":[50.6151344,26.1331901],"bbox":[50.5751344,26.0931901,50.6551344,26.1731901]}
{"name":"دار كليب","other_names":{"name:ar":"دار كليب","name:cs":"Dár Kulajb","name:en":"Dar Kulayb","name:ml":"ദാർ കുലൈബ്","int_name":"Dar Kulayb"},"display_name":"دار كليب, المحافظة الشمالية, 902, البحرين","address":{"town":"دار كليب","state":"المحافظة الشمالية","ISO3166-2-lvl4":"BH-17","postcode":"902","country":"البحرين","country_code":"bh"},"osm_type":"node","osm_id":659277749,"type":"town","location":[50.5122187,26.0651104],"bbox":[50.4722187,26.0251104,50.5522187,26.1051104]}
{"name":"مدينة حمد","other_names":{"name:ar":"مدينة حمد","name:cs":"Madínat Hamad","name:de":"Hamad","name:en":"Hamad Town","name:es":"Madinat Hamad","name:fr":"Hamad Town","name:ml":"ഹമദ് ടൗൺ","int_name":"Madinat Hamad","alt_name:en":"Madinat Hamad"},"display_name":"مدينة حمد, المحافظة الشمالية, 1203, البحرين","address":{"town":"مدينة حمد","state":"المحافظة الشمالية","ISO3166-2-lvl4":"BH-17","postcode":"1203","country":"البحرين","country_code":"bh"},"population":133350,"osm_type":"node","osm_id":659360718,"type":"town","location":[50.4983356,26.1267463],"bbox":[50.4583356,26.0867463,50.5383356,26.1667463]}
{"name":"سار","other_names":{"name:ar":"سار","name:de":"Saar","name:en":"Saar","name:fa":"سار","name:ks":"سار","name:ml":"സാർ","name:ur":"سار","name:azb":"سار","name:az-Arab":"سار"},"display_name":"سار, المحافظة الشمالية, 575, البحرين","address":{"town":"سار","state":"المحافظة الشمالية","ISO3166-2-lvl4":"BH-17","postcode":"575","country":"البحرين","country_code":"bh"},"population":6000,"osm_type":"node","osm_id":8717733242,"type":"town","location":[50.4941714,26.1898256],"bbox":[50.4541714,26.1498256,50.5341714,26.2298256]}
{"name":"جد حفص","other_names":{"name:ar":"جد حفص","name:cs":"Džidd Hafs","name:en":"Jid Hafs","name:ml":"ജിദ് ഹഫസ്","int_name":"Jid Hafs"},"display_name":"جد حفص, محافظة العاصمة, 406, البحرين","address":{"town":"جد حفص","state":"محافظة العاصمة","ISO3166-2-lvl4":"BH-13","postcode":"406","country":"البحرين","country_code":"bh"},"osm_type":"node","osm_id":2363180279,"type":"town","location":[50.5407172,26.2163449],"bbox":[50.5007172,26.1763449,50.5807172,26.2563449]}
{"name":"البديع","other_names":{"name:ar":"البديع","name:en":"Budaiya","name:fr":"Boudaya","name:ml":"ബുദൈയ"},"display_name":"البديع, المحافظة الشمالية, 533, البحرين","address":{"town":"البديع","state":"المحافظة الشمالية","ISO3166-2-lvl4":"BH-17","postcode":"533","country":"البحرين","country_code":"bh"},"population":30702,"osm_type":"node","osm_id":2189168653,"type":"town","location":[50.4523545,26.2156292],"bbox":[50.4123545,26.1756292,50.4923545,26.2556292]}
{"name":"بسيتين","other_names":{"name:ar":"بسيتين","name:en":"Busaiteen","name:ml":"ബുസൈതീൻ"},"display_name":"بسيتين, محافظة المحرق, 225, البحرين","address":{"town":"بسيتين","state":"محافظة المحرق","ISO3166-2-lvl4":"BH-15","postcode":"225","country":"البحرين","country_code":"bh"},"population":19185,"osm_type":"node","osm_id":2125987766,"type":"town","location":[50.6028404,26.2719165],"bbox":[50.5628404,26.2319165,50.6428404,26.3119165]}
{"name":"الحد","other_names":{"name:ar":"الحد","name:cs":"al-Hidd","name:en":"Al-Hidd","name:fr":"Al-Hadd","name:ml":"അൽ-ഹിദ്"},"display_name":"الحد, محافظة المحرق, 101, البحرين","address":{"town":"الحد","state":"محافظة المحرق","ISO3166-2-lvl4":"BH-15","postcode":"101","country":"البحرين","country_code":"bh"},"population":12797,"osm_type":"node","osm_id":1935263128,"type":"town","location":[50.6528891,26.2440537],"bbox":[50.6128891,26.2040537,50.6928891,26.2840537]}
{"name":"عراد","other_names":{"name:ar":"عراد","name:cs":"Arad","name:en":"Arad","name:ml":"അറാദ്","int_name":"Arad"},"display_name":"عراد, محافظة المحرق, 109, البحرين","address":{"town":"عراد","state":"محافظة المحرق","ISO3166-2-lvl4":"BH-15","postcode":"109","country":"البحرين","country_code":"bh"},"osm_type":"node","osm_id":1934092516,"type":"town","location":[50.6326852,26.2512038],"bbox":[50.5926852,26.2112038,50.6726852,26.2912038]}
{"name":"جزر أمواج","other_names":{"name:ar":"جزر أمواج","name:cs":"Amwajské ostrovy","name:en":"Amwaj Islands","name:es":"Islas Amwaj","name:fr":"Îles Amwaj"},"display_name":"جزر أمواج, محافظة المحرق, 110, البحرين","address":{"town":"جزر أمواج","state":"محافظة المحرق","ISO3166-2-lvl4":"BH-15","postcode":"110","country":"البحرين","country_code":"bh"},"osm_type":"node","osm_id":1812751158,"type":"town","location":[50.666445,26.2947431],"bbox":[50.626445,26.2547431,50.706445,26.3347431]}
{"name":"النويدرات","other_names":{"name:ar":"النويدرات","name:en":"Nuwaidrat"},"display_name":"النويدرات, المحافظة الجنوبية, 644, البحرين","address":{"village":"النويدرات","state":"المحافظة الجنوبية","ISO3166-2-lvl4":"BH-14","postcode":"644","country":"البحرين","country_code":"bh"},"osm_type":"way","osm_id":288834721,"type":"village","location":[50.593508115583745,26.1349416],"bbox":[50.5817903,26.1245465,50.6025557,26.1432659]}
{"name":"عسكر","other_names":{"name:ar":"عسكر","name:en":"Askar","name:ml":"അസ്കർ"},"display_name":"عسكر, المحافظة الجنوبية, البحرين","address":{"village":"عسكر","state":"المحافظة الجنوبية","ISO3166-2-lvl4":"BH-14","country":"البحرين","country_code":"bh"},"osm_type":"node","osm_id":658841597,"type":"village","location":[50.6170822,26.0572253],"bbox":[50.5970822,26.0372253,50.6370822,26.0772253]}
{"name":"توبلي","other_names":{"name:ar":"توبلي","name:de":"Tubli","name:en":"Tubli","name:fa":"توبلی","name:ml":"തുബ്ലി","name:ur":"توبلی"},"display_name":"توبلي, محافظة العاصمة, 802, البحرين","address":{"village":"توبلي","state":"محافظة العاصمة","ISO3166-2-lvl4":"BH-13","postcode":"802","country":"البحرين","country_code":"bh"},"population":27510,"osm_type":"node","osm_id":8717758949,"type":"village","location":[50.5566209,26.1891729],"bbox":[50.5366209,26.1691729,50.5766209,26.2091729]}
{"name":"سند","other_names":{"name:ar":"سند","name:en":"Sanad","name:ml":"സനദ്"},"display_name":"سند, محافظة العاصمة, 745, البحرين","address":{"village":"سند","state":"محافظة العاصمة","ISO3166-2-lvl4":"BH-13","postcode":"745","country":"البحرين","country_code":"bh"},"population":1314,"osm_type":"node","osm_id":7192325892,"type":"village","location":[50.5841248,26.1501874],"bbox":[50.5641248,26.1301874,50.6041248,26.1701874]}
{"name":"الزنج","other_names":{"name:ar":"الزنج","name:en":"Zinj","name:ml":"സിൻജ്"},"display_name":"الزنج, محافظة العاصمة, 933, البحرين","address":{"village":"الزنج","state":"محافظة العاصمة","ISO3166-2-lvl4":"BH-13","postcode":"933","country":"البحرين","country_code":"bh"},"osm_type":"node","osm_id":1313924925,"type":"village","location":[50.5611995,26.2105388],"bbox":[50.5411995,26.1905388,50.5811995,26.2305388]}
{"name":"جد الحاج","other_names":{"name:ar":"جد الحاج","name:en":"Jid Al-Haj"},"display_name":"جد الحاج, المحافظة الشمالية, 450, البحرين","address":{"village":"جد الحاج","state":"المحافظة الشمالية","ISO3166-2-lvl4":"BH-17","postcode":"450","country":"البحرين","country_code":"bh"},"osm_type":"node","osm_id":7085015290,"type":"village","location":[50.5016281,26.2346174],"bbox":[50.4816281,26.2146174,50.5216281,26.2546174]}
{"name":"أَبُو بَهَام","other_names":{"name:ar":"أَبُو بَهَام","name:en":"Abu Baham"},"display_name":"أَبُو بَهَام, محافظة العاصمة, 431, البحرين","address":{"village":"أَبُو بَهَام","state":"محافظة العاصمة","ISO3166-2-lvl4":"BH-13","postcode":"431","country":"البحرين","country_code":"bh"},"osm_type":"node","osm_id":7900674680,"type":"village","location":[50.541668,26.2057374],"bbox":[50.521668,26.1857374,50.561668,26.2257374]}
