{"name":"Hamilton","other_names":{"name:ar":"هاميلتون","name:de":"Hamilton","name:en":"Hamilton","name:es":"Hamilton","name:fr":"Hamilton","name:hu":"Hamilton","name:it":"Hamilton","name:ko":"해밀턴","name:lt":"Hamiltonas","name:mk":"Хамилтон","name:mr":"हॅमिल्टन","name:nl":"Hamilton","name:no":"Hamilton","name:pl":"Hamilton","name:pt":"Hamilton","name:ru":"Гамильтон","name:sv":"Hamilton","name:tr":"Hamilton","name:uk":"Гамільтон","name:zh":"漢密爾頓"},"display_name":"City of Hamilton, Bermuda","address":{"city":"City of Hamilton","country":"Bermuda","country_code":"bm"},"population":15000,"osm_type":"node","osm_id":1811574522,"type":"city","location":[-64.7827048,32.2956076],"bbox":[-64.9427048,32.1356076,-64.6227048,32.4556076]}
{"name":"St. George's","other_names":{"name:ar":"سانت جورج","name:en":"St. George's","name:mk":"Сент Џорџес","old_name":"New London","official_name":"Town of St. George;St. George's Town"},"display_name":"Town of St. George, Bermuda","address":{"town":"Town of St. George","country":"Bermuda","country_code":"bm"},"osm_type":"node","osm_id":316780804,"type":"town","location":[-64.677208,32.382103],"bbox":[-64.717208,32.342103,-64.637208,32.422103]}
{"name":"Somerset","other_names":{"name:ar":"سومرست","name:en":"Somerset","name:mk":"Сомерсет"},"display_name":"Somerset, Sandys, MA 04, Bermuda","address":{"village":"Somerset","county":"Sandys","postcode":"MA 04","country":"Bermuda","country_code":"bm"},"osm_type":"node","osm_id":316781764,"type":"village","location":[-64.8699524,32.2962083],"bbox":[-64.8899524,32.2762083,-64.8499524,32.3162083]}
{"name":"Flatts","other_names":{"name:ar":"فلاتس","name:en":"Flatts","name:mk":"Флетс"},"display_name":"Flatts, Hamilton, FL 04, Bermuda","address":{"village":"Flatts","county":"Hamilton","postcode":"FL 04","country":"Bermuda","country_code":"bm"},"osm_type":"node","osm_id":388776959,"type":"village","location":[-64.7385344,32.3211651],"bbox":[-64.7585344,32.3011651,-64.7185344,32.3411651]}
{"name":"North Shore Village","display_name":"North Shore Village, Devonshire, DV 02, Bermuda","address":{"village":"North Shore Village","county":"Devonshire","postcode":"DV 02","country":"Bermuda","country_code":"bm"},"osm_type":"node","osm_id":8461920155,"type":"village","location":[-64.7727352,32.3058103],"bbox":[-64.7927352,32.2858103,-64.7527352,32.3258103]}
