{"name":"Djibouti جيبوتي","other_names":{"name:af":"Djiboeti","name:am":"ጅቡቲ","name:an":"Chibuti","name:ar":"جيبوتي","name:az":"Cibuti","name:ba":"Джибути","name:be":"Джыбуці","name:bg":"Джибути","name:bn":"জিবুতি","name:bo":"ཇི་བའོ་ཊི།","name:br":"Djibouti","name:bs":"Djibouti","name:ca":"Djibouti","name:ce":"Джибути","name:cs":"Džíbutí","name:cv":"Джибути","name:cy":"Djibouti","name:da":"Djibouti","name:de":"Dschibuti","name:dv":"ޖިބުތީ","name:ee":"Djibouti","name:el":"Τζιμπουτί","name:en":"Djibouti","name:eo":"Ĝibutio","name:es":"Yibuti","name:et":"Djibouti","name:eu":"Djibuti","name:fa":"جیبوتی","name:fi":"Djibouti","name:fr":"Djibouti","name:fy":"Dzjibûty","name:ga":"Diobúití","name:gd":"Djibouti","name:gl":"Xibutí","name:gv":"Djibouti","name:he":"ג'יבוטי","name:hi":"जीबूती","name:hr":"Djibouti","name:ht":"Djibouti","name:hu":"Dzsibuti","name:hy":"Ջիբութի","name:ia":"Djibouti","name:id":"Djibouti","name:ie":"Djibouti","name:io":"Djibuti","name:is":"Djíbútí","name:it":"Gibuti","name:ja":"ジブチ市","name:jv":"Djibouti","name:ka":"ჯიბუტი","name:kg":"Djibuti","name:ki":"Djibouti","name:kk":"Джибути","name:kn":"ಜಿಬೂತೀ","name:ko":"지부티","name:ks":"جیبوتی","name:ku":"Cîbûtî","name:kw":"Sita Jibouti","name:ky":"Жибути шаары","name:la":"Urbs Dzibutum","name:lb":"Dschibuti","name:li":"Djibouti","name:ln":"Djibuti","name:lt":"Džibutis","name:lv":"Džibuti","name:mg":"Jibotia","name:mk":"Џибути","name:ml":"ജിബൂട്ടി","name:mr":"जिबूती","name:ms":"Djibouti","name:mt":"Ġibuti","name:my":"ဂျီဘူတီနိုင်ငံ","name:na":"Djibuti","name:ne":"जिबुटी","name:nl":"Djibouti","name:nn":"Djibouti","name:no":"Djibouti","name:nv":"Jibótii","name:oc":"Jiboti","name:om":"Jibuutii","name:or":"ଡିଜିବୋଇଟି","name:os":"Джибути","name:pa":"ਜਿਬੂਤੀ","name:pl":"Dżibuti","name:ps":"جېبوتي","name:pt":"Djibouti","name:qu":"Yiwuti","name:ro":"Djibouti","name:ru":"Джибути","name:rw":"Jibuti","name:sa":"जिबूटी","name:sc":"Gibuti","name:sd":"جبوتي","name:se":"Djibouti","name:sg":"Dibutùii","name:sh":"Djibouti","name:sk":"Džibuti","name:sl":"Džibuti","name:sn":"Djibouti","name:so":"Jabuuti","name:sq":"Xhibuti","name:sr":"Џибути","name:ss":"IJibhuthi","name:su":"Djibouti","name:sv":"Djibouti","name:sw":"Jibuti","name:ta":"சீபூத்தீ","name:te":"జిబౌటి","name:tg":"Ҷибути","name:th":"จิบูตี","name:ti":"ጂቡቲ","name:tk":"Jibuti","name:tl":"Djibouti","name:tr":"Cibuti","name:ts":"Djibouti","name:tt":"Җибути","name:ug":"جىبۇتى","name:uk":"Джибуті","name:ur":"جبوتی","name:uz":"Jibuti","name:vi":"Djibouti","name:vo":"Cibutän","name:wo":"Jibuti","name:yi":"דזשיבוטי","name:yo":"Djibouti","name:zh":"吉布地市","name:zu":"IJibuthi","name:ace":"Djibouti","name:arz":"جيبوتي","name:ast":"Xibuti","name:azb":"جیبوتی","name:bcl":"Dibouti","name:bjn":"Djibouti","name:bpy":"ডিজিবোটি","name:bxr":"Джибути","name:ceb":"Yibuti","name:ckb":"جیبووتی","name:crh":"Cibuti","name:diq":"Cibuti","name:ext":"Yibuti","name:frp":"Dj·iboti","name:gag":"Cibuti","name:hif":"Djibouti","name:hsb":"Dźibuti","name:ilo":"Djibouti","name:kab":"Jibuti","name:kmr":"جیبووتی","name:lij":"Gibuti","name:lmo":"Djibouti","name:lrc":"جیبۊتی","name:lzh":"吉布地","name:min":"Djibouti","name:mrj":"Джибути","name:mzn":"جیبوتی","name:nah":"Yibuti","name:nan":"Djibouti","name:nds":"Dschibuti","name:nov":"Djibuti","name:nso":"Djibouti","name:pam":"Djibouti","name:pdc":"Tschibuti","name:pih":"Jibuuti","name:pms":"Djibouti","name:pnb":"جبوتی","name:rue":"Джібутьско","name:sah":"Дьибути","name:scn":"Gibbuti","name:sco":"Djibouti","name:stq":"Dschibuti","name:udm":"Джибути","name:vec":"Gibuti","name:vro":"Djibouti","name:war":"Djibouti","name:xal":"Җибудин","name:yue":"吉布提","alt_name:ar":"دجبت;غإبت;جبت;جبوت;جيبوتي;جيبوتى;دجيبوتي;مدينة جيبوتي","name:simple":"Djibouti","name:bat-smg":"Džėbotis","name:kk-Arab":"دجىيبۋتىي","name:ku-Arab":"جیبووتی","name:kab-Arab":"جيبوتي"},"display_name":"Djibouti جيبوتي","address":{"city":"Djibouti جيبوتي","ISO3166-2-lvl4":"DJ-DJ","country":"Djibouti جيبوتي","country_code":"dj"},"population":475332,"osm_type":"node","osm_id":27565085,"type":"city","location":[43.1472724,11.5936903],"bbox":[42.9872724,11.4336903,43.3072724,11.7536903]}
{"name":"Ali Sabieh علي صبيح","other_names":{"name:ar":"علي صبيح","name:cs":"Ali Zabí","name:en":"Ali Sabieh","name:fr":"Ali Sabieh","name:ru":"Али-Сабих","name:so":"Cali Sabiix","alt_name":"`Ali Sabieh;Ali Sabiè;Ali Sabie;Ali Sabiet;‘Ali Sabîẖ;`Ali Sabih;‘Ali Sabieh;‘Ali Sabieh علي صبيح","alt_name:ar":"علي سبح","alt_name:en":"`Ali Sabih"},"display_name":"Ali Sabieh علي صبيح, Djibouti جيبوتي","address":{"town":"Ali Sabieh علي صبيح","state":"Ali Sabieh علي صبيح","ISO3166-2-lvl4":"DJ-AS","country":"Djibouti جيبوتي","country_code":"dj"},"population":71230,"osm_type":"way","osm_id":669411619,"type":"town","location":[42.7045067,11.1560462],"bbox":[42.6873187,11.1259283,42.7307887,11.1661685]}
{"name":"علي عدي","other_names":{"name:ar":"علي عدي","name:en":"Ali Adde","name:fr":"Ali Addé","alt_name":"علي أدي","alt_name:ar":"علي أدي","_place_alt_name":"`Ali `Adde;Aliadh;Ali Adda Courant;Ali Adda;Adi Adda;Ali Ada;‘Ali ‘Addé","_place_alt_name:ar":"علي أدي;أل أدّ;أد أدّ;أل أد;ألأذ","alt":"Ali Addeh علي عدي","alt:en":"`Ali `Adde","alt:fr":"Ali Addeh"},"display_name":"علي عدي, Ali Sabieh علي صبيح, Djibouti جيبوتي","address":{"town":"علي عدي","state":"Ali Sabieh علي صبيح","ISO3166-2-lvl4":"DJ-AS","country":"Djibouti جيبوتي","country_code":"dj"},"osm_type":"relation","osm_id":10012472,"type":"administrative","location":[42.8888582,11.1304774],"bbox":[42.8774768,11.1202621,42.9012969,11.1385605]}
{"name":"Holl-Holl هلهول","other_names":{"name:ar":"هلهول","name:en":"Holl-Holl","name:fr":"Holl-Holl","alt_name":"Hol Holl;Holl-Holl;Holhol","alt_name:ar":"هول هولّ;هولهول","alt_name:en":"Holhol"},"display_name":"Holl-Holl هلهول, Ali Sabieh علي صبيح, Djibouti جيبوتي","address":{"town":"Holl-Holl هلهول","state":"Ali Sabieh علي صبيح","ISO3166-2-lvl4":"DJ-AS","country":"Djibouti جيبوتي","country_code":"dj"},"osm_type":"relation","osm_id":10015689,"type":"administrative","location":[42.927777,11.3095718],"bbox":[42.8976141,11.2890777,42.9427687,11.3250161]}
{"name":"Dikhil دخيل","other_names":{"name:ar":"دخيل","name:be":"Дыхіл","name:da":"Dikhil","name:de":"Dikhil","name:el":"Ντικίλ","name:en":"Dikhil","name:et":"Dikhil","name:fa":"دخیل","name:fr":"Dikhil","name:id":"Dikhil","name:it":"Dikhil","name:ja":"ディキル","name:ka":"დიკილი","name:ko":"디킬","name:ks":"دخیل","name:lt":"Dikilis","name:nl":"Dikhil (stad)","name:pl":"Dikhil","name:ro":"Dikhil","name:ru":"Дикиль","name:sv":"Dikhil","name:tr":"Dikhil","name:ur":"دخیل","name:zh":"迪基勒","name:zu":"Dikhil","alt_name":"Dikil;Dikkil;Dicchil;Dicchil دخيل","name:azb":"دخیل","alt_name:ar":"دكل;دكّل"},"display_name":"دخيل, Dikhil دخيل, Djibouti جيبوتي","address":{"town":"دخيل","county":"Dikhil دخيل","state":"Dikhil دخيل","ISO3166-2-lvl4":"DJ-DI","country":"Djibouti جيبوتي","country_code":"dj"},"population":35000,"osm_type":"node","osm_id":316809239,"type":"town","location":[42.3687433,11.1071149],"bbox":[42.3287433,11.0671149,42.4087433,11.1471149]}
{"name":"Ali Sabieh علي صبيح","other_names":{"name:ar":"علي صبيح","name:cs":"Ali Zabí","name:en":"Ali Sabieh","name:fr":"Ali Sabieh","name:ru":"Али-Сабих","name:so":"Cali Sabiix","alt_name":"`Ali Sabieh;Ali Sabiè;Ali Sabie;Ali Sabiet;‘Ali Sabîẖ;`Ali Sabih;‘Ali Sabieh;‘Ali Sabieh علي صبيح","alt_name:ar":"علي سبح","alt_name:en":"`Ali Sabih"},"display_name":"Ali Sabieh علي صبيح, Djibouti جيبوتي","address":{"town":"Ali Sabieh علي صبيح","state":"Ali Sabieh علي صبيح","ISO3166-2-lvl4":"DJ-AS","country":"Djibouti جيبوتي","country_code":"dj"},"population":71230,"osm_type":"node","osm_id":316805035,"type":"town","location":[42.7045067,11.1560462],"bbox":[42.6645067,11.1160462,42.7445067,11.1960462]}
{"name":"Ali Addeh علي عدي","other_names":{"name:ar":"علي عدي","name:en":"`Ali `Adde","name:fr":"Ali Addeh","alt_name":"`Ali `Adde;Aliadh;Ali Adda Courant;Ali Adda;Adi Adda;Ali Ada;‘Ali ‘Addé","alt_name:ar":"علي أدي;أل أدّ;أد أدّ;أل أد;ألأذ"},"display_name":"علي عدي, Ali Sabieh علي صبيح, Djibouti جيبوتي","address":{"town":"علي عدي","state":"Ali Sabieh علي صبيح","ISO3166-2-lvl4":"DJ-AS","country":"Djibouti جيبوتي","country_code":"dj"},"osm_type":"node","osm_id":7577142263,"type":"town","location":[42.8888582,11.1304774],"bbox":[42.8488582,11.0904774,42.9288582,11.1704774]}
{"name":"Yoboki يوبوكي","other_names":{"name:ar":"يوبوكي","name:de":"Yoboki","name:en":"Yoboki","name:fa":"یوبوکی","name:fr":"Yoboki","name:sv":"Yoboki","name:ur":"یوبوکی","alt_name":"Yoboki","name:azb":"یوبوکی","alt_name:ar":"يوبوك"},"display_name":"Yoboki يوبوكي, Dikhil دخيل, Djibouti جيبوتي","address":{"town":"Yoboki يوبوكي","state":"Yoboki يوبوكي","country":"Djibouti جيبوتي","country_code":"dj"},"population":20644,"osm_type":"node","osm_id":316829724,"type":"town","location":[42.1037241,11.5081383],"bbox":[42.0637241,11.4681383,42.1437241,11.5481383]}
{"name":"Arta عرتا","other_names":{"name:ar":"عرتا","name:de":"Arta","name:en":"Arta","name:fa":"عرتا","name:fr":"Arta","name:ur":"عرتا","alt_name":"أرتا;ارتا;`Arta;‘Arta;‘Arta أرتا","alt_name:ar":"أرتا;ارتا;عرتا;عرت"},"display_name":"Arta عرتا, Djibouti جيبوتي","address":{"town":"Arta عرتا","state":"Arta عرتا","ISO3166-2-lvl4":"DJ-AR","country":"Djibouti جيبوتي","country_code":"dj"},"population":10275,"osm_type":"node","osm_id":838704777,"type":"town","location":[42.8393629,11.5219459],"bbox":[42.7993629,11.4819459,42.8793629,11.5619459]}
{"name":"Tadjoura تجرة","other_names":{"name:aa":"Tagórri","name:ar":"تجرة","name:de":"Tadschura","name:en":"Tadjoura","name:es":"Tadyura","name:fa":"تاجوره","name:fr":"Tadjourah","name:ru":"Таджура","name:so":"Tajuura","name:ur":"تاجورہ","alt_name":"Tagiura;Tajura;Tadjura;Tadjoura;Tadjoura تاجورة","alt_name:ar":"تاجورة;تدجور;تغإأر;تجر;تدجر"},"display_name":"Tadjoura تجرة, Tadjourah تجرة, Djibouti جيبوتي","address":{"town":"Tadjoura تجرة","county":"Tadjoura تجرة","state":"Tadjourah تجرة","ISO3166-2-lvl4":"DJ-TA","country":"Djibouti جيبوتي","country_code":"dj"},"population":25000,"osm_type":"node","osm_id":316808022,"type":"town","location":[42.8846543,11.7857101],"bbox":[42.8446543,11.7457101,42.9246543,11.8257101]}
{"name":"Holl-Holl هلهول","other_names":{"name:ar":"هلهول","name:en":"Holl-Holl","name:fr":"Holl-Holl","alt_name":"Hol Holl;Holl-Holl;Holhol","alt_name:ar":"هول هولّ;هولهول","alt_name:en":"Holhol"},"display_name":"Holl-Holl هلهول, Ali Sabieh علي صبيح, Djibouti جيبوتي","address":{"town":"Holl-Holl هلهول","state":"Ali Sabieh علي صبيح","ISO3166-2-lvl4":"DJ-AS","country":"Djibouti جيبوتي","country_code":"dj"},"osm_type":"node","osm_id":832062911,"type":"town","location":[42.927777,11.3095718],"bbox":[42.887777,11.2695718,42.967777,11.3495718]}
{"name":"Balbala بلبالا","other_names":{"name:ar":"بلبالا","name:fr":"Balbala"},"display_name":"Balbala بلبالا, Djibouti جيبوتي","address":{"town":"Balbala بلبالا","city":"Djibouti جيبوتي","ISO3166-2-lvl4":"DJ-DJ","country":"Djibouti جيبوتي","country_code":"dj"},"osm_type":"node","osm_id":3605170673,"type":"town","location":[43.112817,11.556014],"bbox":[43.072817,11.516014,43.152817,11.596014]}
{"name":"بالهو Balho","other_names":{"name:ar":"بالهو","name:en":"Balho","name:fr":"Balho","alt_name":"Balho","alt_name:ar":"بلهو"},"display_name":"بالهو Balho, Balha بالها, Tadjourah تجرة, Djibouti جيبوتي","address":{"town":"بالهو Balho","county":"Balha بالها","state":"Tadjourah تجرة","ISO3166-2-lvl4":"DJ-TA","country":"Djibouti جيبوتي","country_code":"dj"},"osm_type":"node","osm_id":316837942,"type":"town","location":[42.193992,12.059821],"bbox":[42.153992,12.019821,42.233992,12.099821]}
{"name":"Dorra درة","other_names":{"name:ar":"درة","name:en":"Dorra","name:fr":"Dorra","alt_name":"Dorra","alt_name:ar":"دورّ"},"display_name":"Dorra درة, Tadjourah تجرة, Djibouti جيبوتي","address":{"town":"Dorra درة","county":"Dorra درة","state":"Tadjourah تجرة","ISO3166-2-lvl4":"DJ-TA","country":"Djibouti جيبوتي","country_code":"dj"},"osm_type":"node","osm_id":316835311,"type":"town","location":[42.476494,12.149049],"bbox":[42.436494,12.109049,42.516494,12.189049]}
{"name":"Obock أبخ","other_names":{"name:ar":"أبخ","name:en":"Obock","name:fr":"Obock","alt_name":"Obok;Ubuk;Hayyou;Obok أوبوك","alt_name:ar":"أوبوك;أبخ;وبوك;هيّو","alt_name:en":"أوبوك"},"display_name":"Obock أبخ, Obock District إقليم أبخ, Obock أبخ, Djibouti جيبوتي","address":{"town":"Obock أبخ","county":"Obock District إقليم أبخ","state":"Obock أبخ","ISO3166-2-lvl4":"DJ-OB","country":"Djibouti جيبوتي","country_code":"dj"},"population":8500,"osm_type":"node","osm_id":316841441,"type":"town","location":[43.292228,11.9640149],"bbox":[43.252228,11.9240149,43.332228,12.0040149]}
{"name":"Kouta Bouyya کؤتا بؤیا","other_names":{"name:ar":"کؤتا بؤیا","name:en":"Kouta Bouyya","name:fr":"Kouta Bouyya"},"display_name":"Kouta Bouyya کؤتا بؤیا, As Eiya ايلى, Dikhil دخيل, Djibouti جيبوتي","address":{"village":"Kouta Bouyya کؤتا بؤیا","county":"As Eiya ايلى","state":"Dikhil دخيل","ISO3166-2-lvl4":"DJ-DI","country":"Djibouti جيبوتي","country_code":"dj"},"osm_type":"way","osm_id":420561508,"type":"village","location":[41.96017645208791,11.021658949999999],"bbox":[41.954231,11.0179267,41.9707287,11.0253292]}
{"name":"Mouloud","other_names":{"name:ar":"مولود","name:fr":"Mouloud"},"display_name":"Mouloud, Dikhil دخيل, Djibouti جيبوتي","address":{"village":"Mouloud","county":"Dikhil دخيل","state":"Dikhil دخيل","ISO3166-2-lvl4":"DJ-DI","country":"Djibouti جيبوتي","country_code":"dj"},"osm_type":"way","osm_id":619856754,"type":"village","location":[42.50330303609709,11.16300215],"bbox":[42.4969993,11.1588037,42.5106083,11.1672948]}
{"name":"As-Eyla","display_name":"As-Eyla, As Eiya ايلى, Dikhil دخيل, Djibouti جيبوتي","address":{"village":"As-Eyla","county":"As Eiya ايلى","state":"Dikhil دخيل","ISO3166-2-lvl4":"DJ-DI","country":"Djibouti جيبوتي","country_code":"dj"},"osm_type":"way","osm_id":664685224,"type":"village","location":[42.105067906246354,11.006903650000002],"bbox":[42.098279,11.0013285,42.1140772,11.0127657]}
{"name":"Guelile غليل","other_names":{"name:ar":"غليل","name:fr":"Guelile"},"display_name":"Guelile غليل, Ali Sabieh علي صبيح, Djibouti جيبوتي","address":{"village":"Guelile غليل","state":"Ali Sabieh علي صبيح","ISO3166-2-lvl4":"DJ-AS","country":"Djibouti جيبوتي","country_code":"dj"},"osm_type":"way","osm_id":266599888,"type":"village","location":[42.647546,11.092754],"bbox":[42.6469408,11.0918141,42.6505217,11.0965029]}
{"name":"Ali Addeh قرية علي أدي","other_names":{"name:ar":"قرية علي أدي","name:en":"Ali Addeh village","name:fr":"Ali Addeh","alt_name":"قرية علي عدي","alt_name:ar":"قرية علي عدي"},"display_name":"Ali Addeh قرية علي أدي, علي عدي, Ali Sabieh علي صبيح, Djibouti جيبوتي","address":{"village":"Ali Addeh قرية علي أدي","town":"علي عدي","state":"Ali Sabieh علي صبيح","ISO3166-2-lvl4":"DJ-AS","country":"Djibouti جيبوتي","country_code":"dj"},"osm_type":"way","osm_id":399994375,"type":"village","location":[42.891143787537644,11.1332115],"bbox":[42.8890987,11.1310647,42.8922229,11.135174]}
{"name":"Karta كارتا","other_names":{"name:ar":"كارتا","name:de":"Karta","name:en":"Karta","name:fr":"Karta"},"display_name":"Karta كارتا, Arta عرتا, Djibouti جيبوتي","address":{"village":"Karta كارتا","state":"Arta عرتا","ISO3166-2-lvl4":"DJ-AR","country":"Djibouti جيبوتي","country_code":"dj"},"osm_type":"way","osm_id":209501849,"type":"village","location":[42.55890853889467,11.44994965],"bbox":[42.5558479,11.4487034,42.5602253,11.4513456]}
{"name":"Boubâ","display_name":"Boubâ, Dorra درة, Tadjourah تجرة, Djibouti جيبوتي","address":{"village":"Boubâ","county":"Dorra درة","state":"Tadjourah تجرة","ISO3166-2-lvl4":"DJ-TA","country":"Djibouti جيبوتي","country_code":"dj"},"osm_type":"way","osm_id":821644295,"type":"village","location":[42.40890126617739,12.3009629],"bbox":[42.4078651,12.3000103,42.4100135,12.3021723]}
{"display_name":"Alaili Dadda علايلي دادا, Obock أبخ, Djibouti جيبوتي","address":{"county":"Alaili Dadda علايلي دادا","state":"Obock أبخ","ISO3166-2-lvl4":"DJ-OB","country":"Djibouti جيبوتي","country_code":"dj"},"osm_type":"way","osm_id":479626779,"type":"village","location":[43.15099203944435,12.649731599999999],"bbox":[43.1499348,12.6483977,43.152382,12.6510538]}
{"display_name":"Dorra درة, Tadjourah تجرة, Djibouti جيبوتي","address":{"county":"Dorra درة","state":"Tadjourah تجرة","ISO3166-2-lvl4":"DJ-TA","country":"Djibouti جيبوتي","country_code":"dj"},"osm_type":"relation","osm_id":11259870,"type":"village","location":[42.45814325230371,12.410860150000001],"bbox":[42.4576971,12.410331,42.4586922,12.4115124]}
{"name":"Dorra درة","other_names":{"name:ar":"درة","name:fr":"Dorra","name:en":"Dorra","alt_name":"Dorra","alt_name:ar":"دورّ"},"display_name":"Dorra درة, Tadjourah تجرة, Djibouti جيبوتي","address":{"town":"Dorra درة","county":"Dorra درة","state":"Tadjourah تجرة","ISO3166-2-lvl4":"DJ-TA","country":"Djibouti جيبوتي","country_code":"dj"},"osm_type":"way","osm_id":336956227,"type":"village","location":[42.476494,12.149049],"bbox":[42.4746584,12.1472929,42.4779713,12.1533592]}
{"name":"As Êla ايلى","other_names":{"name:ar":"ايلى","name:de":"As Eyla","name:en":"As Eyla","name:fa":"آس ایلا","name:fr":"As Eyla","name:ru":"Ас-Эла","name:ur":"ايلى","name:zu":"As Eyla","alt_name":"`As `Ela;Ass’èyla;Ass'eyla;Airoli;Assa-ela;‘As ‘Êla","alt_name:ar":"أرول"},"display_name":"As Êla ايلى, As Eiya ايلى, Dikhil دخيل, Djibouti جيبوتي","address":{"village":"As Êla ايلى","county":"As Eiya ايلى","state":"Dikhil دخيل","ISO3166-2-lvl4":"DJ-DI","country":"Djibouti جيبوتي","country_code":"dj"},"osm_type":"node","osm_id":2199539115,"type":"village","location":[42.1039683,11.0065367],"bbox":[42.0839683,10.9865367,42.1239683,11.0265367]}
{"name":"Koûta Boûyya کؤتا بؤیا","other_names":{"name:ar":"كوتا بويا","name:en":"Kouta Bouyya","name:fr":"Kouta Bouyya","alt_name":"Kouta Bouyya;Koûta Boûyya"},"display_name":"Koûta Boûyya کؤتا بؤیا, As Eiya ايلى, Dikhil دخيل, Djibouti جيبوتي","address":{"village":"Koûta Boûyya کؤتا بؤیا","county":"As Eiya ايلى","state":"Dikhil دخيل","ISO3166-2-lvl4":"DJ-DI","country":"Djibouti جيبوتي","country_code":"dj"},"osm_type":"node","osm_id":4911691502,"type":"village","location":[41.974485,11.017738],"bbox":[41.954485,10.997738,41.994485,11.037738]}
{"name":"سانكال","other_names":{"name:ar":"سانكال","name:fr":"Sancal"},"display_name":"سانكال, As Eiya ايلى, Dikhil دخيل, Djibouti جيبوتي","address":{"village":"سانكال","county":"As Eiya ايلى","state":"Dikhil دخيل","ISO3166-2-lvl4":"DJ-DI","country":"Djibouti جيبوتي","country_code":"dj"},"osm_type":"node","osm_id":4906992480,"type":"village","location":[42.1490434,11.007034],"bbox":[42.1290434,10.987034,42.1690434,11.027034]}
{"name":"Sankal","display_name":"Sankal, As Eiya ايلى, Dikhil دخيل, Djibouti جيبوتي","address":{"village":"Sankal","county":"As Eiya ايلى","state":"Dikhil دخيل","ISO3166-2-lvl4":"DJ-DI","country":"Djibouti جيبوتي","country_code":"dj"},"osm_type":"node","osm_id":7508093502,"type":"village","location":[42.201368,10.9739286],"bbox":[42.181368,10.9539286,42.221368,10.9939286]}
{"name":"Bondara بندارة","other_names":{"name:ar":"بندارة","name:fr":"Bondara"},"display_name":"Bondara بندارة, Dikhil دخيل, Djibouti جيبوتي","address":{"village":"Bondara بندارة","county":"Dikhil دخيل","state":"Dikhil دخيل","ISO3166-2-lvl4":"DJ-DI","country":"Djibouti جيبوتي","country_code":"dj"},"osm_type":"node","osm_id":7508482237,"type":"village","location":[42.3369628,11.018893],"bbox":[42.3169628,10.998893,42.3569628,11.038893]}
{"name":"Mouloud - مولود","other_names":{"name:ar":"مولود","name:en":"Moulud Village","name:fr":"Mouloud"},"display_name":"Mouloud - مولود, Dikhil دخيل, Djibouti جيبوتي","address":{"village":"Mouloud - مولود","county":"Dikhil دخيل","state":"Dikhil دخيل","ISO3166-2-lvl4":"DJ-DI","country":"Djibouti جيبوتي","country_code":"dj"},"osm_type":"node","osm_id":1150669027,"type":"village","location":[42.5044449,11.1632078],"bbox":[42.4844449,11.1432078,42.5244449,11.1832078]}
{"display_name":"Ali Sabieh علي صبيح, Djibouti جيبوتي","address":{"state":"Ali Sabieh علي صبيح","ISO3166-2-lvl4":"DJ-AS","country":"Djibouti جيبوتي","country_code":"dj"},"osm_type":"node","osm_id":3750680648,"type":"village","location":[42.8457313,11.0527642],"bbox":[42.8257313,11.0327642,42.8657313,11.0727642]}
{"name":"Guelile غليل","other_names":{"name:ar":"غليل","name:fr":"Guelile"},"display_name":"Guelile غليل, Ali Sabieh علي صبيح, Djibouti جيبوتي","address":{"village":"Guelile غليل","state":"Ali Sabieh علي صبيح","ISO3166-2-lvl4":"DJ-AS","country":"Djibouti جيبوتي","country_code":"dj"},"osm_type":"node","osm_id":2721309173,"type":"village","location":[42.647546,11.092754],"bbox":[42.627546,11.072754,42.667546,11.112754]}
{"name":"Assamo أسامو","other_names":{"name:ar":"أسامو","name:en":"Assamo","name:fr":"Assamo","alt_name":"`Asamo;Vasama;Ina ‘Assamo;Ina `Assamo;‘Asâmo","alt_name:ar":"إن عسّمو"},"display_name":"Assamo أسامو, Ali Sabieh علي صبيح, Djibouti جيبوتي","address":{"village":"Assamo أسامو","state":"Ali Sabieh علي صبيح","ISO3166-2-lvl4":"DJ-AS","country":"Djibouti جيبوتي","country_code":"dj"},"osm_type":"node","osm_id":2541047577,"type":"village","location":[42.834799,10.983323],"bbox":[42.814799,10.963323,42.854799,11.003323]}
{"name":"Doudoub Bolole - بلول دودوب","other_names":{"name:ar":"بلول دودوب","name:fr":"Doudoub Bolole"},"display_name":"Doudoub Bolole - بلول دودوب, Ali Sabieh علي صبيح, Djibouti جيبوتي","address":{"village":"Doudoub Bolole - بلول دودوب","state":"Ali Sabieh علي صبيح","ISO3166-2-lvl4":"DJ-AS","country":"Djibouti جيبوتي","country_code":"dj"},"osm_type":"node","osm_id":4911691506,"type":"village","location":[42.6443319,11.2153974],"bbox":[42.6243319,11.1953974,42.6643319,11.2353974]}
{"name":"كيستر Guistir","other_names":{"name:ar":"كيستر","name:en":"Guistir","name:fr":"Guistir","name:ar1":"جويستي"},"display_name":"كيستر Guistir, Ali Sabieh علي صبيح, Djibouti جيبوتي","address":{"village":"كيستر Guistir","state":"Ali Sabieh علي صبيح","ISO3166-2-lvl4":"DJ-AS","country":"Djibouti جيبوتي","country_code":"dj"},"osm_type":"node","osm_id":2541044186,"type":"village","location":[42.9612162,11.014034],"bbox":[42.9412162,10.994034,42.9812162,11.034034]}
{"name":"Ḏânan دہان","other_names":{"name:en":"Danan","name:fr":"Danan","name:ur":"دہان","alt_name":"Danan"},"display_name":"Ḏânan دہان, Ali Sabieh علي صبيح, Djibouti جيبوتي","address":{"village":"Ḏânan دہان","state":"Ali Sabieh علي صبيح","ISO3166-2-lvl4":"DJ-AS","country":"Djibouti جيبوتي","country_code":"dj"},"osm_type":"node","osm_id":7733100964,"type":"village","location":[42.933333,11.183333],"bbox":[42.913333,11.163333,42.953333,11.203333]}
{"display_name":"Ali Sabieh علي صبيح, Djibouti جيبوتي","address":{"state":"Ali Sabieh علي صبيح","ISO3166-2-lvl4":"DJ-AS","country":"Djibouti جيبوتي","country_code":"dj"},"osm_type":"node","osm_id":3196591594,"type":"village","location":[42.9882512,11.2268459],"bbox":[42.9682512,11.2068459,43.0082512,11.2468459]}
{"name":"Dagguîrou داغويرو","other_names":{"name:ar":"داغويرو","name:fr":"Dagguîrou"},"display_name":"Dagguîrou داغويرو, Yoboki يوبوكي, Dikhil دخيل, Djibouti جيبوتي","address":{"village":"Dagguîrou داغويرو","state":"Yoboki يوبوكي","country":"Djibouti جيبوتي","country_code":"dj"},"osm_type":"node","osm_id":4911691509,"type":"village","location":[41.9662761,11.61262],"bbox":[41.9462761,11.59262,41.9862761,11.63262]}
{"name":"Tewao تيو","other_names":{"name:ar":"تيو","name:en":"Tew`o","name:fr":"Tewao","alt_name":"Tew`o;Teoao;Tewao;Tew‘o"},"display_name":"Tewao تيو, Yoboki يوبوكي, Dikhil دخيل, Djibouti جيبوتي","address":{"village":"Tewao تيو","state":"Yoboki يوبوكي","country":"Djibouti جيبوتي","country_code":"dj"},"osm_type":"node","osm_id":4906966606,"type":"village","location":[42.0656605,11.4283682],"bbox":[42.0456605,11.4083682,42.0856605,11.4483682]}
{"name":"Galafi غالافي","other_names":{"name:ar":"غالافي","name:de":"Galafi","name:en":"Galafi","name:fa":"غالافی","name:fr":"Galafi","name:sv":"Galafi","name:ur":"غالافی","alt_name":"Galafi;Gâlâfi","name:azb":"غالافی"},"display_name":"Galafi غالافي, Yoboki يوبوكي, Dikhil دخيل, Djibouti جيبوتي","address":{"village":"Galafi غالافي","state":"Yoboki يوبوكي","country":"Djibouti جيبوتي","country_code":"dj"},"population":1849,"osm_type":"node","osm_id":2207998523,"type":"village","location":[41.8374144,11.7170364],"bbox":[41.8174144,11.6970364,41.8574144,11.7370364]}
{"name":"Gour A'Bbous غور آبوس","other_names":{"name:ar":"غور آبوس","name:en":"Gour A'Bbous","name:fr":"Gour A'Bbous","alt_name":"غورابو","alt_name:ar":"غورابو"},"display_name":"Gour A'Bbous غور آبوس, Yoboki يوبوكي, Dikhil دخيل, Djibouti جيبوتي","address":{"village":"Gour A'Bbous غور آبوس","state":"Yoboki يوبوكي","country":"Djibouti جيبوتي","country_code":"dj"},"osm_type":"node","osm_id":1150669030,"type":"village","location":[42.2220402,11.2891803],"bbox":[42.2020402,11.2691803,42.2420402,11.3091803]}
{"name":"Daasbiyo دعسبيو","other_names":{"name:ar":"دعسبيو","name:fr":"Daasbiyo"},"display_name":"Daasbiyo دعسبيو, Ali Sabieh علي صبيح, Djibouti جيبوتي","address":{"village":"Daasbiyo دعسبيو","state":"Ali Sabieh علي صبيح","ISO3166-2-lvl4":"DJ-AS","country":"Djibouti جيبوتي","country_code":"dj"},"osm_type":"node","osm_id":832062797,"type":"village","location":[42.7999121,11.2531667],"bbox":[42.7799121,11.2331667,42.8199121,11.2731667]}
{"name":"Koussour كوسور","other_names":{"name:ar":"كوسور","name:en":"Koussour","name:fr":"Koussour"},"display_name":"Koussour كوسور, Arta عرتا, Djibouti جيبوتي","address":{"village":"Koussour كوسور","state":"Arta عرتا","ISO3166-2-lvl4":"DJ-AR","country":"Djibouti جيبوتي","country_code":"dj"},"osm_type":"node","osm_id":4911691503,"type":"village","location":[42.4087133,11.5193028],"bbox":[42.3887133,11.4993028,42.4287133,11.5393028]}
{"display_name":"Arta عرتا, Djibouti جيبوتي","address":{"state":"Arta عرتا","ISO3166-2-lvl4":"DJ-AR","country":"Djibouti جيبوتي","country_code":"dj"},"osm_type":"node","osm_id":2210951388,"type":"village","location":[42.7620004,11.4217984],"bbox":[42.7420004,11.4017984,42.7820004,11.4417984]}
{"name":"Ouéah وع","other_names":{"name:ar":"وع","name:en":"Ouea","name:fr":"Ouéah","alt_name":"Gué'a;Oue`a;Wê‘a;We`a;Ouê‘a","alt_name:en":"Oue`a"},"display_name":"Ouéah وع, Arta عرتا, Djibouti جيبوتي","address":{"village":"Ouéah وع","state":"Arta عرتا","ISO3166-2-lvl4":"DJ-AR","country":"Djibouti جيبوتي","country_code":"dj"},"population":5000,"osm_type":"node","osm_id":1150669033,"type":"village","location":[42.8612734,11.5021556],"bbox":[42.8412734,11.4821556,42.8812734,11.5221556]}
{"name":"Koulayyou كولايو","other_names":{"name:ar":"كولايو","name:fr":"Koulayyou"},"display_name":"Koulayyou كولايو, Balha بالها, Tadjourah تجرة, Djibouti جيبوتي","address":{"village":"Koulayyou كولايو","county":"Balha بالها","state":"Tadjourah تجرة","ISO3166-2-lvl4":"DJ-TA","country":"Djibouti جيبوتي","country_code":"dj"},"osm_type":"node","osm_id":5015600117,"type":"village","location":[42.4029816,11.9164546],"bbox":[42.3829816,11.8964546,42.4229816,11.9364546]}
{"name":"غارابتيسان Garabtisan","other_names":{"name:ar":"غارابتيسان","name:fr":"Garabtisan"},"display_name":"غارابتيسان Garabtisan, Balha بالها, Tadjourah تجرة, Djibouti جيبوتي","address":{"village":"غارابتيسان Garabtisan","county":"Balha بالها","state":"Tadjourah تجرة","ISO3166-2-lvl4":"DJ-TA","country":"Djibouti جيبوتي","country_code":"dj"},"osm_type":"node","osm_id":4327915070,"type":"village","location":[42.2800642,11.9094284],"bbox":[42.2600642,11.8894284,42.3000642,11.9294284]}
{"name":"وع Ouêa","other_names":{"name:ar":"وع","name:de":"Oueah","name:en":"Oue`a","name:fa":"وع","name:fr":"Oueah","name:it":"We`a","name:ru":"Вея","name:sv":"Ouê‘a","alt_name":"Oue`a;Wê‘a;We`a;Ouê‘a"},"display_name":"وع Ouêa, Tadjoura تجرة, Tadjourah تجرة, Djibouti جيبوتي","address":{"village":"وع Ouêa","county":"Tadjoura تجرة","state":"Tadjourah تجرة","ISO3166-2-lvl4":"DJ-TA","country":"Djibouti جيبوتي","country_code":"dj"},"osm_type":"node","osm_id":2538066803,"type":"village","location":[42.6893886,11.6809364],"bbox":[42.6693886,11.6609364,42.7093886,11.7009364]}
{"name":"Adali أدالي","other_names":{"name:ar":"أدالي","name:fr":"Adali"},"display_name":"Adali أدالي, Tadjoura تجرة, Tadjourah تجرة, Djibouti جيبوتي","address":{"village":"Adali أدالي","county":"Tadjoura تجرة","state":"Tadjourah تجرة","ISO3166-2-lvl4":"DJ-TA","country":"Djibouti جيبوتي","country_code":"dj"},"osm_type":"node","osm_id":7658968015,"type":"village","location":[42.6755233,11.6380211],"bbox":[42.6555233,11.6180211,42.6955233,11.6580211]}
{"name":"Garenlhé غارنلهي","other_names":{"name:ar":"غارنلهي","name:fr":"Garenlhé"},"display_name":"Garenlhé غارنلهي, راندا Randa, Tadjourah تجرة, Djibouti جيبوتي","address":{"village":"Garenlhé غارنلهي","county":"راندا Randa","state":"Tadjourah تجرة","ISO3166-2-lvl4":"DJ-TA","country":"Djibouti جيبوتي","country_code":"dj"},"osm_type":"node","osm_id":2164654516,"type":"village","location":[42.6017417,11.7153173],"bbox":[42.5817417,11.6953173,42.6217417,11.7353173]}
{"name":"Itki إتكي","other_names":{"name:ar":"إتكي","name:fr":"Itki"},"display_name":"Itki إتكي, راندا Randa, Tadjourah تجرة, Djibouti جيبوتي","address":{"village":"Itki إتكي","county":"راندا Randa","state":"Tadjourah تجرة","ISO3166-2-lvl4":"DJ-TA","country":"Djibouti جيبوتي","country_code":"dj"},"osm_type":"node","osm_id":2538056721,"type":"village","location":[42.6107309,11.7451286],"bbox":[42.5907309,11.7251286,42.6307309,11.7651286]}
{"name":"Galina","display_name":"Galina, Balha بالها, Tadjourah تجرة, Djibouti جيبوتي","address":{"village":"Galina","county":"Balha بالها","state":"Tadjourah تجرة","ISO3166-2-lvl4":"DJ-TA","country":"Djibouti جيبوتي","country_code":"dj"},"osm_type":"node","osm_id":6842694497,"type":"village","location":[42.5846779,11.6993805],"bbox":[42.5646779,11.6793805,42.6046779,11.7193805]}
{"name":"Diyara ديارا","other_names":{"name:ar":"ديارا","name:fr":"Diyara"},"display_name":"Diyara ديارا, Tadjoura تجرة, Tadjourah تجرة, Djibouti جيبوتي","address":{"village":"Diyara ديارا","county":"Tadjoura تجرة","state":"Tadjourah تجرة","ISO3166-2-lvl4":"DJ-TA","country":"Djibouti جيبوتي","country_code":"dj"},"osm_type":"node","osm_id":2542695732,"type":"village","location":[42.6679757,11.7560065],"bbox":[42.6479757,11.7360065,42.6879757,11.7760065]}
{"name":"Sagallou ساغلو","other_names":{"name:ar":"ساغلو‎","name:en":"Sagallo","name:fr":"Sagallou","name:ru":"Сагалло","alt_name":"سكالو","alt_name:ar":"سكالو"},"display_name":"Sagallou ساغلو, Tadjoura تجرة, Tadjourah تجرة, Djibouti جيبوتي","address":{"village":"Sagallou ساغلو","county":"Tadjoura تجرة","state":"Tadjourah تجرة","ISO3166-2-lvl4":"DJ-TA","country":"Djibouti جيبوتي","country_code":"dj"},"osm_type":"node","osm_id":2533969705,"type":"village","location":[42.7341999,11.6715637],"bbox":[42.7141999,11.6515637,42.7541999,11.6915637]}
{"name":"Kalaf كلف","other_names":{"name:ar":"كلف","name:de":"Kalaf","name:en":"Kalaf","name:es":"Kalaf","name:fr":"Kalaf","alt_name":"كالاف","alt_name:ar":"كالاف"},"display_name":"Kalaf كلف, Tadjoura تجرة, Tadjourah تجرة, Djibouti جيبوتي","address":{"village":"Kalaf كلف","county":"Tadjoura تجرة","state":"Tadjourah تجرة","ISO3166-2-lvl4":"DJ-TA","country":"Djibouti جيبوتي","country_code":"dj"},"osm_type":"node","osm_id":2537547510,"type":"village","location":[42.7909091,11.7588683],"bbox":[42.7709091,11.7388683,42.8109091,11.7788683]}
{"name":"Day دي","other_names":{"name:ar":"دي","name:fr":"Day"},"display_name":"Day دي, راندا Randa, Tadjourah تجرة, Djibouti جيبوتي","address":{"village":"Day دي","county":"راندا Randa","state":"Tadjourah تجرة","ISO3166-2-lvl4":"DJ-TA","country":"Djibouti جيبوتي","country_code":"dj"},"osm_type":"node","osm_id":2164655563,"type":"village","location":[42.6395773,11.7843104],"bbox":[42.6195773,11.7643104,42.6595773,11.8043104]}
{"name":"Ambabo أمبابو","other_names":{"name:ar":"أمبابو","name:de":"Ambabo","name:en":"Ambabbo","name:es":"Ambabo","name:fr":"Imbabo","alt_name":"Ambabbo","alt_name:ar":"أمببّو","alt_name:de":"Imbabo","alt_name:es":"Imbabo"},"display_name":"Ambabo أمبابو, Tadjoura تجرة, Tadjourah تجرة, Djibouti جيبوتي","address":{"village":"Ambabo أمبابو","county":"Tadjoura تجرة","state":"Tadjourah تجرة","ISO3166-2-lvl4":"DJ-TA","country":"Djibouti جيبوتي","country_code":"dj"},"osm_type":"node","osm_id":4911691510,"type":"village","location":[42.8248682,11.7667805],"bbox":[42.8048682,11.7467805,42.8448682,11.7867805]}
{"name":"Adoïla أدئلا","other_names":{"name:ar":"أدئلا","name:en":"Adoyla","name:fr":"Adoïla"},"display_name":"Adoïla أدئلا, راندا Randa, Tadjourah تجرة, Djibouti جيبوتي","address":{"village":"Adoïla أدئلا","county":"راندا Randa","state":"Tadjourah تجرة","ISO3166-2-lvl4":"DJ-TA","country":"Djibouti جيبوتي","country_code":"dj"},"osm_type":"node","osm_id":2525084674,"type":"village","location":[42.6685431,11.9448043],"bbox":[42.6485431,11.9248043,42.6885431,11.9648043]}
{"name":"As Dora أس درة","other_names":{"name:ar":"أس درة","name:de":"As Dora","name:en":"As Dora","name:fr":"As Dora"},"display_name":"As Dora أس درة, راندا Randa, Tadjourah تجرة, Djibouti جيبوتي","address":{"village":"As Dora أس درة","county":"راندا Randa","state":"Tadjourah تجرة","ISO3166-2-lvl4":"DJ-TA","country":"Djibouti جيبوتي","country_code":"dj"},"osm_type":"node","osm_id":2527552029,"type":"village","location":[42.5858952,11.9477491],"bbox":[42.5658952,11.9277491,42.6058952,11.9677491]}
{"name":"Randa رندة","other_names":{"name:aa":"Sūrí Randá","name:ar":"رندة","name:de":"Randa","name:en":"Randa","name:fr":"Randa","name:ru":"Ранда","alt_name":"راندا;Randa","alt_name:ar":"راندا;رند"},"display_name":"Randa رندة, راندا Randa, Tadjourah تجرة, Djibouti جيبوتي","address":{"village":"Randa رندة","county":"راندا Randa","state":"Tadjourah تجرة","ISO3166-2-lvl4":"DJ-TA","country":"Djibouti جيبوتي","country_code":"dj"},"osm_type":"node","osm_id":316808512,"type":"village","location":[42.657682,11.848328],"bbox":[42.637682,11.828328,42.677682,11.868328]}
{"name":"Bankoualé بانكوالي","other_names":{"name:ar":"بانكوالي","name:en":"Bankouale","name:fr":"Bankoualé","alt_name":"Bankouale;Bankouwâle;Bankouwale;Bankoualé"},"display_name":"Bankoualé بانكوالي, راندا Randa, Tadjourah تجرة, Djibouti جيبوتي","address":{"village":"Bankoualé بانكوالي","county":"راندا Randa","state":"Tadjourah تجرة","ISO3166-2-lvl4":"DJ-TA","country":"Djibouti جيبوتي","country_code":"dj"},"osm_type":"node","osm_id":2541708266,"type":"village","location":[42.6743525,11.8230963],"bbox":[42.6543525,11.8030963,42.6943525,11.8430963]}
{"name":"Ardo أردو","other_names":{"name:ar":"أردو","name:fr":"Ardo"},"display_name":"Ardo أردو, راندا Randa, Tadjourah تجرة, Djibouti جيبوتي","address":{"village":"Ardo أردو","county":"راندا Randa","state":"Tadjourah تجرة","ISO3166-2-lvl4":"DJ-TA","country":"Djibouti جيبوتي","country_code":"dj"},"osm_type":"node","osm_id":2541711969,"type":"village","location":[42.6854372,11.822613],"bbox":[42.6654372,11.802613,42.7054372,11.842613]}
{"name":"Am'issoh af أم إيسو","other_names":{"name:ar":"أم إيسو","name:fr":"Am'issoh af"},"display_name":"Am'issoh af أم إيسو, راندا Randa, Tadjourah تجرة, Djibouti جيبوتي","address":{"village":"Am'issoh af أم إيسو","county":"راندا Randa","state":"Tadjourah تجرة","ISO3166-2-lvl4":"DJ-TA","country":"Djibouti جيبوتي","country_code":"dj"},"osm_type":"node","osm_id":5719346380,"type":"village","location":[42.7072556,11.836743],"bbox":[42.6872556,11.816743,42.7272556,11.856743]}
{"name":"Afalloïn'af","other_names":{"name:ar":"أفالوئنا","name:fr":"Afalloïna"},"display_name":"Afalloïn'af, Tadjoura تجرة, Tadjourah تجرة, Djibouti جيبوتي","address":{"village":"Afalloïn'af","county":"Tadjoura تجرة","state":"Tadjourah تجرة","ISO3166-2-lvl4":"DJ-TA","country":"Djibouti جيبوتي","country_code":"dj"},"osm_type":"node","osm_id":2541726111,"type":"village","location":[42.749667,11.8298271],"bbox":[42.729667,11.8098271,42.769667,11.8498271]}
{"name":"Dougoum دوغوم","other_names":{"name:ar":"دوغوم","name:fr":"Dougoum"},"display_name":"Dougoum دوغوم, Tadjoura تجرة, Tadjourah تجرة, Djibouti جيبوتي","address":{"village":"Dougoum دوغوم","county":"Tadjoura تجرة","state":"Tadjourah تجرة","ISO3166-2-lvl4":"DJ-TA","country":"Djibouti جيبوتي","country_code":"dj"},"osm_type":"node","osm_id":2527586943,"type":"village","location":[42.7436869,11.7971345],"bbox":[42.7236869,11.7771345,42.7636869,11.8171345]}
{"name":"أسا هوغود Assa Hougoub","other_names":{"name:ar":"أسا هوغود","name:en":"Assa Hougoub","name:fr":"Assa Hougoub"},"display_name":"أسا هوغود Assa Hougoub, Tadjoura تجرة, Tadjourah تجرة, Djibouti جيبوتي","address":{"village":"أسا هوغود Assa Hougoub","county":"Tadjoura تجرة","state":"Tadjourah تجرة","ISO3166-2-lvl4":"DJ-TA","country":"Djibouti جيبوتي","country_code":"dj"},"osm_type":"node","osm_id":2533978929,"type":"village","location":[42.8039871,11.7870305],"bbox":[42.7839871,11.7670305,42.8239871,11.8070305]}
{"name":"غوبتو Goubetto","other_names":{"name:ar":"غوبتو","name:en":"Goubetto","name:fr":"Goubetto","alt_name":"Goubetto;Goubatto;Goubétto","alt_name:ar":"غوبتّو"},"display_name":"غوبتو Goubetto, Ali Sabieh علي صبيح, Djibouti جيبوتي","address":{"village":"غوبتو Goubetto","state":"Ali Sabieh علي صبيح","ISO3166-2-lvl4":"DJ-AS","country":"Djibouti جيبوتي","country_code":"dj"},"osm_type":"node","osm_id":266678123,"type":"village","location":[42.999281,11.421515],"bbox":[42.979281,11.401515,43.019281,11.441515]}
{"name":"Chebele شابلي","other_names":{"name:ar":"شابلي","name:en":"Shabili","name:fr":"Chebele"},"display_name":"Chebele شابلي, Arta عرتا, Djibouti جيبوتي","address":{"village":"Chebele شابلي","state":"Arta عرتا","ISO3166-2-lvl4":"DJ-AR","country":"Djibouti جيبوتي","country_code":"dj"},"osm_type":"node","osm_id":831076771,"type":"village","location":[43.0750889,11.4902983],"bbox":[43.0550889,11.4702983,43.0950889,11.5102983]}
{"name":"داميرجوك Damerdjog","other_names":{"name:ar":"داميرجوك","name:en":"Damerdjog","name:fr":"Damerdjog","alt_name":"Damerdjog;Damêrdjôg"},"display_name":"داميرجوك Damerdjog, Arta عرتا, Djibouti جيبوتي","address":{"village":"داميرجوك Damerdjog","state":"Arta عرتا","ISO3166-2-lvl4":"DJ-AR","country":"Djibouti جيبوتي","country_code":"dj"},"osm_type":"node","osm_id":2197367692,"type":"village","location":[43.187748,11.486269],"bbox":[43.167748,11.466269,43.207748,11.506269]}
{"name":"Loyada لويعدا","other_names":{"name:ar":"لويعدا","name:de":"Loyada","name:en":"Loyada","name:fa":"لویادا","name:fr":"Loyada","name:it":"Loyada","name:ks":"لویعدا","name:pl":"Loyada","name:sv":"Loyada","name:ur":"لویادا","alt_name":"Loyi Ada;Loya Ada;La-waada;Loyada","name:azb":"لویادا","alt_name:ar":"لويادا;لاوياعادو;لوي أد;لويد"},"display_name":"Loyada لويعدا, Arta عرتا, Djibouti جيبوتي","address":{"village":"Loyada لويعدا","state":"Arta عرتا","ISO3166-2-lvl4":"DJ-AR","country":"Djibouti جيبوتي","country_code":"dj"},"osm_type":"node","osm_id":2211237137,"type":"village","location":[43.250489,11.461486],"bbox":[43.230489,11.441486,43.270489,11.481486]}
{"name":"Ripta ربتا","other_names":{"name:ar":"ربتا","name:fr":"Ripta"},"display_name":"Ripta ربتا, Tadjoura تجرة, Tadjourah تجرة, Djibouti جيبوتي","address":{"village":"Ripta ربتا","county":"Tadjoura تجرة","state":"Tadjourah تجرة","ISO3166-2-lvl4":"DJ-TA","country":"Djibouti جيبوتي","country_code":"dj"},"osm_type":"node","osm_id":2527990666,"type":"village","location":[42.9179346,11.8640934],"bbox":[42.8979346,11.8440934,42.9379346,11.8840934]}
{"name":"Nagâḏ نقاذ","other_names":{"name:ar":"نقاذ","name:de":"Nagad","name:en":"Nagad","name:fr":"Nagâḏ","alt_name":"ناقاد","alt_name:ar":"ناقاد"},"display_name":"Nagâḏ نقاذ, Arta عرتا, Djibouti جيبوتي","address":{"village":"Nagâḏ نقاذ","state":"Arta عرتا","ISO3166-2-lvl4":"DJ-AR","country":"Djibouti جيبوتي","country_code":"dj"},"osm_type":"node","osm_id":2197367689,"type":"village","location":[43.133683,11.5158811],"bbox":[43.113683,11.4958811,43.153683,11.5358811]}
{"name":"Daymoli ديملي","other_names":{"name:ar":"ديملي","name:fr":"Daymoli"},"display_name":"Daymoli ديملي, Tadjoura تجرة, Tadjourah تجرة, Djibouti جيبوتي","address":{"village":"Daymoli ديملي","county":"Tadjoura تجرة","state":"Tadjourah تجرة","ISO3166-2-lvl4":"DJ-TA","country":"Djibouti جيبوتي","country_code":"dj"},"osm_type":"node","osm_id":2527994674,"type":"village","location":[42.8987452,11.8662492],"bbox":[42.8787452,11.8462492,42.9187452,11.8862492]}
{"name":"Dallayi دلايي","other_names":{"name:ar":"دلايي","name:en":"Dallayi","name:fr":"Dallayi"},"display_name":"Dallayi دلايي, Obock District إقليم أبخ, Obock أبخ, Djibouti جيبوتي","address":{"village":"Dallayi دلايي","county":"Obock District إقليم أبخ","state":"Obock أبخ","ISO3166-2-lvl4":"DJ-OB","country":"Djibouti جيبوتي","country_code":"dj"},"osm_type":"node","osm_id":2525089481,"type":"village","location":[43.1362871,11.9080526],"bbox":[43.1162871,11.8880526,43.1562871,11.9280526]}
{"name":"Andaba","other_names":{"name:de":"Andaba","name:es":"Andaba"},"display_name":"Andaba, Dorra درة, Tadjourah تجرة, Djibouti جيبوتي","address":{"village":"Andaba","county":"Dorra درة","state":"Tadjourah تجرة","ISO3166-2-lvl4":"DJ-TA","country":"Djibouti جيبوتي","country_code":"dj"},"osm_type":"node","osm_id":2525008104,"type":"village","location":[42.4213492,12.264801],"bbox":[42.4013492,12.244801,42.4413492,12.284801]}
{"name":"Daïmoli","display_name":"Daïmoli, Dorra درة, Tadjourah تجرة, Djibouti جيبوتي","address":{"village":"Daïmoli","county":"Dorra درة","state":"Tadjourah تجرة","ISO3166-2-lvl4":"DJ-TA","country":"Djibouti جيبوتي","country_code":"dj"},"osm_type":"node","osm_id":2531783852,"type":"village","location":[42.2444799,12.2376182],"bbox":[42.2244799,12.2176182,42.2644799,12.2576182]}
{"name":"Akaré","display_name":"Akaré, Dorra درة, Tadjourah تجرة, Djibouti جيبوتي","address":{"village":"Akaré","county":"Dorra درة","state":"Tadjourah تجرة","ISO3166-2-lvl4":"DJ-TA","country":"Djibouti جيبوتي","country_code":"dj"},"osm_type":"node","osm_id":4143974989,"type":"village","location":[42.4400087,12.2724588],"bbox":[42.4200087,12.2524588,42.4600087,12.2924588]}
{"name":"Essalou إسالو","other_names":{"name:ar":"إسالو","name:de":"Essalou","name:en":"Essalou","name:fr":"Essalou"},"display_name":"Essalou إسالو, راندا Randa, Tadjourah تجرة, Djibouti جيبوتي","address":{"village":"Essalou إسالو","county":"راندا Randa","state":"Tadjourah تجرة","ISO3166-2-lvl4":"DJ-TA","country":"Djibouti جيبوتي","country_code":"dj"},"osm_type":"node","osm_id":2527554282,"type":"village","location":[42.6484984,11.9567956],"bbox":[42.6284984,11.9367956,42.6684984,11.9767956]}
{"name":"مودو Mouddo","other_names":{"name:ar":"مودو","name:en":"Mouddo","name:fr":"Mouddo","alt_name":"Mouddo;Moudo","alt_name:ar":"مودّو"},"display_name":"مودو Mouddo, Dorra درة, Tadjourah تجرة, Djibouti جيبوتي","address":{"village":"مودو Mouddo","county":"Dorra درة","state":"Tadjourah تجرة","ISO3166-2-lvl4":"DJ-TA","country":"Djibouti جيبوتي","country_code":"dj"},"osm_type":"node","osm_id":2527549571,"type":"village","location":[42.4395868,12.3009817],"bbox":[42.4195868,12.2809817,42.4595868,12.3209817]}
{"name":"Dabadoba","display_name":"Dabadoba, Dorra درة, Tadjourah تجرة, Djibouti جيبوتي","address":{"village":"Dabadoba","county":"Dorra درة","state":"Tadjourah تجرة","ISO3166-2-lvl4":"DJ-TA","country":"Djibouti جيبوتي","country_code":"dj"},"population":100,"osm_type":"node","osm_id":4143973666,"type":"village","location":[42.4417429,12.2759966],"bbox":[42.4217429,12.2559966,42.4617429,12.2959966]}
{"name":"Haka Tidbido","display_name":"Haka Tidbido, راندا Randa, Tadjourah تجرة, Djibouti جيبوتي","address":{"village":"Haka Tidbido","county":"راندا Randa","state":"Tadjourah تجرة","ISO3166-2-lvl4":"DJ-TA","country":"Djibouti جيبوتي","country_code":"dj"},"osm_type":"node","osm_id":2199192362,"type":"village","location":[42.6497356,12.1222165],"bbox":[42.6297356,12.1022165,42.6697356,12.1422165]}
{"name":"Assa-Gueyla أسا غايلا","other_names":{"name:ar":"أسا غايلا","name:fr":"Assa-Gueyla"},"display_name":"Assa-Gueyla أسا غايلا, راندا Randa, Tadjourah تجرة, Djibouti جيبوتي","address":{"village":"Assa-Gueyla أسا غايلا","county":"راندا Randa","state":"Tadjourah تجرة","ISO3166-2-lvl4":"DJ-TA","country":"Djibouti جيبوتي","country_code":"dj"},"osm_type":"node","osm_id":2527560590,"type":"village","location":[42.6385604,12.1940532],"bbox":[42.6185604,12.1740532,42.6585604,12.2140532]}
{"name":"Dafféinaitou","display_name":"Dafféinaitou, راندا Randa, Tadjourah تجرة, Djibouti جيبوتي","address":{"village":"Dafféinaitou","county":"راندا Randa","state":"Tadjourah تجرة","ISO3166-2-lvl4":"DJ-TA","country":"Djibouti جيبوتي","country_code":"dj"},"osm_type":"node","osm_id":2528906900,"type":"village","location":[42.7687865,12.0353292],"bbox":[42.7487865,12.0153292,42.7887865,12.0553292]}
{"name":"Guirrôri","display_name":"Guirrôri, راندا Randa, Tadjourah تجرة, Djibouti جيبوتي","address":{"village":"Guirrôri","county":"راندا Randa","state":"Tadjourah تجرة","ISO3166-2-lvl4":"DJ-TA","country":"Djibouti جيبوتي","country_code":"dj"},"osm_type":"node","osm_id":2537680746,"type":"village","location":[42.7932873,12.0644131],"bbox":[42.7732873,12.0444131,42.8132873,12.0844131]}
{"name":"Gourgour","display_name":"Gourgour, راندا Randa, Tadjourah تجرة, Djibouti جيبوتي","address":{"village":"Gourgour","county":"راندا Randa","state":"Tadjourah تجرة","ISO3166-2-lvl4":"DJ-TA","country":"Djibouti جيبوتي","country_code":"dj"},"osm_type":"node","osm_id":2537727732,"type":"village","location":[42.7961713,12.0926729],"bbox":[42.7761713,12.0726729,42.8161713,12.1126729]}
{"name":"Adaïlou أدائلو","other_names":{"name:ar":"أدائلو","name:de":"Adaïlou","name:en":"Adailou","name:fa":"ادایلو","name:fr":"Adaylou","name:ru":"Адэйлу","name:ur":"ادایلو"},"display_name":"Adaïlou أدائلو, راندا Randa, Tadjourah تجرة, Djibouti جيبوتي","address":{"village":"Adaïlou أدائلو","county":"راندا Randa","state":"Tadjourah تجرة","ISO3166-2-lvl4":"DJ-TA","country":"Djibouti جيبوتي","country_code":"dj"},"osm_type":"node","osm_id":2525083560,"type":"village","location":[42.7436814,11.9600353],"bbox":[42.7236814,11.9400353,42.7636814,11.9800353]}
{"name":"غيراري Gaoura","other_names":{"name:ar":"غيراري","name:en":"Gaoura","name:fr":"Gaoura"},"display_name":"غيراري Gaoura, راندا Randa, Tadjourah تجرة, Djibouti جيبوتي","address":{"village":"غيراري Gaoura","county":"راندا Randa","state":"Tadjourah تجرة","ISO3166-2-lvl4":"DJ-TA","country":"Djibouti جيبوتي","country_code":"dj"},"osm_type":"node","osm_id":2537680593,"type":"village","location":[42.7558727,12.010361],"bbox":[42.7358727,11.990361,42.7758727,12.030361]}
{"name":"Boudouni","display_name":"Boudouni, راندا Randa, Tadjourah تجرة, Djibouti جيبوتي","address":{"village":"Boudouni","county":"راندا Randa","state":"Tadjourah تجرة","ISO3166-2-lvl4":"DJ-TA","country":"Djibouti جيبوتي","country_code":"dj"},"osm_type":"node","osm_id":2537725520,"type":"village","location":[42.7897721,12.1525349],"bbox":[42.7697721,12.1325349,42.8097721,12.1725349]}
{"name":"Madgoul مدغول","other_names":{"name:ar":"مدغول","name:fr":"Madgoul"},"display_name":"Madgoul مدغول, Dorra درة, Tadjourah تجرة, Djibouti جيبوتي","address":{"village":"Madgoul مدغول","county":"Dorra درة","state":"Tadjourah تجرة","ISO3166-2-lvl4":"DJ-TA","country":"Djibouti جيبوتي","country_code":"dj"},"osm_type":"node","osm_id":4906992481,"type":"village","location":[42.481068,12.354686],"bbox":[42.461068,12.334686,42.501068,12.374686]}
{"name":"بويا Bouyya","other_names":{"name:ar":"بويا","name:en":"Bouyya","name:fr":"Bouyya"},"display_name":"بويا Bouyya, Dorra درة, Tadjourah تجرة, Djibouti جيبوتي","address":{"village":"بويا Bouyya","county":"Dorra درة","state":"Tadjourah تجرة","ISO3166-2-lvl4":"DJ-TA","country":"Djibouti جيبوتي","country_code":"dj"},"osm_type":"node","osm_id":2528125516,"type":"village","location":[42.358291,12.380962],"bbox":[42.338291,12.360962,42.378291,12.400962]}
{"name":"Sidiha Menguêla سيديها مانغيلا","other_names":{"name:ar":"سيديها مانغيلا","name:fr":"Sidiha Menguêla"},"display_name":"Sidiha Menguêla سيديها مانغيلا, Alaili Dadda علايلي دادا, Obock أبخ, Djibouti جيبوتي","address":{"village":"Sidiha Menguêla سيديها مانغيلا","county":"Alaili Dadda علايلي دادا","state":"Obock أبخ","ISO3166-2-lvl4":"DJ-OB","country":"Djibouti جيبوتي","country_code":"dj"},"osm_type":"node","osm_id":2533651224,"type":"village","location":[42.8571827,12.5446581],"bbox":[42.8371827,12.5246581,42.8771827,12.5646581]}
{"name":"Margoïta مارغويتا","other_names":{"name:ar":"مارغويتا","name:en":"Margoyta","name:fr":"Margoïta"},"display_name":"Margoïta مارغويتا, Dorra درة, Tadjourah تجرة, Djibouti جيبوتي","address":{"village":"Margoïta مارغويتا","county":"Dorra درة","state":"Tadjourah تجرة","ISO3166-2-lvl4":"DJ-TA","country":"Djibouti جيبوتي","country_code":"dj"},"osm_type":"node","osm_id":2535226949,"type":"village","location":[42.4582477,12.410657],"bbox":[42.4382477,12.390657,42.4782477,12.430657]}
{"name":"Daddato دادتو","other_names":{"name:ar":"دادتو","name:en":"Deda'-etu","name:fr":"Dadatto","alt_name":"Deda'-etu;Dadda’to;Dadda'to;Deda’-etu","alt_name:ar":"ددّأتو"},"display_name":"Daddato دادتو, Alaili Dadda علايلي دادا, Obock أبخ, Djibouti جيبوتي","address":{"village":"Daddato دادتو","county":"Alaili Dadda علايلي دادا","state":"Obock أبخ","ISO3166-2-lvl4":"DJ-OB","country":"Djibouti جيبوتي","country_code":"dj"},"osm_type":"node","osm_id":2527788697,"type":"village","location":[42.7110943,12.375239],"bbox":[42.6910943,12.355239,42.7310943,12.395239]}
{"name":"Garobâ غاروبا","other_names":{"name:ar":"غاروبا","name:fr":"Garobâ"},"display_name":"Garobâ غاروبا, Dorra درة, Tadjourah تجرة, Djibouti جيبوتي","address":{"village":"Garobâ غاروبا","county":"Dorra درة","state":"Tadjourah تجرة","ISO3166-2-lvl4":"DJ-TA","country":"Djibouti جيبوتي","country_code":"dj"},"population":50,"osm_type":"node","osm_id":4143917162,"type":"village","location":[42.4303581,12.3396355],"bbox":[42.4103581,12.3196355,42.4503581,12.3596355]}
{"name":"Adgueno","display_name":"Adgueno, Dorra درة, Tadjourah تجرة, Djibouti جيبوتي","address":{"village":"Adgueno","county":"Dorra درة","state":"Tadjourah تجرة","ISO3166-2-lvl4":"DJ-TA","country":"Djibouti جيبوتي","country_code":"dj"},"osm_type":"node","osm_id":2540898684,"type":"village","location":[42.4685839,12.5150693],"bbox":[42.4485839,12.4950693,42.4885839,12.5350693]}
{"name":"Garba Naba غاربا نبا","other_names":{"name:ar":"غاربا نبا","name:fr":"Garba Naba"},"display_name":"Garba Naba غاربا نبا, Tadjoura تجرة, Tadjourah تجرة, Djibouti جيبوتي","address":{"village":"Garba Naba غاربا نبا","county":"Tadjoura تجرة","state":"Tadjourah تجرة","ISO3166-2-lvl4":"DJ-TA","country":"Djibouti جيبوتي","country_code":"dj"},"osm_type":"node","osm_id":2556667882,"type":"village","location":[42.953302,11.9807324],"bbox":[42.933302,11.9607324,42.973302,12.0007324]}
{"name":"وادي Ouadi","other_names":{"name:ar":"وادي","name:en":"Waddi","name:fr":"Waddi"},"display_name":"وادي Ouadi, Obock District إقليم أبخ, Obock أبخ, Djibouti جيبوتي","address":{"village":"وادي Ouadi","county":"Obock District إقليم أبخ","state":"Obock أبخ","ISO3166-2-lvl4":"DJ-OB","country":"Djibouti جيبوتي","country_code":"dj"},"osm_type":"node","osm_id":2527625381,"type":"village","location":[43.0085222,12.136888],"bbox":[42.9885222,12.116888,43.0285222,12.156888]}
{"name":"Mêdého مديهو","other_names":{"name:ar":"مديهو","name:en":"Medeho","name:fr":"Mêdého","alt_name":"Medeho;Méé Dôho;Mee Doho;Médého"},"display_name":"Mêdého مديهو, Obock District إقليم أبخ, Obock أبخ, Djibouti جيبوتي","address":{"village":"Mêdého مديهو","county":"Obock District إقليم أبخ","state":"Obock أبخ","ISO3166-2-lvl4":"DJ-OB","country":"Djibouti جيبوتي","country_code":"dj"},"osm_type":"node","osm_id":2527623264,"type":"village","location":[43.025475,11.9733486],"bbox":[43.005475,11.9533486,43.045475,11.9933486]}
{"name":"Egahlou إغالو","other_names":{"name:ar":"إغالو","name:en":"Egahlou","name:fr":"Egahlou"},"display_name":"Egahlou إغالو, Obock District إقليم أبخ, Obock أبخ, Djibouti جيبوتي","address":{"village":"Egahlou إغالو","county":"Obock District إقليم أبخ","state":"Obock أبخ","ISO3166-2-lvl4":"DJ-OB","country":"Djibouti جيبوتي","country_code":"dj"},"osm_type":"node","osm_id":4911691505,"type":"village","location":[42.9375689,12.1232126],"bbox":[42.9175689,12.1032126,42.9575689,12.1432126]}
{"name":"أندالي Andoli","other_names":{"name:ar":"أندالي","name:en":"Andali","name:fr":"Andali"},"display_name":"أندالي Andoli, Alaili Dadda علايلي دادا, Obock أبخ, Djibouti جيبوتي","address":{"village":"أندالي Andoli","county":"Alaili Dadda علايلي دادا","state":"Obock أبخ","ISO3166-2-lvl4":"DJ-OB","country":"Djibouti جيبوتي","country_code":"dj"},"osm_type":"node","osm_id":2555235361,"type":"village","location":[42.9852198,12.495517],"bbox":[42.9652198,12.475517,43.0052198,12.515517]}
{"name":"Alaili Dadda علايلي دادا","other_names":{"name:ar":"علايلي دادا","name:de":"Alaili Dadda","name:en":"Alaili Dadda`","name:fa":"علایلی دادا","name:fr":"Alaili Dadda","name:hy":"Ալաիլի Դադա","name:it":"Alaili Dadda","name:pl":"Alaili Dadda","name:sv":"Alaili Dadda","name:tr":"Alaili Dadda","name:ur":"علایلی دادا","alt_name":"Alaili Dadda`;Alayli Ḏaḏḏa‘;Alayli Dadda`;Alaïli Ḏaḏḏa‘"},"display_name":"Alaili Dadda علايلي دادا, Obock أبخ, Djibouti جيبوتي","address":{"village":"Alaili Dadda علايلي دادا","county":"Alaili Dadda علايلي دادا","state":"Obock أبخ","ISO3166-2-lvl4":"DJ-OB","country":"Djibouti جيبوتي","country_code":"dj"},"osm_type":"node","osm_id":2527792569,"type":"village","location":[42.900997,12.407854],"bbox":[42.880997,12.387854,42.920997,12.427854]}
{"name":"لأسا Lahassa","other_names":{"name:ar":"لأسا","name:en":"Lahassa","name:fr":"Lahassa"},"display_name":"لأسا Lahassa, Obock District إقليم أبخ, Obock أبخ, Djibouti جيبوتي","address":{"village":"لأسا Lahassa","county":"Obock District إقليم أبخ","state":"Obock أبخ","ISO3166-2-lvl4":"DJ-OB","country":"Djibouti جيبوتي","country_code":"dj"},"osm_type":"node","osm_id":2932597462,"type":"village","location":[43.1884474,12.3618173],"bbox":[43.1684474,12.3418173,43.2084474,12.3818173]}
{"name":"Godorya قدريا","other_names":{"name:ar":"قدريا","name:fr":"Godorya"},"display_name":"Godorya قدريا, Obock District إقليم أبخ, Obock أبخ, Djibouti جيبوتي","address":{"village":"Godorya قدريا","county":"Obock District إقليم أبخ","state":"Obock أبخ","ISO3166-2-lvl4":"DJ-OB","country":"Djibouti جيبوتي","country_code":"dj"},"osm_type":"node","osm_id":2527702958,"type":"village","location":[43.4116737,12.1534053],"bbox":[43.3916737,12.1334053,43.4316737,12.1734053]}
{"name":"خور أنغار Khôr ‘Angar","other_names":{"name:ar":"خور أنغار","name:en":"Khor Angar","name:fr":"khor Angar village","alt_name":"Khor Angar;Angârou;Angarou;Khor-Anghar;Poste d’Anghor;Poste d'Anghor;Anghar;Khôr Angar","alt_name:ar":"أنغر"},"display_name":"خور أنغار Khôr ‘Angar, Obock District إقليم أبخ, Obock أبخ, Djibouti جيبوتي","address":{"village":"خور أنغار Khôr ‘Angar","county":"Obock District إقليم أبخ","state":"Obock أبخ","ISO3166-2-lvl4":"DJ-OB","country":"Djibouti جيبوتي","country_code":"dj"},"osm_type":"node","osm_id":2164655828,"type":"village","location":[43.3344999,12.3868588],"bbox":[43.3144999,12.3668588,43.3544999,12.4068588]}
{"name":"Bissidito بسيديتو","other_names":{"name:ar":"بسيديتو","name:fr":"Bissidito"},"display_name":"Bissidito بسيديتو, Alaili Dadda علايلي دادا, Obock أبخ, Djibouti جيبوتي","address":{"village":"Bissidito بسيديتو","county":"Alaili Dadda علايلي دادا","state":"Obock أبخ","ISO3166-2-lvl4":"DJ-OB","country":"Djibouti جيبوتي","country_code":"dj"},"osm_type":"node","osm_id":2534716941,"type":"village","location":[42.998745,12.6418517],"bbox":[42.978745,12.6218517,43.018745,12.6618517]}
{"name":"Fagal فغال","other_names":{"name:ar":"فغال","name:en":"Fagal","name:fr":"Fagal"},"display_name":"Fagal فغال, Obock District إقليم أبخ, Obock أبخ, Djibouti جيبوتي","address":{"village":"Fagal فغال","county":"Obock District إقليم أبخ","state":"Obock أبخ","ISO3166-2-lvl4":"DJ-OB","country":"Djibouti جيبوتي","country_code":"dj"},"osm_type":"node","osm_id":4911691504,"type":"village","location":[43.297632,12.4567819],"bbox":[43.277632,12.4367819,43.317632,12.4767819]}
{"name":"Moulhoulé مول هولة","other_names":{"name:ar":"مول هولة","name:en":"Moulhoule","name:fr":"Moulhoulé","alt_name":"Moulhoule;Moulhoulé"},"display_name":"Moulhoulé مول هولة, Alaili Dadda علايلي دادا, Obock أبخ, Djibouti جيبوتي","address":{"village":"Moulhoulé مول هولة","county":"Alaili Dadda علايلي دادا","state":"Obock أبخ","ISO3166-2-lvl4":"DJ-OB","country":"Djibouti جيبوتي","country_code":"dj"},"osm_type":"node","osm_id":2164655845,"type":"village","location":[43.1948949,12.5901432],"bbox":[43.1748949,12.5701432,43.2148949,12.6101432]}
{"name":"Kouta Bouyya - كوتا بويا","other_names":{"name:ar":"كوتا بويا","name:en":"Kouta Bouyya","name:fr":"Kouta Bouyya"},"display_name":"Kouta Bouyya - كوتا بويا, Koûta Boûyya کؤتا بؤیا, As Eiya ايلى, Dikhil دخيل, Djibouti جيبوتي","address":{"hamlet":"Kouta Bouyya - كوتا بويا","village":"Koûta Boûyya کؤتا بؤیا","county":"As Eiya ايلى","state":"Dikhil دخيل","ISO3166-2-lvl4":"DJ-DI","country":"Djibouti جيبوتي","country_code":"dj"},"osm_type":"way","osm_id":420561509,"type":"hamlet","location":[41.973895828090924,11.0182442],"bbox":[41.9729172,11.0174149,41.9753043,11.0190125]}
{"name":"Lé'Ado","display_name":"Lé'Ado, Yoboki يوبوكي, Dikhil دخيل, Djibouti جيبوتي","address":{"hamlet":"Lé'Ado","state":"Yoboki يوبوكي","country":"Djibouti جيبوتي","country_code":"dj"},"osm_type":"way","osm_id":420559553,"type":"hamlet","location":[41.8266130273923,11.25294815],"bbox":[41.825978,11.25228,41.8272494,11.2534006]}
{"display_name":"راندا Randa, Tadjourah تجرة, Djibouti جيبوتي","address":{"county":"راندا Randa","state":"Tadjourah تجرة","ISO3166-2-lvl4":"DJ-TA","country":"Djibouti جيبوتي","country_code":"dj"},"osm_type":"way","osm_id":410195109,"type":"hamlet","location":[42.65595020634843,11.80172185],"bbox":[42.6551472,11.8012952,42.6569416,11.8025265]}
{"name":"Cité Moumina","display_name":"Cité Moumina, Arta عرتا, Djibouti جيبوتي","address":{"hamlet":"Cité Moumina","state":"Arta عرتا","ISO3166-2-lvl4":"DJ-AR","country":"Djibouti جيبوتي","country_code":"dj"},"osm_type":"way","osm_id":209317363,"type":"hamlet","location":[42.4850676790016,11.52361745],"bbox":[42.4830579,11.5218014,42.4870876,11.5258787]}
{"name":"Vasama","other_names":{"name:en":"Vasama"},"display_name":"Vasama, Assamo أسامو, Ali Sabieh علي صبيح, Djibouti جيبوتي","address":{"hamlet":"Vasama","village":"Assamo أسامو","state":"Ali Sabieh علي صبيح","ISO3166-2-lvl4":"DJ-AS","country":"Djibouti جيبوتي","country_code":"dj"},"osm_type":"node","osm_id":7733100961,"type":"hamlet","location":[42.841245,10.98914],"bbox":[42.821245,10.96914,42.861245,11.00914]}
{"name":"هانله","other_names":{"name:ar":"هانله","name:de":"Hanle","name:en":"Hanle","name:fr":"Hanle"},"display_name":"هانله, Yoboki يوبوكي, Dikhil دخيل, Djibouti جيبوتي","address":{"hamlet":"هانله","state":"Yoboki يوبوكي","country":"Djibouti جيبوتي","country_code":"dj"},"osm_type":"node","osm_id":2515112104,"type":"hamlet","location":[42.0801531,11.3984841],"bbox":[42.0601531,11.3784841,42.1001531,11.4184841]}
{"name":"Agna أغنا","other_names":{"name:ar":"أغنا","name:de":"Agna","name:en":"Agna","name:fr":"Agna"},"display_name":"Agna أغنا, Yoboki يوبوكي, Dikhil دخيل, Djibouti جيبوتي","address":{"hamlet":"Agna أغنا","state":"Yoboki يوبوكي","country":"Djibouti جيبوتي","country_code":"dj"},"osm_type":"node","osm_id":2515112103,"type":"hamlet","location":[42.0246187,11.4301651],"bbox":[42.0046187,11.4101651,42.0446187,11.4501651]}
{"name":"Dadwayya","display_name":"Dadwayya, Yoboki يوبوكي, Dikhil دخيل, Djibouti جيبوتي","address":{"hamlet":"Dadwayya","state":"Yoboki يوبوكي","country":"Djibouti جيبوتي","country_code":"dj"},"osm_type":"node","osm_id":853271034,"type":"hamlet","location":[42.1389186,11.7672221],"bbox":[42.1189186,11.7472221,42.1589186,11.7872221]}
{"name":"شركة الملح للاستثمار","other_names":{"name:ar":"شركة الملح للاستثمار","name:en":"SALT Ivestment S.A.","name:fr":"SALT Ivestment S.A."},"display_name":"شركة الملح للاستثمار, Arta عرتا, Djibouti جيبوتي","address":{"hamlet":"شركة الملح للاستثمار","state":"Arta عرتا","ISO3166-2-lvl4":"DJ-AR","country":"Djibouti جيبوتي","country_code":"dj"},"osm_type":"node","osm_id":5719307597,"type":"hamlet","location":[42.5020763,11.5394145],"bbox":[42.4820763,11.5194145,42.5220763,11.5594145]}
{"name":"Ghoubet","display_name":"Ghoubet, Arta عرتا, Djibouti جيبوتي","address":{"hamlet":"Ghoubet","state":"Arta عرتا","ISO3166-2-lvl4":"DJ-AR","country":"Djibouti جيبوتي","country_code":"dj"},"osm_type":"node","osm_id":2199236861,"type":"hamlet","location":[42.4977187,11.5416095],"bbox":[42.4777187,11.5216095,42.5177187,11.5616095]}
{"display_name":"Arta عرتا, Djibouti جيبوتي","address":{"state":"Arta عرتا","ISO3166-2-lvl4":"DJ-AR","country":"Djibouti جيبوتي","country_code":"dj"},"osm_type":"node","osm_id":2195758683,"type":"hamlet","location":[42.4683943,11.5343274],"bbox":[42.4483943,11.5143274,42.4883943,11.5543274]}
{"name":"Ḏigri","other_names":{"name:en":"Digri","alt_name":"Digri;Ḏikri;Dikri"},"display_name":"Ḏigri, Ali Sabieh علي صبيح, Djibouti جيبوتي","address":{"hamlet":"Ḏigri","state":"Ali Sabieh علي صبيح","ISO3166-2-lvl4":"DJ-AS","country":"Djibouti جيبوتي","country_code":"dj"},"osm_type":"node","osm_id":7733100963,"type":"hamlet","location":[42.853333,11.2975],"bbox":[42.833333,11.2775,42.873333,11.3175]}
{"name":"Arta-Plage","display_name":"Arta-Plage, Arta عرتا, Djibouti جيبوتي","address":{"hamlet":"Arta-Plage","state":"Arta عرتا","ISO3166-2-lvl4":"DJ-AR","country":"Djibouti جيبوتي","country_code":"dj"},"osm_type":"node","osm_id":5718263123,"type":"hamlet","location":[42.8219966,11.5830105],"bbox":[42.8019966,11.5630105,42.8419966,11.6030105]}
{"display_name":"Arta عرتا, Djibouti جيبوتي","address":{"state":"Arta عرتا","ISO3166-2-lvl4":"DJ-AR","country":"Djibouti جيبوتي","country_code":"dj"},"osm_type":"node","osm_id":2197421099,"type":"hamlet","location":[42.3953639,11.6181156],"bbox":[42.3753639,11.5981156,42.4153639,11.6381156]}
{"display_name":"Arta عرتا, Djibouti جيبوتي","address":{"state":"Arta عرتا","ISO3166-2-lvl4":"DJ-AR","country":"Djibouti جيبوتي","country_code":"dj"},"osm_type":"node","osm_id":2197403207,"type":"hamlet","location":[42.7850635,11.4357932],"bbox":[42.7650635,11.4157932,42.8050635,11.4557932]}
{"display_name":"Tadjoura تجرة, Tadjourah تجرة, Djibouti جيبوتي","address":{"county":"Tadjoura تجرة","state":"Tadjourah تجرة","ISO3166-2-lvl4":"DJ-TA","country":"Djibouti جيبوتي","country_code":"dj"},"osm_type":"node","osm_id":2164654436,"type":"hamlet","location":[42.6024323,11.697219],"bbox":[42.5824323,11.677219,42.6224323,11.717219]}
{"name":"Airolaf","other_names":{"name:ar":"أرولف","name:en":"Airolaf"},"display_name":"Airolaf, راندا Randa, Tadjourah تجرة, Djibouti جيبوتي","address":{"hamlet":"Airolaf","county":"راندا Randa","state":"Tadjourah تجرة","ISO3166-2-lvl4":"DJ-TA","country":"Djibouti جيبوتي","country_code":"dj"},"osm_type":"node","osm_id":7733100965,"type":"hamlet","location":[42.651944,11.770278],"bbox":[42.631944,11.750278,42.671944,11.790278]}
{"display_name":"راندا Randa, Tadjourah تجرة, Djibouti جيبوتي","address":{"county":"راندا Randa","state":"Tadjourah تجرة","ISO3166-2-lvl4":"DJ-TA","country":"Djibouti جيبوتي","country_code":"dj"},"osm_type":"node","osm_id":2207949042,"type":"hamlet","location":[42.6201537,11.8131942],"bbox":[42.6001537,11.7931942,42.6401537,11.8331942]}
{"name":"Doulloul","display_name":"Doulloul, Tadjoura تجرة, Tadjourah تجرة, Djibouti جيبوتي","address":{"hamlet":"Doulloul","county":"Tadjoura تجرة","state":"Tadjourah تجرة","ISO3166-2-lvl4":"DJ-TA","country":"Djibouti جيبوتي","country_code":"dj"},"population":50,"osm_type":"node","osm_id":6842694498,"type":"hamlet","location":[42.7437324,11.6940806],"bbox":[42.7237324,11.6740806,42.7637324,11.7140806]}
{"name":"Ardo","display_name":"Ardo, Tadjoura تجرة, Tadjourah تجرة, Djibouti جيبوتي","address":{"hamlet":"Ardo","county":"Tadjoura تجرة","state":"Tadjourah تجرة","ISO3166-2-lvl4":"DJ-TA","country":"Djibouti جيبوتي","country_code":"dj"},"osm_type":"node","osm_id":2207948780,"type":"hamlet","location":[42.7143783,11.7866105],"bbox":[42.6943783,11.7666105,42.7343783,11.8066105]}
{"display_name":"راندا Randa, Tadjourah تجرة, Djibouti جيبوتي","address":{"county":"راندا Randa","state":"Tadjourah تجرة","ISO3166-2-lvl4":"DJ-TA","country":"Djibouti جيبوتي","country_code":"dj"},"osm_type":"node","osm_id":2207949012,"type":"hamlet","location":[42.6383391,11.8287782],"bbox":[42.6183391,11.8087782,42.6583391,11.8487782]}
{"name":"Riptaleh'af","display_name":"Riptaleh'af, راندا Randa, Tadjourah تجرة, Djibouti جيبوتي","address":{"hamlet":"Riptaleh'af","county":"راندا Randa","state":"Tadjourah تجرة","ISO3166-2-lvl4":"DJ-TA","country":"Djibouti جيبوتي","country_code":"dj"},"osm_type":"node","osm_id":5719375892,"type":"hamlet","location":[42.6847796,11.8527979],"bbox":[42.6647796,11.8327979,42.7047796,11.8727979]}
{"name":"Ewali","display_name":"Ewali, راندا Randa, Tadjourah تجرة, Djibouti جيبوتي","address":{"hamlet":"Ewali","county":"راندا Randa","state":"Tadjourah تجرة","ISO3166-2-lvl4":"DJ-TA","country":"Djibouti جيبوتي","country_code":"dj"},"osm_type":"node","osm_id":5719375893,"type":"hamlet","location":[42.6865181,11.8526247],"bbox":[42.6665181,11.8326247,42.7065181,11.8726247]}
{"name":"Guiangi'h af","display_name":"Guiangi'h af, راندا Randa, Tadjourah تجرة, Djibouti جيبوتي","address":{"hamlet":"Guiangi'h af","county":"راندا Randa","state":"Tadjourah تجرة","ISO3166-2-lvl4":"DJ-TA","country":"Djibouti جيبوتي","country_code":"dj"},"osm_type":"node","osm_id":7731176690,"type":"hamlet","location":[42.6926732,11.8522445],"bbox":[42.6726732,11.8322445,42.7126732,11.8722445]}
{"display_name":"Tadjoura تجرة, Tadjourah تجرة, Djibouti جيبوتي","address":{"county":"Tadjoura تجرة","state":"Tadjourah تجرة","ISO3166-2-lvl4":"DJ-TA","country":"Djibouti جيبوتي","country_code":"dj"},"osm_type":"node","osm_id":2207934320,"type":"hamlet","location":[42.7169064,11.8066622],"bbox":[42.6969064,11.7866622,42.7369064,11.8266622]}
{"name":"Madala مدالا","other_names":{"name:ar":"مدالا","name:fr":"Madala"},"display_name":"Madala مدالا, Dougoum دوغوم, Tadjoura تجرة, Tadjourah تجرة, Djibouti جيبوتي","address":{"hamlet":"Madala مدالا","village":"Dougoum دوغوم","county":"Tadjoura تجرة","state":"Tadjourah تجرة","ISO3166-2-lvl4":"DJ-TA","country":"Djibouti جيبوتي","country_code":"dj"},"osm_type":"node","osm_id":3209273867,"type":"hamlet","location":[42.7437186,11.8048295],"bbox":[42.7237186,11.7848295,42.7637186,11.8248295]}
{"name":"Goubéto","other_names":{"name:en":"Goubeto","alt_name":"Goubeto;Goubeto Station"},"display_name":"Goubéto, Ali Sabieh علي صبيح, Djibouti جيبوتي","address":{"hamlet":"Goubéto","state":"Ali Sabieh علي صبيح","ISO3166-2-lvl4":"DJ-AS","country":"Djibouti جيبوتي","country_code":"dj"},"osm_type":"node","osm_id":7733100960,"type":"hamlet","location":[42.983333,11.416667],"bbox":[42.963333,11.396667,43.003333,11.436667]}
{"name":"Bobo'af","display_name":"Bobo'af, Am'issoh af أم إيسو, راندا Randa, Tadjourah تجرة, Djibouti جيبوتي","address":{"hamlet":"Bobo'af","village":"Am'issoh af أم إيسو","county":"راندا Randa","state":"Tadjourah تجرة","ISO3166-2-lvl4":"DJ-TA","country":"Djibouti جيبوتي","country_code":"dj"},"osm_type":"node","osm_id":7731196430,"type":"hamlet","location":[42.7171296,11.8362192],"bbox":[42.6971296,11.8162192,42.7371296,11.8562192]}
{"display_name":"Djibouti جيبوتي","address":{"city":"Djibouti جيبوتي","ISO3166-2-lvl4":"DJ-DJ","country":"Djibouti جيبوتي","country_code":"dj"},"osm_type":"node","osm_id":2197398072,"type":"hamlet","location":[43.00836,11.5452524],"bbox":[42.98836,11.5252524,43.02836,11.5652524]}
{"display_name":"Arta عرتا, Djibouti جيبوتي","address":{"state":"Arta عرتا","ISO3166-2-lvl4":"DJ-AR","country":"Djibouti جيبوتي","country_code":"dj"},"osm_type":"node","osm_id":3878535083,"type":"hamlet","location":[43.1760886,11.5111052],"bbox":[43.1560886,11.4911052,43.1960886,11.5311052]}
{"display_name":"Arta عرتا, Djibouti جيبوتي","address":{"state":"Arta عرتا","ISO3166-2-lvl4":"DJ-AR","country":"Djibouti جيبوتي","country_code":"dj"},"osm_type":"node","osm_id":2197367685,"type":"hamlet","location":[43.1518069,11.5271761],"bbox":[43.1318069,11.5071761,43.1718069,11.5471761]}
{"display_name":"Arta عرتا, Djibouti جيبوتي","address":{"state":"Arta عرتا","ISO3166-2-lvl4":"DJ-AR","country":"Djibouti جيبوتي","country_code":"dj"},"osm_type":"node","osm_id":2197367705,"type":"hamlet","location":[43.162225,11.5274028],"bbox":[43.142225,11.5074028,43.182225,11.5474028]}
{"name":"Rayssali مخيم رأس علي","other_names":{"name:ar":"مخيم رأس علي","name:fr":"Campement de Rayssali","short_name:ar":"رأس علي"},"display_name":"Rayssali مخيم رأس علي, Tadjoura تجرة, Tadjourah تجرة, Djibouti جيبوتي","address":{"hamlet":"Rayssali مخيم رأس علي","county":"Tadjoura تجرة","state":"Tadjourah تجرة","ISO3166-2-lvl4":"DJ-TA","country":"Djibouti جيبوتي","country_code":"dj"},"osm_type":"node","osm_id":2536780743,"type":"hamlet","location":[42.9348881,11.7729391],"bbox":[42.9148881,11.7529391,42.9548881,11.7929391]}
{"name":"Khor Ambado خور عمبادو","other_names":{"name:ar":"خور عمبادو","name:en":"Khor Ambado","name:fr":"Khor Ambado","alt_name":"خور عمبادا","alt_name:ar":"خور عمبادا"},"display_name":"Khor Ambado خور عمبادو, Djibouti جيبوتي","address":{"hamlet":"Khor Ambado خور عمبادو","city":"Djibouti جيبوتي","ISO3166-2-lvl4":"DJ-DJ","country":"Djibouti جيبوتي","country_code":"dj"},"osm_type":"node","osm_id":7093887249,"type":"hamlet","location":[43.0150848,11.5877434],"bbox":[42.9950848,11.5677434,43.0350848,11.6077434]}
{"name":"Les Sables Blancs","display_name":"Les Sables Blancs, Tadjoura تجرة, Tadjourah تجرة, Djibouti جيبوتي","address":{"hamlet":"Les Sables Blancs","county":"Tadjoura تجرة","state":"Tadjourah تجرة","ISO3166-2-lvl4":"DJ-TA","country":"Djibouti جيبوتي","country_code":"dj"},"osm_type":"node","osm_id":7511087385,"type":"hamlet","location":[42.9252985,11.7797015],"bbox":[42.9052985,11.7597015,42.9452985,11.7997015]}
{"name":"مالاهو Malaho","other_names":{"name:ar":"مالاهو","name:en":"Malaho","name:fr":"Malaho"},"display_name":"مالاهو Malaho, Balha بالها, Tadjourah تجرة, Djibouti جيبوتي","address":{"hamlet":"مالاهو Malaho","county":"Balha بالها","state":"Tadjourah تجرة","ISO3166-2-lvl4":"DJ-TA","country":"Djibouti جيبوتي","country_code":"dj"},"osm_type":"node","osm_id":2528136928,"type":"hamlet","location":[42.228618,12.090047],"bbox":[42.208618,12.070047,42.248618,12.110047]}
{"name":"Orobor أربور","other_names":{"name:ar":"أربور","name:en":"Orobor","name:fr":"Orobor"},"display_name":"Orobor أربور, Dallayi دلايي, Obock District إقليم أبخ, Obock أبخ, Djibouti جيبوتي","address":{"hamlet":"Orobor أربور","village":"Dallayi دلايي","county":"Obock District إقليم أبخ","state":"Obock أبخ","ISO3166-2-lvl4":"DJ-OB","country":"Djibouti جيبوتي","country_code":"dj"},"osm_type":"node","osm_id":831990055,"type":"hamlet","location":[43.1318111,11.9009446],"bbox":[43.1118111,11.8809446,43.1518111,11.9209446]}
{"name":"Ras Bir رأس البئر","other_names":{"name:ar":"رأس البئر","name:en":"Ras Bir","name:fr":"Ras Bir"},"display_name":"Ras Bir رأس البئر, Obock District إقليم أبخ, Obock أبخ, Djibouti جيبوتي","address":{"hamlet":"Ras Bir رأس البئر","county":"Obock District إقليم أبخ","state":"Obock أبخ","ISO3166-2-lvl4":"DJ-OB","country":"Djibouti جيبوتي","country_code":"dj"},"osm_type":"node","osm_id":2718930001,"type":"hamlet","location":[43.362735,11.9795728],"bbox":[43.342735,11.9595728,43.382735,11.9995728]}
{"name":"Sêdorre","other_names":{"name:en":"Sedorre","alt_name":"Sedorre"},"display_name":"Sêdorre, لأسا Lahassa, Obock District إقليم أبخ, Obock أبخ, Djibouti جيبوتي","address":{"hamlet":"Sêdorre","village":"لأسا Lahassa","county":"Obock District إقليم أبخ","state":"Obock أبخ","ISO3166-2-lvl4":"DJ-OB","country":"Djibouti جيبوتي","country_code":"dj"},"osm_type":"node","osm_id":7733100962,"type":"hamlet","location":[43.188982,12.362163],"bbox":[43.168982,12.342163,43.208982,12.382163]}
{"name":"Fillakouba فيلاكوبا","other_names":{"name:ar":"فيلاكوبا","name:fr":"Fillakouba"},"display_name":"Fillakouba فيلاكوبا, Alaili Dadda علايلي دادا, Obock أبخ, Djibouti جيبوتي","address":{"hamlet":"Fillakouba فيلاكوبا","county":"Alaili Dadda علايلي دادا","state":"Obock أبخ","ISO3166-2-lvl4":"DJ-OB","country":"Djibouti جيبوتي","country_code":"dj"},"osm_type":"node","osm_id":2164655882,"type":"hamlet","location":[43.1037072,12.6460621],"bbox":[43.0837072,12.6260621,43.1237072,12.6660621]}
{"name":"Dayli H̱arak ديلي حاراك","other_names":{"name:ar":"ديلي حاراك","name:en":"Dayli H̱arak","name:fr":"Dayli H̱arak"},"display_name":"Dayli H̱arak ديلي حاراك, Alaili Dadda علايلي دادا, Obock أبخ, Djibouti جيبوتي","address":{"hamlet":"Dayli H̱arak ديلي حاراك","county":"Alaili Dadda علايلي دادا","state":"Obock أبخ","ISO3166-2-lvl4":"DJ-OB","country":"Djibouti جيبوتي","country_code":"dj"},"osm_type":"node","osm_id":2207892482,"type":"hamlet","location":[43.1498331,12.6517117],"bbox":[43.1298331,12.6317117,43.1698331,12.6717117]}
{"name":"Bissîdiro","other_names":{"name:en":"Bissidiro","alt_name":"Bissidiro"},"display_name":"Bissîdiro, Alaili Dadda علايلي دادا, Obock أبخ, Djibouti جيبوتي","address":{"hamlet":"Bissîdiro","county":"Alaili Dadda علايلي دادا","state":"Obock أبخ","ISO3166-2-lvl4":"DJ-OB","country":"Djibouti جيبوتي","country_code":"dj"},"osm_type":"node","osm_id":7733100966,"type":"hamlet","location":[42.973333,12.645],"bbox":[42.953333,12.625,42.993333,12.665]}
