{"name":"Portsmouth","display_name":"Portsmouth, Saint John Parish, Dominica","address":{"town":"Portsmouth","state":"Saint John Parish","ISO3166-2-lvl4":"DM-05","country":"Dominica","country_code":"dm"},"osm_type":"way","osm_id":133470397,"type":"town","location":[-61.455588,15.575915],"bbox":[-61.4616077,15.5712887,-61.4484957,15.5868352]}
{"name":"Pointe Michel","other_names":{"name:en":"Pointe Michel","name:gcf":"Pwent Michèl"},"display_name":"Pointe Michel, Saint Luke Parish, Dominica","address":{"town":"Pointe Michel","state":"Saint Luke Parish","ISO3166-2-lvl4":"DM-07","country":"Dominica","country_code":"dm"},"population":1664,"osm_type":"node","osm_id":240266371,"type":"town","location":[-61.376678,15.2604939],"bbox":[-61.416678,15.2204939,-61.336678,15.3004939]}
{"name":"Berekua","other_names":{"name:en":"Berekua","alt_name":"Grand Bay"},"display_name":"Berekua, Saint Patrick Parish, Dominica","address":{"town":"Berekua","state":"Saint Patrick Parish","ISO3166-2-lvl4":"DM-09","country":"Dominica","country_code":"dm"},"population":2134,"osm_type":"node","osm_id":242414515,"type":"town","location":[-61.3153342,15.239927],"bbox":[-61.3553342,15.199927,-61.2753342,15.279927]}
{"name":"Roseau","other_names":{"name:af":"Roseau","name:am":"ሮዞ","name:ar":"روسو","name:ay":"Roseau","name:az":"Rozo","name:be":"Горад Разо","name:bg":"Розо","name:bo":"རུ་ཟོ།","name:br":"Roseau","name:bs":"Roseau","name:ca":"Roseau","name:ce":"Розо","name:cs":"Roseau","name:cy":"Roseau","name:da":"Roseau","name:de":"Roseau","name:el":"Ροζό","name:en":"Roseau","name:eo":"Roseo","name:es":"Roseau","name:et":"Roseau","name:eu":"Roseau","name:fi":"Roseau","name:fr":"Roseau","name:fy":"Roseau","name:ga":"Roseau","name:gd":"Roseau","name:gl":"Roseau","name:he":"רוזו","name:hr":"Roseau","name:ht":"Rozo","name:hu":"Roseau","name:hy":"Ռոզո","name:id":"Roseau","name:io":"Roseau","name:is":"Roseau","name:it":"Roseau","name:ja":"ロゾー","name:ka":"როზო","name:ko":"로조","name:ky":"Розо","name:lt":"Rozo","name:lv":"Rozo","name:mk":"Розо","name:mr":"रुसाउ","name:nb":"Roseau","name:nl":"Roseau","name:nn":"Roseau","name:no":"Roseau","name:oc":"Roseau","name:os":"Розо","name:pa":"ਰੋਜ਼ੋ","name:pl":"Roseau","name:pt":"Roseau","name:ro":"Roseau","name:ru":"Розо","name:sh":"Roseau","name:sk":"Roseau","name:sn":"Roseau","name:sq":"Roseau","name:sr":"Розо","name:sv":"Roseau","name:sw":"Roseau","name:ta":"உறொசோ","name:th":"โรโซ","name:tl":"Roseau","name:tr":"Roseau","name:uk":"Розо","name:uz":"Rozo","name:vi":"Roseau","name:yo":"Roseau","name:zh":"羅索","name:gcf":"Rozo"},"display_name":"Roseau, City of Roseau, Saint George Parish, Dominica","address":{"town":"Roseau","county":"City of Roseau","state":"Saint George Parish","ISO3166-2-lvl4":"DM-04","country":"Dominica","country_code":"dm"},"population":15000,"osm_type":"node","osm_id":4950552057,"type":"town","location":[-61.3872868,15.2991923],"bbox":[-61.4272868,15.2591923,-61.3472868,15.3391923]}
{"name":"Mahaut","other_names":{"name:en":"Mahaut","name:gcf":"Mawo"},"display_name":"Mahaut, Saint Paul Parish, Dominica","address":{"town":"Mahaut","state":"Saint Paul Parish","ISO3166-2-lvl4":"DM-10","country":"Dominica","country_code":"dm"},"population":2113,"osm_type":"node","osm_id":242414057,"type":"town","location":[-61.3974541,15.3633066],"bbox":[-61.4374541,15.3233066,-61.3574541,15.4033066]}
{"name":"Canefield","display_name":"Canefield, Saint Paul Parish, Dominica","address":{"town":"Canefield","state":"Saint Paul Parish","ISO3166-2-lvl4":"DM-10","country":"Dominica","country_code":"dm"},"osm_type":"node","osm_id":242414054,"type":"town","location":[-61.3886297,15.3380393],"bbox":[-61.4286297,15.2980393,-61.3486297,15.3780393]}
{"name":"Saint Joseph","other_names":{"name:en":"Saint Joseph","name:zh":"聖約瑟夫","alt_name":"St. Joseph"},"display_name":"Saint Joseph, Saint Joseph Parish, Dominica","address":{"town":"Saint Joseph","state":"Saint Joseph Parish","ISO3166-2-lvl4":"DM-06","country":"Dominica","country_code":"dm"},"population":1746,"osm_type":"node","osm_id":245923286,"type":"town","location":[-61.4239093,15.4063155],"bbox":[-61.4639093,15.3663155,-61.3839093,15.4463155]}
{"name":"Colihaut","display_name":"Colihaut, Saint Peter Parish, Dominica","address":{"town":"Colihaut","state":"Saint Peter Parish","ISO3166-2-lvl4":"DM-11","country":"Dominica","country_code":"dm"},"population":679,"osm_type":"node","osm_id":246579112,"type":"town","location":[-61.4624925,15.4854849],"bbox":[-61.5024925,15.4454849,-61.4224925,15.5254849]}
{"name":"Portsmouth","display_name":"Portsmouth, Saint John Parish, Dominica","address":{"town":"Portsmouth","state":"Saint John Parish","ISO3166-2-lvl4":"DM-05","country":"Dominica","country_code":"dm"},"osm_type":"node","osm_id":5486352294,"type":"town","location":[-61.455588,15.575915],"bbox":[-61.495588,15.535915,-61.415588,15.615915]}
{"name":"Galion","other_names":{"name:en":"Galion","name:gcf":"Galyon"},"display_name":"Galion, Saint Mark Parish, Dominica","address":{"village":"Galion","state":"Saint Mark Parish","ISO3166-2-lvl4":"DM-08","country":"Dominica","country_code":"dm"},"osm_type":"node","osm_id":242414059,"type":"village","location":[-61.3576058,15.2236703],"bbox":[-61.3776058,15.2036703,-61.3376058,15.2436703]}
{"name":"Scotts Head","other_names":{"name:en":"Scotts Head","name:lt":"Skots Hydas"},"display_name":"Scotts Head, Saint Mark Parish, Dominica","address":{"village":"Scotts Head","state":"Saint Mark Parish","ISO3166-2-lvl4":"DM-08","country":"Dominica","country_code":"dm"},"population":709,"osm_type":"node","osm_id":242414058,"type":"village","location":[-61.3676566,15.212357],"bbox":[-61.3876566,15.192357,-61.3476566,15.232357]}
{"name":"Soufriere","other_names":{"name:de":"Soufrière","name:en":"Soufriere","name:gcf":"Soufriyè"},"display_name":"Soufriere, Saint Mark Parish, Dominica","address":{"village":"Soufriere","state":"Saint Mark Parish","ISO3166-2-lvl4":"DM-08","country":"Dominica","country_code":"dm"},"population":973,"osm_type":"node","osm_id":242414184,"type":"village","location":[-61.3603695,15.2331529],"bbox":[-61.3803695,15.2131529,-61.3403695,15.2531529]}
{"name":"Dubuc","display_name":"Dubuc, Saint Patrick Parish, Dominica","address":{"village":"Dubuc","state":"Saint Patrick Parish","ISO3166-2-lvl4":"DM-09","country":"Dominica","country_code":"dm"},"osm_type":"node","osm_id":246183994,"type":"village","location":[-61.3037615,15.2466506],"bbox":[-61.3237615,15.2266506,-61.2837615,15.2666506]}
{"name":"Giraudel","display_name":"Giraudel, Saint George Parish, Dominica","address":{"village":"Giraudel","state":"Saint George Parish","ISO3166-2-lvl4":"DM-04","country":"Dominica","country_code":"dm"},"osm_type":"node","osm_id":1557855026,"type":"village","location":[-61.3487627,15.2905511],"bbox":[-61.3687627,15.2705511,-61.3287627,15.3105511]}
{"name":"Loubiere","display_name":"Loubiere, Saint George Parish, Dominica","address":{"village":"Loubiere","state":"Saint George Parish","ISO3166-2-lvl4":"DM-04","country":"Dominica","country_code":"dm"},"osm_type":"node","osm_id":240267620,"type":"village","location":[-61.373425,15.275216],"bbox":[-61.393425,15.255216,-61.353425,15.295216]}
{"name":"Wallhouse","other_names":{"name:en":"Wallhouse","loc_name":"Gillion"},"display_name":"Wallhouse, Saint George Parish, Dominica","address":{"village":"Wallhouse","state":"Saint George Parish","ISO3166-2-lvl4":"DM-04","country":"Dominica","country_code":"dm"},"osm_type":"node","osm_id":1832723691,"type":"village","location":[-61.370728,15.2818416],"bbox":[-61.390728,15.2618416,-61.350728,15.3018416]}
{"name":"Stowe","display_name":"Stowe, Saint Patrick Parish, Dominica","address":{"village":"Stowe","state":"Saint Patrick Parish","ISO3166-2-lvl4":"DM-09","country":"Dominica","country_code":"dm"},"osm_type":"node","osm_id":246184557,"type":"village","location":[-61.2941914,15.2465429],"bbox":[-61.3141914,15.2265429,-61.2741914,15.2665429]}
{"name":"Castle Comfort","display_name":"Castle Comfort, Saint George Parish, Dominica","address":{"village":"Castle Comfort","state":"Saint George Parish","ISO3166-2-lvl4":"DM-04","country":"Dominica","country_code":"dm"},"osm_type":"node","osm_id":245923982,"type":"village","location":[-61.3704916,15.2840561],"bbox":[-61.3904916,15.2640561,-61.3504916,15.3040561]}
{"name":"Bagatelle","display_name":"Bagatelle, Saint Patrick Parish, Dominica","address":{"village":"Bagatelle","state":"Saint Patrick Parish","ISO3166-2-lvl4":"DM-09","country":"Dominica","country_code":"dm"},"osm_type":"node","osm_id":245925854,"type":"village","location":[-61.2847355,15.2477819],"bbox":[-61.3047355,15.2277819,-61.2647355,15.2677819]}
{"name":"Tête Morne","other_names":{"name:en":"Tête Morne","name:gcf":"Tèt Mòn"},"display_name":"Tête Morne, Saint Patrick Parish, Dominica","address":{"village":"Tête Morne","state":"Saint Patrick Parish","ISO3166-2-lvl4":"DM-09","country":"Dominica","country_code":"dm"},"osm_type":"node","osm_id":242414521,"type":"village","location":[-61.3334485,15.2352476],"bbox":[-61.3534485,15.2152476,-61.3134485,15.2552476]}
{"name":"Fond St. Jean","display_name":"Fond St. Jean, Saint Patrick Parish, Dominica","address":{"village":"Fond St. Jean","state":"Saint Patrick Parish","ISO3166-2-lvl4":"DM-09","country":"Dominica","country_code":"dm"},"osm_type":"node","osm_id":245509269,"type":"village","location":[-61.2814673,15.2444336],"bbox":[-61.3014673,15.2244336,-61.2614673,15.2644336]}
{"name":"Delices","display_name":"Delices, Saint Patrick Parish, Dominica","address":{"village":"Delices","state":"Saint Patrick Parish","ISO3166-2-lvl4":"DM-09","country":"Dominica","country_code":"dm"},"population":207,"osm_type":"node","osm_id":245925891,"type":"village","location":[-61.2641361,15.2876922],"bbox":[-61.2841361,15.2676922,-61.2441361,15.3076922]}
{"name":"Bellevue Chopin","display_name":"Bellevue Chopin, Saint George Parish, Dominica","address":{"village":"Bellevue Chopin","state":"Saint George Parish","ISO3166-2-lvl4":"DM-04","country":"Dominica","country_code":"dm"},"osm_type":"node","osm_id":242414018,"type":"village","location":[-61.3470927,15.2659927],"bbox":[-61.3670927,15.2459927,-61.3270927,15.2859927]}
{"name":"Pichelin","display_name":"Pichelin, Saint Patrick Parish, Dominica","address":{"village":"Pichelin","state":"Saint Patrick Parish","ISO3166-2-lvl4":"DM-09","country":"Dominica","country_code":"dm"},"osm_type":"node","osm_id":242414039,"type":"village","location":[-61.3260009,15.2642236],"bbox":[-61.3460009,15.2442236,-61.3060009,15.2842236]}
{"name":"Petite Savanne","display_name":"Petite Savanne, Saint Patrick Parish, Dominica","address":{"village":"Petite Savanne","state":"Saint Patrick Parish","ISO3166-2-lvl4":"DM-09","country":"Dominica","country_code":"dm"},"population":1000,"osm_type":"node","osm_id":246573529,"type":"village","location":[-61.2681718,15.2544166],"bbox":[-61.2881718,15.2344166,-61.2481718,15.2744166]}
{"name":"Fond Cani","display_name":"Fond Cani, Saint George Parish, Dominica","address":{"village":"Fond Cani","state":"Saint George Parish","ISO3166-2-lvl4":"DM-04","country":"Dominica","country_code":"dm"},"osm_type":"node","osm_id":1597316627,"type":"village","location":[-61.3576015,15.3170661],"bbox":[-61.3776015,15.2970661,-61.3376015,15.3370661]}
{"name":"Check Hall","display_name":"Check Hall, Saint Paul Parish, Dominica","address":{"village":"Check Hall","state":"Saint Paul Parish","ISO3166-2-lvl4":"DM-10","country":"Dominica","country_code":"dm"},"osm_type":"node","osm_id":1591355965,"type":"village","location":[-61.3916317,15.3452232],"bbox":[-61.4116317,15.3252232,-61.3716317,15.3652232]}
{"name":"Eggleston","display_name":"Eggleston, Saint George Parish, Dominica","address":{"village":"Eggleston","state":"Saint George Parish","ISO3166-2-lvl4":"DM-04","country":"Dominica","country_code":"dm"},"osm_type":"node","osm_id":1557855685,"type":"village","location":[-61.3568522,15.2974227],"bbox":[-61.3768522,15.2774227,-61.3368522,15.3174227]}
{"name":"Campbell","display_name":"Campbell, Saint Paul Parish, Dominica","address":{"village":"Campbell","state":"Saint Paul Parish","ISO3166-2-lvl4":"DM-10","country":"Dominica","country_code":"dm"},"population":538,"osm_type":"node","osm_id":1566779601,"type":"village","location":[-61.3737262,15.3743079],"bbox":[-61.3937262,15.3543079,-61.3537262,15.3943079]}
{"name":"Massacre","display_name":"Massacre, Saint Paul Parish, Dominica","address":{"village":"Massacre","state":"Saint Paul Parish","ISO3166-2-lvl4":"DM-10","country":"Dominica","country_code":"dm"},"osm_type":"node","osm_id":242414055,"type":"village","location":[-61.3917472,15.3475066],"bbox":[-61.4117472,15.3275066,-61.3717472,15.3675066]}
{"name":"Pont Cassé","other_names":{"name:en":"Pont Cassé","name:gcf":"Pon Krazé"},"display_name":"Pont Cassé, Saint Paul Parish, Dominica","address":{"village":"Pont Cassé","state":"Saint Paul Parish","ISO3166-2-lvl4":"DM-10","country":"Dominica","country_code":"dm"},"osm_type":"node","osm_id":2121948236,"type":"village","location":[-61.3524809,15.3689215],"bbox":[-61.3724809,15.3489215,-61.3324809,15.3889215]}
{"name":"Salisbury","other_names":{"name:en":"Salisbury","loc_name":"Baroui"},"display_name":"Salisbury, Saint Joseph Parish, Dominica","address":{"village":"Salisbury","state":"Saint Joseph Parish","ISO3166-2-lvl4":"DM-06","country":"Dominica","country_code":"dm"},"population":2174,"osm_type":"node","osm_id":245509376,"type":"village","location":[-61.4363057,15.4365938],"bbox":[-61.4563057,15.4165938,-61.4163057,15.4565938]}
{"name":"Jimmit","display_name":"Jimmit, Saint Paul Parish, Dominica","address":{"village":"Jimmit","state":"Saint Paul Parish","ISO3166-2-lvl4":"DM-10","country":"Dominica","country_code":"dm"},"population":743,"osm_type":"node","osm_id":245923409,"type":"village","location":[-61.4027037,15.3718606],"bbox":[-61.4227037,15.3518606,-61.3827037,15.3918606]}
{"name":"Morne Rachette","other_names":{"name:en":"Morne Rachette","alt_name":"Morne Raquette","name:gcf":"Mòn Rakèt"},"display_name":"Morne Rachette, Saint Joseph Parish, Dominica","address":{"village":"Morne Rachette","state":"Saint Joseph Parish","ISO3166-2-lvl4":"DM-06","country":"Dominica","country_code":"dm"},"population":270,"osm_type":"node","osm_id":246579127,"type":"village","location":[-61.4473863,15.4566567],"bbox":[-61.4673863,15.4366567,-61.4273863,15.4766567]}
{"name":"Warner","display_name":"Warner, Saint Paul Parish, Dominica","address":{"village":"Warner","state":"Saint Paul Parish","ISO3166-2-lvl4":"DM-10","country":"Dominica","country_code":"dm"},"population":515,"osm_type":"node","osm_id":1566779324,"type":"village","location":[-61.3943203,15.3915262],"bbox":[-61.4143203,15.3715262,-61.3743203,15.4115262]}
{"name":"Coulibistrie","display_name":"Coulibistrie, Saint Joseph Parish, Dominica","address":{"village":"Coulibistrie","state":"Saint Joseph Parish","ISO3166-2-lvl4":"DM-06","country":"Dominica","country_code":"dm"},"population":419,"osm_type":"node","osm_id":246579126,"type":"village","location":[-61.45112,15.4602139],"bbox":[-61.47112,15.4402139,-61.43112,15.4802139]}
{"name":"Mero","display_name":"Mero, Saint Joseph Parish, Dominica","address":{"village":"Mero","state":"Saint Joseph Parish","ISO3166-2-lvl4":"DM-06","country":"Dominica","country_code":"dm"},"osm_type":"node","osm_id":1475021424,"type":"village","location":[-61.4287183,15.418949],"bbox":[-61.4487183,15.398949,-61.4087183,15.438949]}
{"name":"Cochrane","display_name":"Cochrane, Saint Paul Parish, Dominica","address":{"village":"Cochrane","state":"Saint Paul Parish","ISO3166-2-lvl4":"DM-10","country":"Dominica","country_code":"dm"},"population":347,"osm_type":"node","osm_id":1562363356,"type":"village","location":[-61.35984,15.3380169],"bbox":[-61.37984,15.3180169,-61.33984,15.3580169]}
{"name":"Tarreau","display_name":"Tarreau, Saint Paul Parish, Dominica","address":{"village":"Tarreau","state":"Saint Paul Parish","ISO3166-2-lvl4":"DM-10","country":"Dominica","country_code":"dm"},"population":228,"osm_type":"node","osm_id":1834890746,"type":"village","location":[-61.4153411,15.3886885],"bbox":[-61.4353411,15.3686885,-61.3953411,15.4086885]}
{"name":"Grand Fond","other_names":{"name:en":"Grand Fond","name:gcf":"Granfon"},"display_name":"Grand Fond, Saint David Parish, Dominica","address":{"village":"Grand Fond","state":"Saint David Parish","ISO3166-2-lvl4":"DM-03","country":"Dominica","country_code":"dm"},"osm_type":"node","osm_id":246573563,"type":"village","location":[-61.2740309,15.361975],"bbox":[-61.2940309,15.341975,-61.2540309,15.381975]}
{"name":"Layou","display_name":"Layou, Saint Joseph Parish, Dominica","address":{"village":"Layou","state":"Saint Joseph Parish","ISO3166-2-lvl4":"DM-06","country":"Dominica","country_code":"dm"},"population":433,"osm_type":"node","osm_id":245923388,"type":"village","location":[-61.4251937,15.3972216],"bbox":[-61.4451937,15.3772216,-61.4051937,15.4172216]}
{"name":"Laudat","display_name":"Laudat, Saint George Parish, Dominica","address":{"village":"Laudat","state":"Saint George Parish","ISO3166-2-lvl4":"DM-04","country":"Dominica","country_code":"dm"},"osm_type":"node","osm_id":1562363352,"type":"village","location":[-61.3330422,15.335229],"bbox":[-61.3530422,15.315229,-61.3130422,15.355229]}
{"name":"Boetica","display_name":"Boetica, Saint Patrick Parish, Dominica","address":{"village":"Boetica","state":"Saint Patrick Parish","ISO3166-2-lvl4":"DM-09","country":"Dominica","country_code":"dm"},"population":149,"osm_type":"node","osm_id":246573560,"type":"village","location":[-61.2510772,15.3083235],"bbox":[-61.2710772,15.2883235,-61.2310772,15.3283235]}
{"name":"Morne Jaune","other_names":{"name:en":"Morne Jaune","name:gcf":"Mòn Jòn"},"display_name":"Morne Jaune, Saint David Parish, Dominica","address":{"village":"Morne Jaune","state":"Saint David Parish","ISO3166-2-lvl4":"DM-03","country":"Dominica","country_code":"dm"},"osm_type":"node","osm_id":1479554529,"type":"village","location":[-61.2634419,15.3532124],"bbox":[-61.2834419,15.3332124,-61.2434419,15.3732124]}
{"name":"Morne Prosper","display_name":"Morne Prosper, Saint George Parish, Dominica","address":{"village":"Morne Prosper","state":"Saint George Parish","ISO3166-2-lvl4":"DM-04","country":"Dominica","country_code":"dm"},"osm_type":"node","osm_id":245923661,"type":"village","location":[-61.3452484,15.3115664],"bbox":[-61.3652484,15.2915664,-61.3252484,15.3315664]}
{"name":"Trafalgar","display_name":"Trafalgar, Saint George Parish, Dominica","address":{"village":"Trafalgar","state":"Saint George Parish","ISO3166-2-lvl4":"DM-04","country":"Dominica","country_code":"dm"},"osm_type":"node","osm_id":245923882,"type":"village","location":[-61.3467932,15.323694],"bbox":[-61.3667932,15.303694,-61.3267932,15.343694]}
{"name":"Riviere Ciriques","display_name":"Riviere Ciriques, Saint David Parish, Dominica","address":{"village":"Riviere Ciriques","state":"Saint David Parish","ISO3166-2-lvl4":"DM-03","country":"Dominica","country_code":"dm"},"population":368,"osm_type":"node","osm_id":1566779346,"type":"village","location":[-61.2566049,15.3669473],"bbox":[-61.2766049,15.3469473,-61.2366049,15.3869473]}
{"name":"La Plaine","display_name":"La Plaine, Saint Patrick Parish, Dominica","address":{"village":"La Plaine","state":"Saint Patrick Parish","ISO3166-2-lvl4":"DM-09","country":"Dominica","country_code":"dm"},"population":1128,"osm_type":"node","osm_id":245925926,"type":"village","location":[-61.2463692,15.3287537],"bbox":[-61.2663692,15.3087537,-61.2263692,15.3487537]}
{"name":"Rosalie","other_names":{"name:en":"Rosalie","name:zh":"羅莎莉"},"display_name":"Rosalie, Saint David Parish, Dominica","address":{"village":"Rosalie","state":"Saint David Parish","ISO3166-2-lvl4":"DM-03","country":"Dominica","country_code":"dm"},"osm_type":"node","osm_id":246573565,"type":"village","location":[-61.2540098,15.3739552],"bbox":[-61.2740098,15.3539552,-61.2340098,15.3939552]}
{"name":"Castle Bruce","display_name":"Castle Bruce, Saint David Parish, Dominica","address":{"village":"Castle Bruce","state":"Saint David Parish","ISO3166-2-lvl4":"DM-03","country":"Dominica","country_code":"dm"},"population":1087,"osm_type":"node","osm_id":245926011,"type":"village","location":[-61.2571838,15.4421277],"bbox":[-61.2771838,15.4221277,-61.2371838,15.4621277]}
{"name":"Belles","display_name":"Belles, Saint Joseph Parish, Dominica","address":{"village":"Belles","state":"Saint Joseph Parish","ISO3166-2-lvl4":"DM-06","country":"Dominica","country_code":"dm"},"osm_type":"node","osm_id":246770630,"type":"village","location":[-61.3393098,15.4232766],"bbox":[-61.3593098,15.4032766,-61.3193098,15.4432766]}
{"name":"Petite Soufriere","other_names":{"name:en":"Petite Soufriere","name:gcf":"Ti Soufriyè"},"display_name":"Petite Soufriere, Saint David Parish, Dominica","address":{"village":"Petite Soufriere","state":"Saint David Parish","ISO3166-2-lvl4":"DM-03","country":"Dominica","country_code":"dm"},"population":561,"osm_type":"node","osm_id":246573670,"type":"village","location":[-61.2562414,15.3910029],"bbox":[-61.2762414,15.3710029,-61.2362414,15.4110029]}
{"name":"Sineku","display_name":"Sineku, Saint David Parish, Dominica","address":{"village":"Sineku","state":"Saint David Parish","ISO3166-2-lvl4":"DM-03","country":"Dominica","country_code":"dm"},"osm_type":"node","osm_id":1471114533,"type":"village","location":[-61.2491649,15.4677192],"bbox":[-61.2691649,15.4477192,-61.2291649,15.4877192]}
{"name":"Saint Sauveur","display_name":"Saint Sauveur, Saint David Parish, Dominica","address":{"village":"Saint Sauveur","state":"Saint David Parish","ISO3166-2-lvl4":"DM-03","country":"Dominica","country_code":"dm"},"population":100,"osm_type":"node","osm_id":1566779471,"type":"village","location":[-61.2542017,15.4035663],"bbox":[-61.2742017,15.3835663,-61.2342017,15.4235663]}
{"name":"Good Hope","display_name":"Good Hope, Saint David Parish, Dominica","address":{"village":"Good Hope","state":"Saint David Parish","ISO3166-2-lvl4":"DM-03","country":"Dominica","country_code":"dm"},"osm_type":"node","osm_id":246573732,"type":"village","location":[-61.2541814,15.412352],"bbox":[-61.2741814,15.392352,-61.2341814,15.432352]}
{"name":"Bioche","display_name":"Bioche, Saint Peter Parish, Dominica","address":{"village":"Bioche","state":"Saint Peter Parish","ISO3166-2-lvl4":"DM-11","country":"Dominica","country_code":"dm"},"population":335,"osm_type":"node","osm_id":246579132,"type":"village","location":[-61.466827,15.5091813],"bbox":[-61.486827,15.4891813,-61.446827,15.5291813]}
{"name":"Clifton","display_name":"Clifton, Saint John Parish, Dominica","address":{"village":"Clifton","state":"Saint John Parish","ISO3166-2-lvl4":"DM-05","country":"Dominica","country_code":"dm"},"population":163,"osm_type":"node","osm_id":246579160,"type":"village","location":[-61.4636512,15.6239175],"bbox":[-61.4836512,15.6039175,-61.4436512,15.6439175]}
{"name":"Tanetane","display_name":"Tanetane, Saint John Parish, Dominica","address":{"village":"Tanetane","state":"Saint John Parish","ISO3166-2-lvl4":"DM-05","country":"Dominica","country_code":"dm"},"osm_type":"node","osm_id":246579156,"type":"village","location":[-61.4606081,15.5979016],"bbox":[-61.4806081,15.5779016,-61.4406081,15.6179016]}
{"name":"Dublanc","display_name":"Dublanc, Saint Peter Parish, Dominica","address":{"village":"Dublanc","state":"Saint Peter Parish","ISO3166-2-lvl4":"DM-11","country":"Dominica","country_code":"dm"},"population":413,"osm_type":"node","osm_id":246579136,"type":"village","location":[-61.4691444,15.5148466],"bbox":[-61.4891444,15.4948466,-61.4491444,15.5348466]}
{"name":"Capuchin","display_name":"Capuchin, Saint John Parish, Dominica","address":{"village":"Capuchin","state":"Saint John Parish","ISO3166-2-lvl4":"DM-05","country":"Dominica","country_code":"dm"},"population":216,"osm_type":"node","osm_id":246579154,"type":"village","location":[-61.461403,15.6308335],"bbox":[-61.481403,15.6108335,-61.441403,15.6508335]}
{"name":"Borne","display_name":"Borne, Saint John Parish, Dominica","address":{"village":"Borne","state":"Saint John Parish","ISO3166-2-lvl4":"DM-05","country":"Dominica","country_code":"dm"},"population":171,"osm_type":"node","osm_id":246579245,"type":"village","location":[-61.4212509,15.5795102],"bbox":[-61.4412509,15.5595102,-61.4012509,15.5995102]}
{"name":"Paix Bouche","display_name":"Paix Bouche, Saint Andrew Parish, Dominica","address":{"village":"Paix Bouche","state":"Saint Andrew Parish","ISO3166-2-lvl4":"DM-02","country":"Dominica","country_code":"dm"},"population":577,"osm_type":"node","osm_id":246579189,"type":"village","location":[-61.4108499,15.5926347],"bbox":[-61.4308499,15.5726347,-61.3908499,15.6126347]}
{"name":"Savane Paille","display_name":"Savane Paille, Saint John Parish, Dominica","address":{"village":"Savane Paille","state":"Saint John Parish","ISO3166-2-lvl4":"DM-05","country":"Dominica","country_code":"dm"},"osm_type":"node","osm_id":2080157399,"type":"village","location":[-61.4623646,15.6040896],"bbox":[-61.4823646,15.5840896,-61.4423646,15.6240896]}
{"name":"Morne a Louis","display_name":"Morne a Louis, Saint John Parish, Dominica","address":{"village":"Morne a Louis","state":"Saint John Parish","ISO3166-2-lvl4":"DM-05","country":"Dominica","country_code":"dm"},"osm_type":"node","osm_id":293071425,"type":"village","location":[-61.4634762,15.6069188],"bbox":[-61.4834762,15.5869188,-61.4434762,15.6269188]}
{"name":"Dos D'Ane","display_name":"Dos D'Ane, Saint Andrew Parish, Dominica","address":{"village":"Dos D'Ane","state":"Saint Andrew Parish","ISO3166-2-lvl4":"DM-02","country":"Dominica","country_code":"dm"},"population":215,"osm_type":"node","osm_id":246579190,"type":"village","location":[-61.413097,15.5857936],"bbox":[-61.433097,15.5657936,-61.393097,15.6057936]}
{"name":"Toucari","display_name":"Toucari, Saint John Parish, Dominica","address":{"village":"Toucari","state":"Saint John Parish","ISO3166-2-lvl4":"DM-05","country":"Dominica","country_code":"dm"},"population":63,"osm_type":"node","osm_id":246579157,"type":"village","location":[-61.4637371,15.6098092],"bbox":[-61.4837371,15.5898092,-61.4437371,15.6298092]}
{"name":"Thibaud","display_name":"Thibaud, Saint Andrew Parish, Dominica","address":{"village":"Thibaud","state":"Saint Andrew Parish","ISO3166-2-lvl4":"DM-02","country":"Dominica","country_code":"dm"},"population":486,"osm_type":"node","osm_id":245923187,"type":"village","location":[-61.397605,15.5998689],"bbox":[-61.417605,15.5798689,-61.377605,15.6198689]}
{"name":"Bense","display_name":"Bense, Saint Andrew Parish, Dominica","address":{"village":"Bense","state":"Saint Andrew Parish","ISO3166-2-lvl4":"DM-02","country":"Dominica","country_code":"dm"},"population":247,"osm_type":"node","osm_id":246579248,"type":"village","location":[-61.3753744,15.5887285],"bbox":[-61.3953744,15.5687285,-61.3553744,15.6087285]}
{"name":"Cottage","display_name":"Cottage, Saint John Parish, Dominica","address":{"village":"Cottage","state":"Saint John Parish","ISO3166-2-lvl4":"DM-05","country":"Dominica","country_code":"dm"},"population":279,"osm_type":"node","osm_id":246579159,"type":"village","location":[-61.4635536,15.6157465],"bbox":[-61.4835536,15.5957465,-61.4435536,15.6357465]}
{"name":"La Source","display_name":"La Source, Saint Andrew Parish, Dominica","address":{"village":"La Source","state":"Saint Andrew Parish","ISO3166-2-lvl4":"DM-02","country":"Dominica","country_code":"dm"},"osm_type":"node","osm_id":246579192,"type":"village","location":[-61.4070459,15.5887285],"bbox":[-61.4270459,15.5687285,-61.3870459,15.6087285]}
{"name":"Cocoyer","display_name":"Cocoyer, Saint John Parish, Dominica","address":{"village":"Cocoyer","state":"Saint John Parish","ISO3166-2-lvl4":"DM-05","country":"Dominica","country_code":"dm"},"population":20,"osm_type":"node","osm_id":1956919272,"type":"village","location":[-61.4599081,15.6209204],"bbox":[-61.4799081,15.6009204,-61.4399081,15.6409204]}
{"name":"Anse du Mé","display_name":"Anse du Mé, Saint Andrew Parish, Dominica","address":{"village":"Anse du Mé","state":"Saint Andrew Parish","ISO3166-2-lvl4":"DM-02","country":"Dominica","country_code":"dm"},"population":114,"osm_type":"node","osm_id":246579247,"type":"village","location":[-61.3828026,15.5935205],"bbox":[-61.4028026,15.5735205,-61.3628026,15.6135205]}
{"name":"Bataka","display_name":"Bataka, Saint David Parish, Dominica","address":{"village":"Bataka","state":"Saint David Parish","ISO3166-2-lvl4":"DM-03","country":"Dominica","country_code":"dm"},"osm_type":"node","osm_id":1471138024,"type":"village","location":[-61.2650936,15.5061723],"bbox":[-61.2850936,15.4861723,-61.2450936,15.5261723]}
{"name":"Calibishie","display_name":"Calibishie, Saint Andrew Parish, Dominica","address":{"village":"Calibishie","state":"Saint Andrew Parish","ISO3166-2-lvl4":"DM-02","country":"Dominica","country_code":"dm"},"population":525,"osm_type":"node","osm_id":245923104,"type":"village","location":[-61.3493294,15.5925836],"bbox":[-61.3693294,15.5725836,-61.3293294,15.6125836]}
{"name":"Vieille Case","other_names":{"name:en":"Vieille Case","loc_name":"Itassi","name:gcf":"Vyé Kaz"},"display_name":"Vieille Case, Saint Andrew Parish, Dominica","address":{"village":"Vieille Case","state":"Saint Andrew Parish","ISO3166-2-lvl4":"DM-02","country":"Dominica","country_code":"dm"},"population":565,"osm_type":"node","osm_id":245509606,"type":"village","location":[-61.4046943,15.6143053],"bbox":[-61.4246943,15.5943053,-61.3846943,15.6343053]}
{"name":"Salybia","display_name":"Salybia, Saint David Parish, Dominica","address":{"village":"Salybia","state":"Saint David Parish","ISO3166-2-lvl4":"DM-03","country":"Dominica","country_code":"dm"},"osm_type":"node","osm_id":1471115457,"type":"village","location":[-61.2570255,15.4927724],"bbox":[-61.2770255,15.4727724,-61.2370255,15.5127724]}
{"name":"Penville","display_name":"Penville, Saint Andrew Parish, Dominica","address":{"village":"Penville","state":"Saint Andrew Parish","ISO3166-2-lvl4":"DM-02","country":"Dominica","country_code":"dm"},"population":501,"osm_type":"node","osm_id":246579188,"type":"village","location":[-61.4193642,15.629787],"bbox":[-61.4393642,15.609787,-61.3993642,15.649787]}
{"name":"Marigot","other_names":{"name:en":"Marigot","name:lt":"Marigo","name:gcf":"Marigo"},"display_name":"Marigot, Saint Andrew Parish, Dominica","address":{"village":"Marigot","state":"Saint Andrew Parish","ISO3166-2-lvl4":"DM-02","country":"Dominica","country_code":"dm"},"population":1277,"osm_type":"node","osm_id":245509766,"type":"village","location":[-61.2793643,15.5364632],"bbox":[-61.2993643,15.5164632,-61.2593643,15.5564632]}
{"name":"Atkinson","other_names":{"name:en":"Atkinson","loc_name":"Waraka"},"display_name":"Atkinson, Saint David Parish, Dominica","address":{"village":"Atkinson","state":"Saint David Parish","ISO3166-2-lvl4":"DM-03","country":"Dominica","country_code":"dm"},"population":365,"osm_type":"node","osm_id":246573733,"type":"village","location":[-61.2658544,15.5154255],"bbox":[-61.2858544,15.4954255,-61.2458544,15.5354255]}
{"name":"Wesley","other_names":{"name:en":"Wesley","loc_name":"La Soie"},"display_name":"Wesley, Saint Andrew Parish, Dominica","address":{"village":"Wesley","state":"Saint Andrew Parish","ISO3166-2-lvl4":"DM-02","country":"Dominica","country_code":"dm"},"population":706,"osm_type":"node","osm_id":245916285,"type":"village","location":[-61.3107321,15.5637551],"bbox":[-61.3307321,15.5437551,-61.2907321,15.5837551]}
{"name":"Woodford Hill","display_name":"Woodford Hill, Saint Andrew Parish, Dominica","address":{"village":"Woodford Hill","state":"Saint Andrew Parish","ISO3166-2-lvl4":"DM-02","country":"Dominica","country_code":"dm"},"population":545,"osm_type":"node","osm_id":245923070,"type":"village","location":[-61.3311087,15.5796674],"bbox":[-61.3511087,15.5596674,-61.3111087,15.5996674]}
{"name":"Bellevue Rawle","display_name":"Bellevue Rawle, Roseau, City of Roseau, Saint George Parish, Dominica","address":{"hamlet":"Bellevue Rawle","town":"Roseau","county":"City of Roseau","state":"Saint George Parish","ISO3166-2-lvl4":"DM-04","country":"Dominica","country_code":"dm"},"osm_type":"node","osm_id":1557772183,"type":"hamlet","location":[-61.3749537,15.3094],"bbox":[-61.3949537,15.2894,-61.3549537,15.3294]}
{"name":"Copt Hall","display_name":"Copt Hall, Fond Cani, Saint George Parish, Dominica","address":{"hamlet":"Copt Hall","village":"Fond Cani","state":"Saint George Parish","ISO3166-2-lvl4":"DM-04","country":"Dominica","country_code":"dm"},"osm_type":"node","osm_id":245923884,"type":"hamlet","location":[-61.3579817,15.3132893],"bbox":[-61.3779817,15.2932893,-61.3379817,15.3332893]}
{"name":"Plaisance","display_name":"Plaisance, La Plaine, Saint Patrick Parish, Dominica","address":{"hamlet":"Plaisance","village":"La Plaine","state":"Saint Patrick Parish","ISO3166-2-lvl4":"DM-09","country":"Dominica","country_code":"dm"},"osm_type":"node","osm_id":10778757162,"type":"hamlet","location":[-61.2467544,15.3244507],"bbox":[-61.2667544,15.3044507,-61.2267544,15.3444507]}
{"name":"Wotten Waven","display_name":"Wotten Waven, Morne Prosper, Saint George Parish, Dominica","address":{"hamlet":"Wotten Waven","village":"Morne Prosper","state":"Saint George Parish","ISO3166-2-lvl4":"DM-04","country":"Dominica","country_code":"dm"},"osm_type":"node","osm_id":1562363443,"type":"hamlet","location":[-61.3393079,15.317618],"bbox":[-61.3593079,15.297618,-61.3193079,15.337618]}
{"name":"Carse O' Gowrie","display_name":"Carse O' Gowrie, La Plaine, Saint Patrick Parish, Dominica","address":{"hamlet":"Carse O' Gowrie","village":"La Plaine","state":"Saint Patrick Parish","ISO3166-2-lvl4":"DM-09","country":"Dominica","country_code":"dm"},"osm_type":"node","osm_id":10778757163,"type":"hamlet","location":[-61.2519927,15.3347018],"bbox":[-61.2719927,15.3147018,-61.2319927,15.3547018]}
{"name":"Concord","display_name":"Concord, Saint Andrew Parish, Dominica","address":{"hamlet":"Concord","state":"Saint Andrew Parish","ISO3166-2-lvl4":"DM-02","country":"Dominica","country_code":"dm"},"osm_type":"node","osm_id":246723067,"type":"hamlet","location":[-61.2775642,15.4921215],"bbox":[-61.2975642,15.4721215,-61.2575642,15.5121215]}
