{"name":"مدينة الكويرة المهجورة","other_names":{"name:ar":"مدينة الكويرة المهجورة","name:de":"Geisterstadt La Agüera","name:en":"La Güera Ghost Town","name:es":"Pueblo Fantasma de La Güera","name:fr":"Ville Fantôme de Lagouira"},"display_name":"مدينة الكويرة المهجورة, الكويرة, باشوية الكويرة, الجمهورية العربية الصحراوية الديمقراطية","address":{"town":"مدينة الكويرة المهجورة","county":"باشوية الكويرة","country":"الجمهورية العربية الصحراوية الديمقراطية","country_code":"eh"},"osm_type":"way","osm_id":39168615,"type":"town","location":[-17.08893413841362,20.83321275],"bbox":[-17.0937831,20.8283359,-17.0860289,20.8375089]}
{"name":"الكويرة","other_names":{"name:ar":"الكويرة","name:ca":"Güera","name:cs":"Al-Kuvíra","name:de":"La Gouira","name:en":"La Güera","name:es":"La Güera","name:fi":"La Güera","name:fr":"Lagouira","name:id":"La Güera","name:it":"La Guera","name:kk":"Агуэра","name:lt":"La Guera","name:nl":"La Gouèra","name:pl":"Al-Kuwajra","name:pt":"Lagouira","name:ru":"Агуэра","name:sv":"Lagouira","name:uk":"Агуера","name:ur":"لا گویرا","name:wa":"El Gwira","name:zh":"拉圭拉","alt_name":"الڭويرة;الگويرة;گويرة;لگويرة","name:ber":"ⵍⴳⵡⵉⵔⴰ","name:kab":"Tagwirt","name:zgh":"ⵍⴳⵡⵉⵔⴰ","alt_name:ar":"الاكوارة;اكوارة","alt_name:es":"La Agüera"},"display_name":"الكويرة, باشوية الكويرة, الجمهورية العربية الصحراوية الديمقراطية","address":{"town":"الكويرة","county":"باشوية الكويرة","country":"الجمهورية العربية الصحراوية الديمقراطية","country_code":"eh"},"osm_type":"node","osm_id":469179926,"type":"town","location":[-17.089121,20.833322],"bbox":[-17.129121,20.793322,-17.049121,20.873322]}
{"name":"أغونيت","other_names":{"name:ar":"أغونيت","name:de":"Aghwinit","name:en":"Aghwinit","name:es":"Agüenit","name:fa":"اغوانیت","name:fr":"Aghouinite","name:ks":"اغوانیت","name:ur":"اغوانیت","alt_name":"أڭونيت","name:azb":"اغوانیت","name:ber":"ⴰⵖⵡⴰⵏⵉⵜ","name:zgh":"ⴰⵖⵡⴰⵏⵉⵜ","alt_name:ar":"أغوانيت;أغوينيت"},"display_name":"أغونيت, Aghouinite ⴰⵖⵡⵉⵏⵉⵜ أغونيت, caïdat d'Aghouinite قيادة أغونيت, Cercle d'Aousserd دائرة أوسرد, الجمهورية العربية الصحراوية الديمقراطية","address":{"town":"أغونيت","city":"Aghouinite ⴰⵖⵡⵉⵏⵉⵜ أغونيت","municipality":"caïdat d'Aghouinite قيادة أغونيت","county":"Cercle d'Aousserd دائرة أوسرد","country":"الجمهورية العربية الصحراوية الديمقراطية","country_code":"eh"},"osm_type":"node","osm_id":4057098042,"type":"town","location":[-13.1393725,22.1841843],"bbox":[-13.1793725,22.1441843,-13.0993725,22.2241843]}
{"name":"تفاريتي","other_names":{"name:ar":"تفاريتي","name:de":"Tifariti","name:en":"Tifariti","name:es":"Tifariti","name:fa":"تیفاریتی","name:fr":"Tifariti","name:ks":"تیفاریتی","name:pl":"Tifariti","name:ur":"تیفاریتی","alt_name":"تيفاريتي","name:azb":"تیفاریتی","name:ber":"ⵜⵉⴼⴰⵔⵉⵜⵉ","name:ckb":"تیفاریتی","name:zgh":"ⵜⵉⴼⴰⵔⵉⵜⵉ","alt_name:ar":"تيفاريتي"},"display_name":"caïdat de Tifariti قيادة تفاريتي, Laâyoune-Sakia El Hamra ⵍⵄⵢⵓⵏ-ⵙⴰⵇⵢⴰ ⵍⵃⴰⵎⵔⴰ العيون الساقية الحمراء, الجمهورية العربية الصحراوية الديمقراطية","address":{"town":"caïdat de Tifariti قيادة تفاريتي","region":"Laâyoune-Sakia El Hamra ⵍⵄⵢⵓⵏ-ⵙⴰⵇⵢⴰ ⵍⵃⴰⵎⵔⴰ العيون الساقية الحمراء","ISO3166-2-lvl4":"MA-11","country":"الجمهورية العربية الصحراوية الديمقراطية","country_code":"eh"},"population":3000,"osm_type":"node","osm_id":2420942708,"type":"town","location":[-10.558991,26.159504],"bbox":[-10.598991,26.119504,-10.518991,26.199504]}
{"name":"بئر لحلو","other_names":{"name:ar":"بئر الحلوة","name:de":"Bi'r al-Hulwa","name:en":"Bir Lehlou","name:es":"Bir Lehlu","name:fa":"بئر لحلو","name:fr":"Bir Lehlou","name:hu":"Bir Lehlou","name:ru":"Бир-Лелу","alt_name":"بئر لحلو;بير لحلو;البئر الحلو","name:azb":"بئر لحلو","name:ber":"ⴱⵉⵔ ⵍⵃⵍⵓ","name:zgh":"ⴱⵉⵔ ⵍⵃⵍⵓ","alt_name:ar":"بئر لحلو;بير لحلو;البئر الحلو"},"display_name":"بئر لحلو, caïdat de Tifariti قيادة تفاريتي, Laâyoune-Sakia El Hamra ⵍⵄⵢⵓⵏ-ⵙⴰⵇⵢⴰ ⵍⵃⴰⵎⵔⴰ العيون الساقية الحمراء, الجمهورية العربية الصحراوية الديمقراطية","address":{"town":"بئر لحلو","region":"Laâyoune-Sakia El Hamra ⵍⵄⵢⵓⵏ-ⵙⴰⵇⵢⴰ ⵍⵃⴰⵎⵔⴰ العيون الساقية الحمراء","ISO3166-2-lvl4":"MA-11","country":"الجمهورية العربية الصحراوية الديمقراطية","country_code":"eh"},"osm_type":"node","osm_id":2000314674,"type":"town","location":[-9.57651,26.349372],"bbox":[-9.61651,26.309372,-9.53651,26.389372]}
{"name":"دوكاج","other_names":{"name:ar":"دوكاج","name:en":"Dougaj","name:es":"Duguech","name:fr":"Dougaj","name:ber":"ⴷⵓⴳⴰⵊ","name:kab":"دوگاج","name:zgh":"ⴷⵓⴳⴰⵊ"},"display_name":"دوكاج, Aghouinite ⴰⵖⵡⵉⵏⵉⵜ أغونيت, caïdat d'Aghouinite قيادة أغونيت, Cercle d'Aousserd دائرة أوسرد, الجمهورية العربية الصحراوية الديمقراطية","address":{"village":"دوكاج","city":"Aghouinite ⴰⵖⵡⵉⵏⵉⵜ أغونيت","municipality":"caïdat d'Aghouinite قيادة أغونيت","county":"Cercle d'Aousserd دائرة أوسرد","country":"الجمهورية العربية الصحراوية الديمقراطية","country_code":"eh"},"osm_type":"node","osm_id":4057121154,"type":"village","location":[-13.553134,22.055317],"bbox":[-13.573134,22.035317,-13.533134,22.075317]}
{"name":"مجيك","other_names":{"name:ar":"مجيك","name:de":"Midschik","name:en":"Mijik","name:es":"Miyec","name:fa":"میجک","name:fr":"Mijik","alt_name":"ميجيك;ميجك","name:azb":"میجک","name:ber":"ⵎⵉⵊⵉⴽ","name:zgh":"ⵎⵉⵊⵉⴽ","alt_name:ar":"ميجيك;ميجك"},"display_name":"Mijik ⵎⵉⵊⵉⴽ مجيك, caïdat de Mijik قيادة مجيك, cercle de Bir Anzarane دائرة بئر إنزران, Province d'Oued Ed-Dahab إقليم وادي الذهب, الجمهورية العربية الصحراوية الديمقراطية","address":{"village":"Mijik ⵎⵉⵊⵉⴽ مجيك","municipality":"caïdat de Mijik قيادة مجيك","county":"cercle de Bir Anzarane دائرة بئر إنزران","state_district":"Province d'Oued Ed-Dahab إقليم وادي الذهب","ISO3166-2-lvl5":"MA-OUD","country":"الجمهورية العربية الصحراوية الديمقراطية","country_code":"eh"},"osm_type":"node","osm_id":2812432577,"type":"village","location":[-12.8254976,23.4472382],"bbox":[-12.8454976,23.4272382,-12.8054976,23.4672382]}
{"display_name":"Mijik ⵎⵉⵊⵉⴽ مجيك, caïdat de Mijik قيادة مجيك, cercle de Bir Anzarane دائرة بئر إنزران, Province d'Oued Ed-Dahab إقليم وادي الذهب, الجمهورية العربية الصحراوية الديمقراطية","address":{"village":"Mijik ⵎⵉⵊⵉⴽ مجيك","municipality":"caïdat de Mijik قيادة مجيك","county":"cercle de Bir Anzarane دائرة بئر إنزران","state_district":"Province d'Oued Ed-Dahab إقليم وادي الذهب","ISO3166-2-lvl5":"MA-OUD","country":"الجمهورية العربية الصحراوية الديمقراطية","country_code":"eh"},"osm_type":"node","osm_id":5217818384,"type":"village","location":[-12.9720855,23.8508997],"bbox":[-12.9920855,23.8308997,-12.9520855,23.8708997]}
{"display_name":"Laâyoune-Sakia El Hamra ⵍⵄⵢⵓⵏ-ⵙⴰⵇⵢⴰ ⵍⵃⴰⵎⵔⴰ العيون الساقية الحمراء, الجمهورية العربية الصحراوية الديمقراطية","address":{"region":"Laâyoune-Sakia El Hamra ⵍⵄⵢⵓⵏ-ⵙⴰⵇⵢⴰ ⵍⵃⴰⵎⵔⴰ العيون الساقية الحمراء","ISO3166-2-lvl4":"MA-11","country":"الجمهورية العربية الصحراوية الديمقراطية","country_code":"eh"},"osm_type":"node","osm_id":4060194055,"type":"village","location":[-11.1209186,26.0649843],"bbox":[-11.1409186,26.0449843,-11.1009186,26.0849843]}
{"name":"بئر تيغیسیت","other_names":{"name:ar":"بئر تيغیسیت","name:en":"Bir Tighessit","name:es":"Bir Tiguisit","name:fr":"Bir Tighissit","name:ber":"ⴱⵉⵔ ⵜⵉⵖⵉⵙⵙⵉⵜ","name:zgh":"ⴱⵉⵔ ⵜⵉⵖⵉⵙⵙⵉⵜ","alt_name:ar":"بير تيغیسیت"},"display_name":"بئر تيغیسیت, caïdat de Tifariti قيادة تفاريتي, Laâyoune-Sakia El Hamra ⵍⵄⵢⵓⵏ-ⵙⴰⵇⵢⴰ ⵍⵃⴰⵎⵔⴰ العيون الساقية الحمراء, الجمهورية العربية الصحراوية الديمقراطية","address":{"village":"بئر تيغیسیت","town":"caïdat de Tifariti قيادة تفاريتي","region":"Laâyoune-Sakia El Hamra ⵍⵄⵢⵓⵏ-ⵙⴰⵇⵢⴰ ⵍⵃⴰⵎⵔⴰ العيون الساقية الحمراء","ISO3166-2-lvl4":"MA-11","country":"الجمهورية العربية الصحراوية الديمقراطية","country_code":"eh"},"osm_type":"node","osm_id":2420942706,"type":"village","location":[-10.4957612,26.0342605],"bbox":[-10.5157612,26.0142605,-10.4757612,26.0542605]}
{"name":"امهيريز","other_names":{"name:ar":"امهيريز","name:en":"Meharrize","name:es":"Meharrize","name:fr":"Mehaires","alt_name":"مهيريز;محيرس","name:ber":"ⵎⵀⵉⵔⵉⵣ","name:zgh":"ⵎⵀⵉⵔⵉⵣ","alt_name:ar":"مهيريز;محيرس","alt_name:es":"Mheiriz;Mehaires;Meheiris"},"display_name":"امهيريز, Laâyoune-Sakia El Hamra ⵍⵄⵢⵓⵏ-ⵙⴰⵇⵢⴰ ⵍⵃⴰⵎⵔⴰ العيون الساقية الحمراء, الجمهورية العربية الصحراوية الديمقراطية","address":{"village":"امهيريز","region":"Laâyoune-Sakia El Hamra ⵍⵄⵢⵓⵏ-ⵙⴰⵇⵢⴰ ⵍⵃⴰⵎⵔⴰ العيون الساقية الحمراء","ISO3166-2-lvl4":"MA-11","country":"الجمهورية العربية الصحراوية الديمقراطية","country_code":"eh"},"osm_type":"node","osm_id":4057109756,"type":"village","location":[-11.0691899,26.1476922],"bbox":[-11.0891899,26.1276922,-11.0491899,26.1676922]}
{"name":"نقطة الأوبرا","other_names":{"name:ar":"نقطة الأوبرا","name:es":"Punta La Opera","name:fr":"Pointe de l´Opéra"},"display_name":"نقطة الأوبرا, الجمهورية العربية الصحراوية الديمقراطية","address":{"hamlet":"نقطة الأوبرا","country":"الجمهورية العربية الصحراوية الديمقراطية","country_code":"eh"},"osm_type":"node","osm_id":3301851713,"type":"hamlet","location":[-17.0585352,20.7798153],"bbox":[-17.0785352,20.7598153,-17.0385352,20.7998153]}
{"name":"نقطة شيشي","other_names":{"name:ar":"نقطة شيشي","name:es":"Punta Chichi","name:fr":"Pointe Chichy"},"display_name":"نقطة شيشي, الجمهورية العربية الصحراوية الديمقراطية","address":{"hamlet":"نقطة شيشي","country":"الجمهورية العربية الصحراوية الديمقراطية","country_code":"eh"},"osm_type":"node","osm_id":3301851733,"type":"hamlet","location":[-17.0659959,20.7911372],"bbox":[-17.0859959,20.7711372,-17.0459959,20.8111372]}
{"name":"نقطة بورتا إليا","other_names":{"name:ar":"نقطة بورتا إليا","name:es":"Punta Porta Ilia","name:fr":"Pointe Porta Ilia"},"display_name":"نقطة بورتا إليا, الكويرة, باشوية الكويرة, الجمهورية العربية الصحراوية الديمقراطية","address":{"hamlet":"نقطة بورتا إليا","town":"الكويرة","county":"باشوية الكويرة","country":"الجمهورية العربية الصحراوية الديمقراطية","country_code":"eh"},"osm_type":"node","osm_id":3301851714,"type":"hamlet","location":[-17.0644585,20.7905266],"bbox":[-17.0844585,20.7705266,-17.0444585,20.8105266]}
{"name":"رأس والينا","other_names":{"name:ar":"رأس والينا","name:fr":"Cap Oualeina"},"display_name":"رأس والينا, الجمهورية العربية الصحراوية الديمقراطية","address":{"hamlet":"رأس والينا","country":"الجمهورية العربية الصحراوية الديمقراطية","country_code":"eh"},"osm_type":"node","osm_id":3301716674,"type":"hamlet","location":[-17.0850831,20.9023187],"bbox":[-17.1050831,20.8823187,-17.0650831,20.9223187]}
{"name":"نقطة الكركند","other_names":{"name:ar":"نقطة الكركند","name:es":"Punta Las Langostas","name:fr":"Pointe de Langoustes"},"display_name":"نقطة الكركند, الكويرة, باشوية الكويرة, الجمهورية العربية الصحراوية الديمقراطية","address":{"hamlet":"نقطة الكركند","town":"الكويرة","county":"باشوية الكويرة","country":"الجمهورية العربية الصحراوية الديمقراطية","country_code":"eh"},"osm_type":"node","osm_id":3301851715,"type":"hamlet","location":[-17.0713425,20.8045582],"bbox":[-17.0913425,20.7845582,-17.0513425,20.8245582]}
{"name":"نقطة النسر","other_names":{"name:ar":"نقطة النسر","name:es":"Punta El Aguila","name:fr":"Pointe d' El Aguila"},"display_name":"نقطة النسر, الكويرة, باشوية الكويرة, الجمهورية العربية الصحراوية الديمقراطية","address":{"hamlet":"نقطة النسر","town":"الكويرة","county":"باشوية الكويرة","country":"الجمهورية العربية الصحراوية الديمقراطية","country_code":"eh"},"osm_type":"node","osm_id":3301851724,"type":"hamlet","location":[-17.0774321,20.815006],"bbox":[-17.0974321,20.795006,-17.0574321,20.835006]}
{"name":"رأس نواذيبو خاطئ","other_names":{"name:ar":"رأس نواذيبو خاطئ","name:es":"Falso Cabo Blanco","name:fr":"Faux Cap Blanc"},"display_name":"رأس نواذيبو خاطئ, الجمهورية العربية الصحراوية الديمقراطية","address":{"hamlet":"رأس نواذيبو خاطئ","country":"الجمهورية العربية الصحراوية الديمقراطية","country_code":"eh"},"osm_type":"node","osm_id":3301809141,"type":"hamlet","location":[-17.1023135,20.8348142],"bbox":[-17.1223135,20.8148142,-17.0823135,20.8548142]}
{"name":"رأس دوبوشاج","other_names":{"name:ar":"رأس دوبوشاج","name:de":"Kap Dubouchage","name:es":"Cabo Dubouchage","name:fr":"Cap Dubouchage"},"display_name":"رأس دوبوشاج, الجمهورية العربية الصحراوية الديمقراطية","address":{"hamlet":"رأس دوبوشاج","country":"الجمهورية العربية الصحراوية الديمقراطية","country_code":"eh"},"osm_type":"node","osm_id":469182765,"type":"hamlet","location":[-17.1046117,20.8439352],"bbox":[-17.1246117,20.8239352,-17.0846117,20.8639352]}
{"name":"Atuifat أتوإفت","other_names":{"name:ar":"أتوإفت","name:de":"Atuifat","name:en":"Atuifat","name:es":"Atuifat","name:fr":"Atouifat","alt_name":"Afuifat","alt_name:es":"Afuifat"},"display_name":"Atuifat أتوإفت, الجمهورية العربية الصحراوية الديمقراطية","address":{"hamlet":"Atuifat أتوإفت","country":"الجمهورية العربية الصحراوية الديمقراطية","country_code":"eh"},"osm_type":"node","osm_id":7739884859,"type":"hamlet","location":[-16.866667,21.35],"bbox":[-16.886667,21.33,-16.846667,21.37]}
{"name":"زوك","other_names":{"name:ar":"زوك","name:de":"Zuk","name:en":"Zuk","name:es":"Zug","name:fa":"زوک","name:fr":"Zoug","alt_name":"الزوگ;زوگ;زوڭ","name:azb":"زوک","name:ber":"ⵣⵓⴳ","name:zgh":"ⵣⵓⴳ","alt_name:ar":"الزوك"},"display_name":"Zoug ⵣⵓⴳ زوك, caïdat de Zoug قيادة زوك, Cercle d'Aousserd دائرة أوسرد, الجمهورية العربية الصحراوية الديمقراطية","address":{"hamlet":"Zoug ⵣⵓⴳ زوك","municipality":"caïdat de Zoug قيادة زوك","county":"Cercle d'Aousserd دائرة أوسرد","country":"الجمهورية العربية الصحراوية الديمقراطية","country_code":"eh"},"population":833,"osm_type":"node","osm_id":2812496101,"type":"hamlet","location":[-14.1476984,21.6132782],"bbox":[-14.1676984,21.5932782,-14.1276984,21.6332782]}
{"name":"Falaklak","other_names":{"name:ar":"فلكلك","name:en":"Falaklak","name:es":"Feleclec"},"display_name":"Falaklak, Zoug ⵣⵓⴳ زوك, caïdat de Zoug قيادة زوك, Cercle d'Aousserd دائرة أوسرد, الجمهورية العربية الصحراوية الديمقراطية","address":{"hamlet":"Falaklak","municipality":"caïdat de Zoug قيادة زوك","county":"Cercle d'Aousserd دائرة أوسرد","country":"الجمهورية العربية الصحراوية الديمقراطية","country_code":"eh"},"osm_type":"node","osm_id":7734401147,"type":"hamlet","location":[-13.6244,21.789153],"bbox":[-13.6444,21.769153,-13.6044,21.809153]}
{"display_name":"Aghouinite ⴰⵖⵡⵉⵏⵉⵜ أغونيت, caïdat d'Aghouinite قيادة أغونيت, Cercle d'Aousserd دائرة أوسرد, الجمهورية العربية الصحراوية الديمقراطية","address":{"city":"Aghouinite ⴰⵖⵡⵉⵏⵉⵜ أغونيت","municipality":"caïdat d'Aghouinite قيادة أغونيت","county":"Cercle d'Aousserd دائرة أوسرد","country":"الجمهورية العربية الصحراوية الديمقراطية","country_code":"eh"},"osm_type":"node","osm_id":3805559873,"type":"hamlet","location":[-13.5971866,22.0355367],"bbox":[-13.6171866,22.0155367,-13.5771866,22.0555367]}
{"display_name":"Zoug ⵣⵓⴳ زوك, caïdat de Zoug قيادة زوك, Cercle d'Aousserd دائرة أوسرد, الجمهورية العربية الصحراوية الديمقراطية","address":{"hamlet":"Zoug ⵣⵓⴳ زوك","municipality":"caïdat de Zoug قيادة زوك","county":"Cercle d'Aousserd دائرة أوسرد","country":"الجمهورية العربية الصحراوية الديمقراطية","country_code":"eh"},"osm_type":"node","osm_id":3811897926,"type":"hamlet","location":[-13.7236207,21.88166],"bbox":[-13.7436207,21.86166,-13.7036207,21.90166]}
{"display_name":"Aghouinite ⴰⵖⵡⵉⵏⵉⵜ أغونيت, caïdat d'Aghouinite قيادة أغونيت, Cercle d'Aousserd دائرة أوسرد, الجمهورية العربية الصحراوية الديمقراطية","address":{"city":"Aghouinite ⴰⵖⵡⵉⵏⵉⵜ أغونيت","municipality":"caïdat d'Aghouinite قيادة أغونيت","county":"Cercle d'Aousserd دائرة أوسرد","country":"الجمهورية العربية الصحراوية الديمقراطية","country_code":"eh"},"osm_type":"node","osm_id":3811938833,"type":"hamlet","location":[-13.5899551,22.09707],"bbox":[-13.6099551,22.07707,-13.5699551,22.11707]}
{"name":"Sebjet Lehnusa","other_names":{"name:es":"Sebjet Lehnusa"},"display_name":"Sebjet Lehnusa, Aghouinite ⴰⵖⵡⵉⵏⵉⵜ أغونيت, caïdat d'Aghouinite قيادة أغونيت, Cercle d'Aousserd دائرة أوسرد, الجمهورية العربية الصحراوية الديمقراطية","address":{"natural":"Sebjet Lehnusa","hamlet":"Sebjet Lehnusa","city":"Aghouinite ⴰⵖⵡⵉⵏⵉⵜ أغونيت","municipality":"caïdat d'Aghouinite قيادة أغونيت","county":"Cercle d'Aousserd دائرة أوسرد","country":"الجمهورية العربية الصحراوية الديمقراطية","country_code":"eh"},"osm_type":"node","osm_id":3812023900,"type":"desert","location":[-13.66912,22.77594],"bbox":[-13.66917,22.77589,-13.66907,22.77599]}
{"name":"Sebjet Galb Um Dueiat","display_name":"Sebjet Galb Um Dueiat, Aghouinite ⴰⵖⵡⵉⵏⵉⵜ أغونيت, caïdat d'Aghouinite قيادة أغونيت, Cercle d'Aousserd دائرة أوسرد, الجمهورية العربية الصحراوية الديمقراطية","address":{"natural":"Sebjet Galb Um Dueiat","hamlet":"Sebjet Galb Um Dueiat","city":"Aghouinite ⴰⵖⵡⵉⵏⵉⵜ أغونيت","municipality":"caïdat d'Aghouinite قيادة أغونيت","county":"Cercle d'Aousserd دائرة أوسرد","country":"الجمهورية العربية الصحراوية الديمقراطية","country_code":"eh"},"osm_type":"node","osm_id":3812023899,"type":"desert","location":[-13.56999,22.82002],"bbox":[-13.57004,22.81997,-13.56994,22.82007]}
{"display_name":"Tifariti ⵜⵉⴼⴰⵔⵉⵜⵉ تفاريتي, caïdat de Tifariti قيادة تفاريتي, Laâyoune-Sakia El Hamra ⵍⵄⵢⵓⵏ-ⵙⴰⵇⵢⴰ ⵍⵃⴰⵎⵔⴰ العيون الساقية الحمراء, الجمهورية العربية الصحراوية الديمقراطية","address":{"city_district":"Tifariti ⵜⵉⴼⴰⵔⵉⵜⵉ تفاريتي","town":"caïdat de Tifariti قيادة تفاريتي","region":"Laâyoune-Sakia El Hamra ⵍⵄⵢⵓⵏ-ⵙⴰⵇⵢⴰ ⵍⵃⴰⵎⵔⴰ العيون الساقية الحمراء","ISO3166-2-lvl4":"MA-11","country":"الجمهورية العربية الصحراوية الديمقراطية","country_code":"eh"},"osm_type":"node","osm_id":3804457243,"type":"hamlet","location":[-10.5738238,26.154218],"bbox":[-10.5938238,26.134218,-10.5538238,26.174218]}
{"display_name":"Laâyoune-Sakia El Hamra ⵍⵄⵢⵓⵏ-ⵙⴰⵇⵢⴰ ⵍⵃⴰⵎⵔⴰ العيون الساقية الحمراء, الجمهورية العربية الصحراوية الديمقراطية","address":{"region":"Laâyoune-Sakia El Hamra ⵍⵄⵢⵓⵏ-ⵙⴰⵇⵢⴰ ⵍⵃⴰⵎⵔⴰ العيون الساقية الحمراء","ISO3166-2-lvl4":"MA-11","country":"الجمهورية العربية الصحراوية الديمقراطية","country_code":"eh"},"osm_type":"node","osm_id":3804332304,"type":"hamlet","location":[-11.0796441,26.1013441],"bbox":[-11.0996441,26.0813441,-11.0596441,26.1213441]}
{"display_name":"Laâyoune-Sakia El Hamra ⵍⵄⵢⵓⵏ-ⵙⴰⵇⵢⴰ ⵍⵃⴰⵎⵔⴰ العيون الساقية الحمراء, الجمهورية العربية الصحراوية الديمقراطية","address":{"region":"Laâyoune-Sakia El Hamra ⵍⵄⵢⵓⵏ-ⵙⴰⵇⵢⴰ ⵍⵃⴰⵎⵔⴰ العيون الساقية الحمراء","ISO3166-2-lvl4":"MA-11","country":"الجمهورية العربية الصحراوية الديمقراطية","country_code":"eh"},"osm_type":"node","osm_id":3804332322,"type":"hamlet","location":[-11.0162136,26.1039666],"bbox":[-11.0362136,26.0839666,-10.9962136,26.1239666]}
{"display_name":"Tifariti ⵜⵉⴼⴰⵔⵉⵜⵉ تفاريتي, caïdat de Tifariti قيادة تفاريتي, Laâyoune-Sakia El Hamra ⵍⵄⵢⵓⵏ-ⵙⴰⵇⵢⴰ ⵍⵃⴰⵎⵔⴰ العيون الساقية الحمراء, الجمهورية العربية الصحراوية الديمقراطية","address":{"city_district":"Tifariti ⵜⵉⴼⴰⵔⵉⵜⵉ تفاريتي","town":"caïdat de Tifariti قيادة تفاريتي","region":"Laâyoune-Sakia El Hamra ⵍⵄⵢⵓⵏ-ⵙⴰⵇⵢⴰ ⵍⵃⴰⵎⵔⴰ العيون الساقية الحمراء","ISO3166-2-lvl4":"MA-11","country":"الجمهورية العربية الصحراوية الديمقراطية","country_code":"eh"},"osm_type":"node","osm_id":3693022780,"type":"hamlet","location":[-10.4973186,26.0601901],"bbox":[-10.5173186,26.0401901,-10.4773186,26.0801901]}
{"display_name":"Tifariti ⵜⵉⴼⴰⵔⵉⵜⵉ تفاريتي, caïdat de Tifariti قيادة تفاريتي, Laâyoune-Sakia El Hamra ⵍⵄⵢⵓⵏ-ⵙⴰⵇⵢⴰ ⵍⵃⴰⵎⵔⴰ العيون الساقية الحمراء, الجمهورية العربية الصحراوية الديمقراطية","address":{"city_district":"Tifariti ⵜⵉⴼⴰⵔⵉⵜⵉ تفاريتي","town":"caïdat de Tifariti قيادة تفاريتي","region":"Laâyoune-Sakia El Hamra ⵍⵄⵢⵓⵏ-ⵙⴰⵇⵢⴰ ⵍⵃⴰⵎⵔⴰ العيون الساقية الحمراء","ISO3166-2-lvl4":"MA-11","country":"الجمهورية العربية الصحراوية الديمقراطية","country_code":"eh"},"osm_type":"node","osm_id":3804480687,"type":"hamlet","location":[-10.5306234,26.1459213],"bbox":[-10.5506234,26.1259213,-10.5106234,26.1659213]}
{"display_name":"Laâyoune-Sakia El Hamra ⵍⵄⵢⵓⵏ-ⵙⴰⵇⵢⴰ ⵍⵃⴰⵎⵔⴰ العيون الساقية الحمراء, الجمهورية العربية الصحراوية الديمقراطية","address":{"region":"Laâyoune-Sakia El Hamra ⵍⵄⵢⵓⵏ-ⵙⴰⵇⵢⴰ ⵍⵃⴰⵎⵔⴰ العيون الساقية الحمراء","ISO3166-2-lvl4":"MA-11","country":"الجمهورية العربية الصحراوية الديمقراطية","country_code":"eh"},"osm_type":"node","osm_id":3804332585,"type":"hamlet","location":[-11.0636382,26.1800763],"bbox":[-11.0836382,26.1600763,-11.0436382,26.2000763]}
