{"name":"Stanley","other_names":{"name:ar":"ستانلي","name:az":"Stenli","name:be":"Порт-Стэнлі","name:bg":"Порт Стенли","name:el":"Στάνλεϋ","name:en":"Stanley","name:eo":"Stanlejo","name:es":"Puerto Argentino","name:fr":"Port Stanley","name:gv":"Stanley","name:he":"סטנלי","name:hr":"Stanley","name:hy":"Պորտ Սթենլի","name:id":"Stanley","name:ja":"スタンリー","name:ko":"스탠리","name:lt":"Stenlis","name:lv":"Stenli","name:mr":"पोर्ट स्टॅन्ली","name:os":"Порт-Стэнли","name:ru":"Стэнли","name:uk":"Порт-Стенлі","name:ur":"اسٹینلے","name:zh":"斯坦利港","alt_name":"Port Stanley","alt_name:en":"Port Stanley","name:bat-smg":"Port Stenlis","name:be-tarask":"Стэнлі"},"display_name":"Stanley, Falkland Islands","address":{"city":"Stanley","country":"Falkland Islands","country_code":"fk"},"population":2460,"osm_type":"relation","osm_id":12764972,"type":"city","location":[-57.856525,-51.6930616],"bbox":[-57.9134847,-51.7018744,-57.7913046,-51.6861263]}
{"name":"Stanley","other_names":{"name:ar":"ستانلي","name:az":"Stenli","name:be":"Порт-Стэнлі","name:el":"Στάνλεϋ","name:en":"Stanley","name:eo":"Stanlejo","name:es":"Puerto Argentino","name:fr":"Port Stanley","name:gv":"Stanley","name:he":"סטנלי","name:hr":"Stanley","name:hy":"Պորտ Սթենլի","name:ja":"スタンリー","name:ko":"스탠리","name:lv":"Stenli","name:mr":"पोर्ट स्टॅन्ली","name:os":"Порт-Стэнли","name:ru":"Стэнли","name:uk":"Порт-Стенлі","name:ur":"اسٹینلے","name:zh":"斯坦利港","alt_name":"Port Stanley","alt_name:en":"Port Stanley","name:bat-smg":"Port Stenlis","name:be-tarask":"Стэнлі"},"display_name":"Stanley, Falkland Islands","address":{"city":"Stanley","country":"Falkland Islands","country_code":"fk"},"population":2460,"osm_type":"node","osm_id":1791553385,"type":"city","location":[-57.856525,-51.6930616],"bbox":[-58.016525,-51.8530616,-57.696525,-51.5330616]}
{"name":"North Arm","other_names":{"name:en":"North Arm","name:mk":"Норт Арм","alt_name":"North Arm Settlement"},"display_name":"North Arm, Falkland Islands","address":{"village":"North Arm","country":"Falkland Islands","country_code":"fk"},"osm_type":"way","osm_id":172133237,"type":"village","location":[-59.3678096,-52.1230934],"bbox":[-59.3712128,-52.1267867,-59.3652424,-52.1144944]}
{"name":"Fox Bay","other_names":{"name:en":"Fox Bay","name:mk":"Фокс Беј","alt_name":"Fox Bay Settlement"},"display_name":"Fox Bay, Falkland Islands","address":{"village":"Fox Bay","country":"Falkland Islands","country_code":"fk"},"osm_type":"relation","osm_id":6535964,"type":"village","location":[-60.0711277,-51.955849],"bbox":[-60.094744,-51.9584498,-60.0672778,-51.9474823]}
{"name":"Chartres","other_names":{"name:en":"Chartres","name:mk":"Шартр","alt_name":"Chartres Settlement"},"display_name":"Chartres, Falkland Islands","address":{"village":"Chartres","hamlet":"Chartres","country":"Falkland Islands","country_code":"fk"},"osm_type":"way","osm_id":174584719,"type":"village","location":[-60.07896388986414,-51.71128405],"bbox":[-60.0863743,-51.7137374,-60.0726177,-51.7089068]}
{"name":"Saunders Island Settlement","other_names":{"name:en":"Saunders Island Settlement","name:mk":"Сондерс Ајленд Сетлмент"},"display_name":"Saunders Island Settlement, Saunders Island, Falkland Islands","address":{"village":"Saunders Island Settlement","farm":"Saunders Island","country":"Falkland Islands","country_code":"fk"},"osm_type":"way","osm_id":189036473,"type":"village","location":[-60.08682184936532,-51.36539245],"bbox":[-60.0902786,-51.3680439,-60.082228,-51.3627969]}
{"name":"Pebble Island Settlement","other_names":{"name:en":"Pebble Island Settlement","name:mk":"Пебл Ајленд Сетлмент"},"display_name":"Pebble Island Settlement, Pebble Island, Falkland Islands","address":{"village":"Pebble Island Settlement","farm":"Pebble Island","country":"Falkland Islands","country_code":"fk"},"osm_type":"way","osm_id":189036474,"type":"village","location":[-59.604447374647066,-51.31640985],"bbox":[-59.6073425,-51.3196096,-59.5991907,-51.3136947]}
{"name":"Greenfield","other_names":{"name:en":"Greenfield","name:es":"Campo Verde","alt_name":"Camp Verde","alt_name:en":"The Verde House"},"display_name":"Greenfield, Falkland Islands","address":{"village":"Greenfield","country":"Falkland Islands","country_code":"fk"},"osm_type":"way","osm_id":172537879,"type":"village","location":[-58.91388362245297,-51.5662522],"bbox":[-58.9154582,-51.5672784,-58.9122871,-51.5654495]}
{"name":"Walker Creek","other_names":{"name:en":"Walker Creek","name:mk":"Вокер Крик"},"display_name":"Walker Creek, Falkland Islands","address":{"village":"Walker Creek","country":"Falkland Islands","country_code":"fk"},"osm_type":"way","osm_id":446172378,"type":"village","location":[-58.77670853146551,-51.9682326],"bbox":[-58.782367,-51.9699378,-58.7714611,-51.9663885]}
{"name":"San Carlos","other_names":{"name:en":"San Carlos","name:mk":"Сан Карлос","alt_name":"San Carlos Settlement"},"display_name":"San Carlos, Falkland Islands","address":{"village":"San Carlos","country":"Falkland Islands","country_code":"fk"},"osm_type":"way","osm_id":172012385,"type":"village","location":[-59.03163878653517,-51.5750359],"bbox":[-59.0363828,-51.5771751,-59.027947,-51.5729312]}
{"name":"Johnson's Harbour","other_names":{"name:en":"Johnson's Harbour","name:es":"Puerto Johnson","name:mk":"Џонсонс Харбор","alt_name":"Johnson Harbour Settlement"},"display_name":"Johnson's Harbour, Falkland Islands","address":{"village":"Johnson's Harbour","country":"Falkland Islands","country_code":"fk"},"osm_type":"way","osm_id":172003149,"type":"village","location":[-58.0390437275348,-51.4998442],"bbox":[-58.0423974,-51.5027663,-58.0360177,-51.4969788]}
{"name":"North Arm","display_name":"North Arm, Falkland Islands","address":{"village":"North Arm","country":"Falkland Islands","country_code":"fk"},"osm_type":"node","osm_id":8398339871,"type":"village","location":[-59.3678096,-52.1230934],"bbox":[-59.3878096,-52.1430934,-59.3478096,-52.1030934]}
{"name":"Fox Bay","display_name":"Fox Bay, Falkland Islands","address":{"village":"Fox Bay","country":"Falkland Islands","country_code":"fk"},"osm_type":"node","osm_id":8398339870,"type":"village","location":[-60.0711277,-51.955849],"bbox":[-60.0911277,-51.975849,-60.0511277,-51.935849]}
{"name":"Hill Cove","display_name":"Hill Cove, Falkland Islands","address":{"village":"Hill Cove","country":"Falkland Islands","country_code":"fk"},"osm_type":"node","osm_id":8398339872,"type":"village","location":[-60.1323894,-51.5040399],"bbox":[-60.1523894,-51.5240399,-60.1123894,-51.4840399]}
{"name":"Mare Harbour","other_names":{"name:en":"Mare Harbour","name:mk":"Мер Харбор"},"display_name":"Mare Harbour, Falkland Islands","address":{"village":"Mare Harbour","country":"Falkland Islands","country_code":"fk"},"osm_type":"node","osm_id":139144962,"type":"village","location":[-58.4418583,-51.8947682],"bbox":[-58.4618583,-51.9147682,-58.4218583,-51.8747682]}
{"name":"Port Howard","other_names":{"name:en":"Port Howard","name:es":"Puerto Mitre","name:it":"Puerto Mitre / Port Howard","name:ru":"Пуэрто-Митре / Порт-Ховард"},"display_name":"Port Howard, Falkland Islands","address":{"village":"Port Howard","country":"Falkland Islands","country_code":"fk"},"osm_type":"node","osm_id":8398339869,"type":"village","location":[-59.5205206,-51.6117266],"bbox":[-59.5405206,-51.6317266,-59.5005206,-51.5917266]}
{"name":"Goose Green","other_names":{"name:en":"Goose Green","name:mk":"Гус Грин","alt_name":"Goose Green Settlement"},"display_name":"Goose Green, Falkland Islands","address":{"village":"Goose Green","country":"Falkland Islands","country_code":"fk"},"population":40,"osm_type":"node","osm_id":139144897,"type":"village","location":[-58.9728075,-51.8276788],"bbox":[-58.9928075,-51.8476788,-58.9528075,-51.8076788]}
{"name":"Onion Range","display_name":"Onion Range, Falkland Islands","address":{"village":"Onion Range","country":"Falkland Islands","country_code":"fk"},"osm_type":"node","osm_id":10902164493,"type":"village","location":[-58.6257542,-51.6955893],"bbox":[-58.6457542,-51.7155893,-58.6057542,-51.6755893]}
{"name":"Bombilla","display_name":"Bombilla, Falkland Islands","address":{"village":"Bombilla","country":"Falkland Islands","country_code":"fk"},"osm_type":"node","osm_id":139145004,"type":"village","location":[-58.7292133,-51.5271801],"bbox":[-58.7492133,-51.5471801,-58.7092133,-51.5071801]}
{"name":"Teal Inlet","display_name":"Teal Inlet, Falkland Islands","address":{"village":"Teal Inlet","country":"Falkland Islands","country_code":"fk"},"osm_type":"node","osm_id":6880146964,"type":"village","location":[-58.4375197,-51.5576766],"bbox":[-58.4575197,-51.5776766,-58.4175197,-51.5376766]}
{"name":"Fitzroy","display_name":"Fitzroy, Falkland Islands","address":{"village":"Fitzroy","country":"Falkland Islands","country_code":"fk"},"osm_type":"node","osm_id":6875757726,"type":"village","location":[-58.2306992,-51.786739],"bbox":[-58.2506992,-51.806739,-58.2106992,-51.766739]}
{"name":"Speedwell Island Settlement","display_name":"Speedwell Island Settlement, Falkland Islands","address":{"hamlet":"Speedwell Island Settlement","country":"Falkland Islands","country_code":"fk"},"osm_type":"way","osm_id":436664031,"type":"hamlet","location":[-59.6893293986902,-52.219889699999996],"bbox":[-59.6947637,-52.2225253,-59.6846572,-52.2180663]}
{"name":"Port Stephens","other_names":{"name:en":"Port Stephens","name:mk":"Порт Стивенс"},"display_name":"Port Stephens, Falkland Islands","address":{"hamlet":"Port Stephens","suburb":"Port Stephens","country":"Falkland Islands","country_code":"fk"},"osm_type":"way","osm_id":184436604,"type":"hamlet","location":[-60.83285279003204,-52.0969817],"bbox":[-60.8374495,-52.0993711,-60.8278648,-52.0954609]}
{"name":"Stoney Ridge","display_name":"Stoney Ridge, Falkland Islands","address":{"hamlet":"Stoney Ridge","country":"Falkland Islands","country_code":"fk"},"osm_type":"way","osm_id":184436606,"type":"hamlet","location":[-60.490376250837855,-52.014545350000006],"bbox":[-60.4941385,-52.0159392,-60.4860641,-52.0133724]}
{"name":"Weddell Settlement","display_name":"Weddell Settlement, Falkland Islands","address":{"hamlet":"Weddell Settlement","country":"Falkland Islands","country_code":"fk"},"osm_type":"way","osm_id":184436605,"type":"hamlet","location":[-60.91016778147218,-51.89306175],"bbox":[-60.9152906,-51.8967779,-60.9045614,-51.8897274]}
{"name":"Fox Bay West","other_names":{"name:en":"Fox Bay West","alt_name":"Fox Bay West Settlement"},"display_name":"Fox Bay West, Fox Bay, Falkland Islands","address":{"hamlet":"Fox Bay West","village":"Fox Bay","country":"Falkland Islands","country_code":"fk"},"osm_type":"way","osm_id":174855647,"type":"hamlet","location":[-60.090626082152085,-51.95180085],"bbox":[-60.094744,-51.9553677,-60.0847006,-51.9474823]}
{"name":"South Harbour","other_names":{"name:en":"South Harbour","alt_name":"South Harbour House"},"display_name":"South Harbour, Falkland Islands","address":{"hamlet":"South Harbour","country":"Falkland Islands","country_code":"fk"},"osm_type":"way","osm_id":184436600,"type":"hamlet","location":[-60.74509822937091,-52.005324200000004],"bbox":[-60.7495146,-52.0089084,-60.7400819,-52.001958]}
{"name":"Shallow Harbour","display_name":"Shallow Harbour, Shallow Harbour Farm, Falkland Islands","address":{"hamlet":"Shallow Harbour","farm":"Shallow Harbour Farm","country":"Falkland Islands","country_code":"fk"},"osm_type":"way","osm_id":174597170,"type":"hamlet","location":[-60.5229484332617,-51.745942150000005],"bbox":[-60.5263304,-51.7480061,-60.5196571,-51.7448309]}
{"name":"Dunnose Head","other_names":{"name:en":"Dunnose Head","name:mk":"Даноуз Хед","alt_name":"Dunnose Head Settlement"},"display_name":"Dunnose Head, Falkland Islands","address":{"hamlet":"Dunnose Head","country":"Falkland Islands","country_code":"fk"},"osm_type":"way","osm_id":174597169,"type":"hamlet","location":[-60.42052655712479,-51.756437],"bbox":[-60.422339,-51.7583336,-60.4157351,-51.7545278]}
{"name":"Keppel Settlement","other_names":{"name:en":"Keppel Settlement","alt_name":"Cranmer Station"},"display_name":"Keppel Settlement, Falkland Islands","address":{"hamlet":"Keppel Settlement","country":"Falkland Islands","country_code":"fk"},"osm_type":"way","osm_id":436526320,"type":"hamlet","location":[-59.94266097308577,-51.331865199999996],"bbox":[-59.9444747,-51.3328091,-59.9408859,-51.3308316]}
{"name":"Shallow Bay","display_name":"Shallow Bay, Falkland Islands","address":{"hamlet":"Shallow Bay","suburb":"Shallow Bay","country":"Falkland Islands","country_code":"fk"},"osm_type":"way","osm_id":174647807,"type":"hamlet","location":[-59.99664105496825,-51.4229984],"bbox":[-59.9984765,-51.4243702,-59.9948643,-51.421912]}
{"name":"Fox Bay East","other_names":{"name:en":"Fox Bay East","alt_name":"Fox Bay East Settlement"},"display_name":"Fox Bay East, Fox Bay, Falkland Islands","address":{"hamlet":"Fox Bay East","village":"Fox Bay","country":"Falkland Islands","country_code":"fk"},"osm_type":"way","osm_id":174855649,"type":"hamlet","location":[-60.07124095952632,-51.95498555],"bbox":[-60.0763911,-51.9584498,-60.0672778,-51.9514797]}
{"name":"Wreck House","other_names":{"name:en":"Wreck House","alt_name":"Wreck Point House"},"display_name":"Wreck House, Falkland Islands","address":{"hamlet":"Wreck House","country":"Falkland Islands","country_code":"fk"},"osm_type":"way","osm_id":188910775,"type":"hamlet","location":[-59.08336707376937,-51.57747215],"bbox":[-59.0861658,-51.5788204,-59.0806349,-51.5762235]}
{"name":"Elephant Beach","display_name":"Elephant Beach, Falkland Islands","address":{"hamlet":"Elephant Beach","country":"Falkland Islands","country_code":"fk"},"osm_type":"way","osm_id":172528498,"type":"hamlet","location":[-58.7609800105729,-51.3856579],"bbox":[-58.7646726,-51.3880191,-58.7576526,-51.3841406]}
{"name":"Port San Carlos","other_names":{"name:en":"Port San Carlos","name:mk":"Порт Сан Карлос","alt_name":"KC","alt_name:en":"Port San Carlos Settlement"},"display_name":"Port San Carlos, Falkland Islands","address":{"hamlet":"Port San Carlos","country":"Falkland Islands","country_code":"fk"},"osm_type":"way","osm_id":172012392,"type":"hamlet","location":[-58.99130556332977,-51.50262705],"bbox":[-58.9984654,-51.5053481,-58.9853449,-51.4999084]}
{"name":"Bluff Cove","other_names":{"name:en":"Bluff Cove","name:mk":"Блаф Коув","alt_name":"Bluff Cove Settlement"},"display_name":"Bluff Cove, Falkland Islands","address":{"hamlet":"Bluff Cove","country":"Falkland Islands","country_code":"fk"},"osm_type":"way","osm_id":172012389,"type":"hamlet","location":[-58.18024243520351,-51.748005],"bbox":[-58.1824915,-51.7490678,-58.1777875,-51.7470697]}
{"name":"Teal Inlet","other_names":{"name:en":"Teal Inlet","name:mk":"Тиал Инлет","alt_name":"Teal Inlet Settlement","alt_name:en":"Evelyn Station"},"display_name":"Teal Inlet, Falkland Islands","address":{"hamlet":"Teal Inlet","village":"Teal Inlet","country":"Falkland Islands","country_code":"fk"},"osm_type":"way","osm_id":172003151,"type":"hamlet","location":[-58.437205197785694,-51.5572953],"bbox":[-58.44041,-51.5585806,-58.4350135,-51.5563787]}
{"name":"Fitzroy Settlement","other_names":{"name:en":"Fitzroy Settlement","name:mk":"Фицрој","alt_name":"Fitzroy"},"display_name":"Fitzroy Settlement, Fitzroy, Falkland Islands","address":{"hamlet":"Fitzroy Settlement","village":"Fitzroy","country":"Falkland Islands","country_code":"fk"},"osm_type":"way","osm_id":172012386,"type":"hamlet","location":[-58.23095226022073,-51.7869863],"bbox":[-58.2333635,-51.7910308,-58.2264507,-51.7829934]}
{"name":"Long Island","display_name":"Long Island, Falkland Islands","address":{"hamlet":"Long Island","country":"Falkland Islands","country_code":"fk"},"osm_type":"way","osm_id":173296321,"type":"hamlet","location":[-58.07269556579105,-51.577071149999995],"bbox":[-58.0743573,-51.5781326,-58.0714607,-51.57579]}
{"name":"Port Louis","other_names":{"name:en":"Port Louis","name:es":"Puerto Soledad","name:mk":"Порт Луис","alt_name":"Port Louis Settlement","alt_name:1":"Port St. Louis","alt_name:2":"Anson's Harbour","alt_name:3":"Anson","alt_name:en":"Port Saint Louis"},"display_name":"Port Louis, Falkland Islands","address":{"hamlet":"Port Louis","country":"Falkland Islands","country_code":"fk"},"osm_type":"way","osm_id":172003150,"type":"hamlet","location":[-58.12815669468189,-51.531143549999996],"bbox":[-58.1322417,-51.5346123,-58.1225119,-51.5275849]}
{"name":"Saunders Farm","other_names":{"name:en":"Saunders Farm","alt_name":"Saunders Island Farm"},"display_name":"Saunders Farm, Saunders Island, Falkland Islands","address":{"hamlet":"Saunders Farm","farm":"Saunders Island","country":"Falkland Islands","country_code":"fk"},"osm_type":"node","osm_id":5739849634,"type":"hamlet","location":[-60.0858909,-51.3658791],"bbox":[-60.1058909,-51.3858791,-60.0658909,-51.3458791]}
{"name":"Pebble Farm","other_names":{"name:en":"Pebble Farm","alt_name":"Pebble; Pebble Island Farm"},"display_name":"Pebble Farm, Pebble Island, Falkland Islands","address":{"hamlet":"Pebble Farm","farm":"Pebble Island","country":"Falkland Islands","country_code":"fk"},"osm_type":"node","osm_id":5739805148,"type":"hamlet","location":[-59.6038886,-51.3170739],"bbox":[-59.6238886,-51.3370739,-59.5838886,-51.2970739]}
{"name":"Darwin","other_names":{"name:en":"Darwin","name:mk":"Дарвин","alt_name":"Port Darwin","alt_name_1":"Darwin Settlement"},"display_name":"Darwin, Falkland Islands","address":{"hamlet":"Darwin","country":"Falkland Islands","country_code":"fk"},"osm_type":"node","osm_id":139144921,"type":"hamlet","location":[-58.9587821,-51.8070259],"bbox":[-58.9787821,-51.8270259,-58.9387821,-51.7870259]}
{"name":"Chartres","display_name":"Chartres, Falkland Islands","address":{"hamlet":"Chartres","country":"Falkland Islands","country_code":"fk"},"osm_type":"node","osm_id":9780510241,"type":"hamlet","location":[-60.0801236,-51.7113595],"bbox":[-60.1001236,-51.7313595,-60.0601236,-51.6913595]}
{"name":"Fitzroy South","display_name":"Fitzroy South, Fitzroy, Falkland Islands","address":{"hamlet":"Fitzroy South","village":"Fitzroy","country":"Falkland Islands","country_code":"fk"},"osm_type":"node","osm_id":4484363386,"type":"hamlet","location":[-58.2302248,-51.7898634],"bbox":[-58.2502248,-51.8098634,-58.2102248,-51.7698634]}
{"name":"Fitzroy North","display_name":"Fitzroy North, Fitzroy, Falkland Islands","address":{"hamlet":"Fitzroy North","village":"Fitzroy","country":"Falkland Islands","country_code":"fk"},"osm_type":"node","osm_id":4484371934,"type":"hamlet","location":[-58.2311319,-51.7847598],"bbox":[-58.2511319,-51.8047598,-58.2111319,-51.7647598]}
{"name":"Douglas","display_name":"Douglas, Falkland Islands","address":{"hamlet":"Douglas","country":"Falkland Islands","country_code":"fk"},"osm_type":"node","osm_id":6880116226,"type":"hamlet","location":[-58.6081553,-51.4590968],"bbox":[-58.6281553,-51.4790968,-58.5881553,-51.4390968]}
{"name":"Port Harriet","other_names":{"name:en":"Port Harriet","name:mk":"Порт Хариет"},"display_name":"Port Harriet, Falkland Islands","address":{"hamlet":"Port Harriet","country":"Falkland Islands","country_code":"fk"},"osm_type":"node","osm_id":139145015,"type":"hamlet","location":[-58.0062742,-51.7563889],"bbox":[-58.0262742,-51.7763889,-57.9862742,-51.7363889]}
{"name":"Port Louis South","other_names":{"name:en":"Port Louis South","name:mk":"Порт Луис Југ"},"display_name":"Port Louis South, Falkland Islands","address":{"hamlet":"Port Louis South","country":"Falkland Islands","country_code":"fk"},"osm_type":"node","osm_id":4366263936,"type":"hamlet","location":[-58.1262822,-51.5329444],"bbox":[-58.1462822,-51.5529444,-58.1062822,-51.5129444]}
