{"name":"Colonia","other_names":{"name:en":"Colonia","name:es":"Colonia"},"display_name":"Colonia, Weeloey, Yap, 96943, Micronesia","address":{"town":"Colonia","city":"Weeloey","state":"Yap","ISO3166-2-lvl4":"FM-YAP","postcode":"96943","country":"Micronesia","country_code":"fm"},"osm_type":"node","osm_id":325698762,"type":"town","location":[138.121629,9.5162421],"bbox":[138.081629,9.4762421,138.161629,9.5562421]}
{"name":"Nukuoro","display_name":"Nukuoro, Pohnpei, Micronesia","address":{"town":"Nukuoro","state":"Pohnpei","ISO3166-2-lvl4":"FM-PNI","country":"Micronesia","country_code":"fm"},"population":400,"osm_type":"node","osm_id":6256675761,"type":"town","location":[154.9731755,3.8405483],"bbox":[154.9331755,3.8005483,155.0131755,3.8805483]}
{"name":"Weno","other_names":{"alt_name":"Moen"},"display_name":"Weno, Chuuk, Micronesia","address":{"town":"Weno","state":"Chuuk","ISO3166-2-lvl4":"FM-TRK","country":"Micronesia","country_code":"fm"},"osm_type":"node","osm_id":9783510213,"type":"town","location":[151.8584946,7.4425256],"bbox":[151.8184946,7.4025256,151.8984946,7.4825256]}
{"name":"Palikir","other_names":{"name:af":"Palikir","name:am":"ፓሊኪር","name:ar":"باليكير","name:az":"Palikir","name:be":"Палікір","name:bg":"Паликир","name:bn":"পালিকির","name:br":"Palikir","name:bs":"Palikir","name:ca":"Palikir","name:ce":"Паликир","name:cs":"Palikir","name:cy":"Palikir","name:da":"Palikir","name:de":"Palikir","name:el":"Παλικίρ","name:en":"Palikir","name:eo":"Palikiro","name:es":"Palikir","name:et":"Palikir","name:eu":"Palikir","name:fa":"پالیکیر","name:fi":"Palikir","name:fr":"Palikir","name:gd":"Palikir","name:gl":"Palikir","name:he":"פליקיר","name:hi":"पालिकिर","name:hr":"Palikir","name:ht":"Paliki","name:hu":"Palikir","name:hy":"Պալիկիր","name:id":"Palikir","name:ie":"Palikir","name:io":"Palikir","name:is":"Palikír","name:it":"Palikir","name:ja":"パリキール","name:ka":"პალიკირი","name:ko":"팔리키르","name:ky":"Паликир","name:la":"Palicrum","name:lb":"Palikir","name:lt":"Palikyras","name:lv":"Palikira","name:mg":"Palikir","name:mk":"Паликир","name:ml":"പാലികിർ","name:mr":"पालिकिर","name:ms":"Palikir","name:nl":"Palikir","name:no":"Palikir","name:oc":"Palikir","name:pa":"ਪਾਲੀਕਰ","name:pl":"Palikir","name:ps":"پالیکیر","name:pt":"Paliquir","name:ro":"Palikir","name:ru":"Паликир","name:rw":"Palikir","name:sc":"Palikir","name:sh":"Palikir","name:sk":"Palikir","name:sl":"Palikir","name:sn":"Palikir","name:sr":"Паликир","name:sv":"Palikir","name:sw":"Palikir","name:ta":"பலிக்கீர்","name:tg":"Паликир","name:th":"ปาลีกีร์","name:tl":"Palikir","name:tr":"Palikir","name:ty":"Palikir","name:uk":"Палікір","name:ur":"پالیکیر","name:vi":"Palikir","name:zh":"帕利基尔","name:arz":"باليكير","name:ast":"Palikir","name:avk":"Palikir","name:hak":"Palikir","name:hif":"Palikir","name:lij":"Palikir","name:nds":"Palikir","name:sah":"Паликир","name:sco":"Palikir","name:vep":"Palikir","name:war":"Palikir","name:xmf":"პალიკირი","name:zh-Hans":"帕利基尔","name:zh-Hant":"帕利基爾","name:be-tarask":"Палікір"},"display_name":"Palikir, Sokehs, Soledi kousapw, Pohnpei, Micronesia","address":{"town":"Palikir","city":"Sokehs","district":"Soledi kousapw","state":"Pohnpei","ISO3166-2-lvl4":"FM-PNI","country":"Micronesia","country_code":"fm"},"osm_type":"node","osm_id":703902171,"type":"town","location":[158.1627143,6.920744],"bbox":[158.1227143,6.880744,158.2027143,6.960744]}
{"name":"Tamworohi","display_name":"Tamworohi, Madolenihmw, Pohnpei, Micronesia","address":{"town":"Tamworohi","city":"Madolenihmw","state":"Pohnpei","ISO3166-2-lvl4":"FM-PNI","country":"Micronesia","country_code":"fm"},"osm_type":"node","osm_id":2843818803,"type":"town","location":[158.3075595,6.8430235],"bbox":[158.2675595,6.8030235,158.3475595,6.8830235]}
{"name":"Kolonia","other_names":{"name:ru":"Колония"},"display_name":"Kolonia, Pohnpei, Micronesia","address":{"town":"Kolonia","state":"Pohnpei","ISO3166-2-lvl4":"FM-PNI","country":"Micronesia","country_code":"fm"},"osm_type":"node","osm_id":2843794400,"type":"town","location":[158.2091324,6.9643412],"bbox":[158.1691324,6.9243412,158.2491324,7.0043412]}
{"display_name":"Udot, Chuuk, Micronesia","address":{"city":"Udot","state":"Chuuk","ISO3166-2-lvl4":"FM-TRK","country":"Micronesia","country_code":"fm"},"osm_type":"way","osm_id":328669649,"type":"village","location":[151.72542689804231,7.37299975],"bbox":[151.7240622,7.3716451,151.7269796,7.3745359]}
{"display_name":"Chuuk, Micronesia","address":{"state":"Chuuk","ISO3166-2-lvl4":"FM-TRK","country":"Micronesia","country_code":"fm"},"osm_type":"way","osm_id":328671726,"type":"village","location":[151.70921541470588,7.391523299999999],"bbox":[151.7063677,7.389299,151.7102729,7.3939289]}
{"name":"Pulusuk","display_name":"Pulusuk, Chuuk, Micronesia","address":{"village":"Pulusuk","city":"Pulusuk","state":"Chuuk","ISO3166-2-lvl4":"FM-TRK","country":"Micronesia","country_code":"fm"},"population":451,"osm_type":"way","osm_id":329756186,"type":"village","location":[149.29898882096148,6.68925505],"bbox":[149.2972449,6.6865558,149.3010807,6.6919211]}
{"name":"Ngoof","display_name":"Ngoof, Ruul, Yap, Micronesia","address":{"village":"Ngoof","city":"Ruul","state":"Yap","ISO3166-2-lvl4":"FM-YAP","country":"Micronesia","country_code":"fm"},"osm_type":"node","osm_id":3239603682,"type":"village","location":[138.0704734,9.4773986],"bbox":[138.0504734,9.4573986,138.0904734,9.4973986]}
{"name":"Kanif","display_name":"Kanif, Dalipeebinaew, Yap, 96943, Micronesia","address":{"village":"Kanif","city":"Dalipeebinaew","state":"Yap","ISO3166-2-lvl4":"FM-YAP","postcode":"96943","country":"Micronesia","country_code":"fm"},"osm_type":"node","osm_id":3239603680,"type":"village","location":[138.0856321,9.5273535],"bbox":[138.0656321,9.5073535,138.1056321,9.5473535]}
{"name":"Magachgil","display_name":"Magachgil, Ruul, Yap, Micronesia","address":{"village":"Magachgil","city":"Ruul","state":"Yap","ISO3166-2-lvl4":"FM-YAP","country":"Micronesia","country_code":"fm"},"osm_type":"node","osm_id":325698605,"type":"village","location":[138.0639761,9.458312],"bbox":[138.0439761,9.438312,138.0839761,9.478312]}
{"name":"Maakiy","display_name":"Maakiy, Gagil, Yap, Micronesia","address":{"village":"Maakiy","city":"Gagil","state":"Yap","ISO3166-2-lvl4":"FM-YAP","country":"Micronesia","country_code":"fm"},"osm_type":"node","osm_id":3239603681,"type":"village","location":[138.1658078,9.5589756],"bbox":[138.1458078,9.5389756,138.1858078,9.5789756]}
{"display_name":"Ta, Chuuk, Micronesia","address":{"city":"Ta","state":"Chuuk","ISO3166-2-lvl4":"FM-TRK","country":"Micronesia","country_code":"fm"},"osm_type":"node","osm_id":3474908825,"type":"village","location":[153.6577141,5.2868235],"bbox":[153.6377141,5.2668235,153.6777141,5.3068235]}
{"name":"Nukaf","display_name":"Nukaf, Paata, Chuuk, Micronesia","address":{"village":"Nukaf","state":"Chuuk","ISO3166-2-lvl4":"FM-TRK","country":"Micronesia","country_code":"fm"},"osm_type":"node","osm_id":10584663434,"type":"village","location":[151.5777322,7.3786223],"bbox":[151.5577322,7.3586223,151.5977322,7.3986223]}
{"display_name":"Tol, Chuuk, Micronesia","address":{"city":"Tol","state":"Chuuk","ISO3166-2-lvl4":"FM-TRK","country":"Micronesia","country_code":"fm"},"osm_type":"node","osm_id":2877447943,"type":"village","location":[151.61679,7.3223118],"bbox":[151.59679,7.3023118,151.63679,7.3423118]}
{"name":"Neiwe","display_name":"Neiwe, Weno, Chuuk, 96942, Micronesia","address":{"village":"Neiwe","town":"Weno","state":"Chuuk","ISO3166-2-lvl4":"FM-TRK","postcode":"96942","country":"Micronesia","country_code":"fm"},"osm_type":"node","osm_id":8000096959,"type":"village","location":[151.845547,7.4147359],"bbox":[151.825547,7.3947359,151.865547,7.4347359]}
{"name":"Wichap","display_name":"Wichap, Weno, Chuuk, 96942, Micronesia","address":{"village":"Wichap","town":"Weno","state":"Chuuk","ISO3166-2-lvl4":"FM-TRK","postcode":"96942","country":"Micronesia","country_code":"fm"},"osm_type":"node","osm_id":3485761012,"type":"village","location":[151.8582764,7.4250626],"bbox":[151.8382764,7.4050626,151.8782764,7.4450626]}
{"name":"Mwan","display_name":"Mwan, Weno, Chuuk, 96942, Micronesia","address":{"village":"Mwan","town":"Weno","state":"Chuuk","ISO3166-2-lvl4":"FM-TRK","postcode":"96942","country":"Micronesia","country_code":"fm"},"osm_type":"node","osm_id":3485761006,"type":"village","location":[151.8385377,7.435304],"bbox":[151.8185377,7.415304,151.8585377,7.455304]}
{"name":"Nepukos","display_name":"Nepukos, Weno, Chuuk, 96942, Micronesia","address":{"village":"Nepukos","town":"Weno","state":"Chuuk","ISO3166-2-lvl4":"FM-TRK","postcode":"96942","country":"Micronesia","country_code":"fm"},"osm_type":"node","osm_id":3485761007,"type":"village","location":[151.8423935,7.4433405],"bbox":[151.8223935,7.4233405,151.8623935,7.4633405]}
{"name":"Paata","display_name":"Paata, Chuuk, Micronesia","address":{"village":"Paata","state":"Chuuk","ISO3166-2-lvl4":"FM-TRK","country":"Micronesia","country_code":"fm"},"osm_type":"node","osm_id":10584663433,"type":"village","location":[151.5853915,7.3830402],"bbox":[151.5653915,7.3630402,151.6053915,7.4030402]}
{"name":"Tunuk","display_name":"Tunuk, Weno, Chuuk, 96942, Micronesia","address":{"village":"Tunuk","town":"Weno","state":"Chuuk","ISO3166-2-lvl4":"FM-TRK","postcode":"96942","country":"Micronesia","country_code":"fm"},"osm_type":"node","osm_id":3485761011,"type":"village","location":[151.8647005,7.4581072],"bbox":[151.8447005,7.4381072,151.8847005,7.4781072]}
{"name":"Iras","display_name":"Iras, Weno, Chuuk, 96942, Micronesia","address":{"village":"Iras","town":"Weno","state":"Chuuk","ISO3166-2-lvl4":"FM-TRK","postcode":"96942","country":"Micronesia","country_code":"fm"},"osm_type":"node","osm_id":3485761004,"type":"village","location":[151.8432683,7.4547246],"bbox":[151.8232683,7.4347246,151.8632683,7.4747246]}
{"name":"Peniesele","display_name":"Peniesele, Weno, Chuuk, 96942, Micronesia","address":{"village":"Peniesele","town":"Weno","state":"Chuuk","ISO3166-2-lvl4":"FM-TRK","postcode":"96942","country":"Micronesia","country_code":"fm"},"osm_type":"node","osm_id":3485761009,"type":"village","location":[151.8728582,7.4555224],"bbox":[151.8528582,7.4355224,151.8928582,7.4755224]}
{"name":"Sapuk","display_name":"Sapuk, Weno, Chuuk, 96942, Micronesia","address":{"village":"Sapuk","town":"Weno","state":"Chuuk","ISO3166-2-lvl4":"FM-TRK","postcode":"96942","country":"Micronesia","country_code":"fm"},"osm_type":"node","osm_id":3485761010,"type":"village","location":[151.8920973,7.4474247],"bbox":[151.8720973,7.4274247,151.9120973,7.4674247]}
{"name":"Mechitiw","display_name":"Mechitiw, Weno, Chuuk, 96942, Micronesia","address":{"village":"Mechitiw","town":"Weno","state":"Chuuk","ISO3166-2-lvl4":"FM-TRK","postcode":"96942","country":"Micronesia","country_code":"fm"},"osm_type":"node","osm_id":3485761005,"type":"village","location":[151.8572249,7.4631783],"bbox":[151.8372249,7.4431783,151.8772249,7.4831783]}
{"name":"Penia","display_name":"Penia, Weno, Chuuk, 96942, Micronesia","address":{"village":"Penia","town":"Weno","state":"Chuuk","ISO3166-2-lvl4":"FM-TRK","postcode":"96942","country":"Micronesia","country_code":"fm"},"osm_type":"node","osm_id":3485761008,"type":"village","location":[151.8783141,7.4532816],"bbox":[151.8583141,7.4332816,151.8983141,7.4732816]}
{"name":"Utwe","display_name":"Utwe, Kosrae, Micronesia","address":{"village":"Utwe","state":"Kosrae","ISO3166-2-lvl4":"FM-KSA","country":"Micronesia","country_code":"fm"},"osm_type":"node","osm_id":1685384598,"type":"village","location":[162.9771095,5.2747312],"bbox":[162.9571095,5.2547312,162.9971095,5.2947312]}
{"name":"Malem","display_name":"Malem, Kosrae, Micronesia","address":{"village":"Malem","state":"Kosrae","ISO3166-2-lvl4":"FM-KSA","country":"Micronesia","country_code":"fm"},"osm_type":"node","osm_id":1685384154,"type":"village","location":[163.0255073,5.2876367],"bbox":[163.0055073,5.2676367,163.0455073,5.3076367]}
{"name":"Tafunsak","display_name":"Tafunsak, Kosrae, Micronesia","address":{"village":"Tafunsak","state":"Kosrae","ISO3166-2-lvl4":"FM-KSA","country":"Micronesia","country_code":"fm"},"osm_type":"node","osm_id":1685384599,"type":"village","location":[162.9879221,5.3674221],"bbox":[162.9679221,5.3474221,163.0079221,5.3874221]}
{"name":"Mwalok","display_name":"Mwalok, Sokehs, Sapwohn kousapw, Pohnpei, 96941, Micronesia","address":{"village":"Mwalok","city":"Sokehs","district":"Sapwohn kousapw","state":"Pohnpei","ISO3166-2-lvl4":"FM-PNI","postcode":"96941","country":"Micronesia","country_code":"fm"},"osm_type":"node","osm_id":3229068650,"type":"village","location":[158.1965278,6.9685581],"bbox":[158.1765278,6.9485581,158.2165278,6.9885581]}
{"name":"Naneir","display_name":"Naneir, Sokehs, Eir kousapw, Pohnpei, 96941, Micronesia","address":{"village":"Naneir","city":"Sokehs","district":"Eir kousapw","state":"Pohnpei","ISO3166-2-lvl4":"FM-PNI","postcode":"96941","country":"Micronesia","country_code":"fm"},"osm_type":"node","osm_id":3229068651,"type":"village","location":[158.1961958,6.9737981],"bbox":[158.1761958,6.9537981,158.2161958,6.9937981]}
{"name":"Tofol","display_name":"Tofol, Lelu, Kosrae, 96944, Micronesia","address":{"village":"Tofol","state":"Kosrae","ISO3166-2-lvl4":"FM-KSA","postcode":"96944","country":"Micronesia","country_code":"fm"},"osm_type":"node","osm_id":1685389033,"type":"village","location":[163.0087193,5.326022],"bbox":[162.9887193,5.306022,163.0287193,5.346022]}
{"name":"Lelu","display_name":"Lelu, Kosrae, Micronesia","address":{"village":"Lelu","state":"Kosrae","ISO3166-2-lvl4":"FM-KSA","country":"Micronesia","country_code":"fm"},"osm_type":"node","osm_id":1685384153,"type":"village","location":[163.0241705,5.3324023],"bbox":[163.0041705,5.3124023,163.0441705,5.3524023]}
{"name":"Kamwele","display_name":"Kamwele, Sokehs, Peidie kousapw, Pohnpei, 96941, Micronesia","address":{"village":"Kamwele","city":"Sokehs","district":"Peidie kousapw","state":"Pohnpei","ISO3166-2-lvl4":"FM-PNI","postcode":"96941","country":"Micronesia","country_code":"fm"},"osm_type":"node","osm_id":3229068725,"type":"village","location":[158.195792,6.9594215],"bbox":[158.175792,6.9394215,158.215792,6.9794215]}
{"name":"Danipei","display_name":"Danipei, Sokehs, Eir kousapw, Pohnpei, 96941, Micronesia","address":{"village":"Danipei","city":"Sokehs","district":"Eir kousapw","state":"Pohnpei","ISO3166-2-lvl4":"FM-PNI","postcode":"96941","country":"Micronesia","country_code":"fm"},"osm_type":"node","osm_id":3229068719,"type":"village","location":[158.1931098,6.9788067],"bbox":[158.1731098,6.9588067,158.2131098,6.9988067]}
{"name":"Tone","display_name":"Tone, Nukaf, Paata, Chuuk, Micronesia","address":{"hamlet":"Tone","village":"Nukaf","state":"Chuuk","ISO3166-2-lvl4":"FM-TRK","country":"Micronesia","country_code":"fm"},"osm_type":"node","osm_id":10584663428,"type":"hamlet","location":[151.5749536,7.3704197],"bbox":[151.5549536,7.3504197,151.5949536,7.3904197]}
{"name":"Neo","display_name":"Neo, Paata, Chuuk, Micronesia","address":{"hamlet":"Neo","village":"Paata","state":"Chuuk","ISO3166-2-lvl4":"FM-TRK","country":"Micronesia","country_code":"fm"},"osm_type":"node","osm_id":10584663430,"type":"hamlet","location":[151.5788697,7.3639426],"bbox":[151.5588697,7.3439426,151.5988697,7.3839426]}
{"name":"Nesop","display_name":"Nesop, Nukaf, Paata, Chuuk, Micronesia","address":{"hamlet":"Nesop","village":"Nukaf","state":"Chuuk","ISO3166-2-lvl4":"FM-TRK","country":"Micronesia","country_code":"fm"},"osm_type":"node","osm_id":10584663431,"type":"hamlet","location":[151.5860348,7.3717969],"bbox":[151.5660348,7.3517969,151.6060348,7.3917969]}
{"name":"Epin","display_name":"Epin, Nukaf, Paata, Chuuk, Micronesia","address":{"hamlet":"Epin","village":"Nukaf","state":"Chuuk","ISO3166-2-lvl4":"FM-TRK","country":"Micronesia","country_code":"fm"},"osm_type":"node","osm_id":2877448260,"type":"hamlet","location":[151.5723453,7.3736603],"bbox":[151.5523453,7.3536603,151.5923453,7.3936603]}
{"name":"Wino","display_name":"Wino, Nukaf, Paata, Chuuk, Micronesia","address":{"hamlet":"Wino","village":"Nukaf","state":"Chuuk","ISO3166-2-lvl4":"FM-TRK","country":"Micronesia","country_code":"fm"},"osm_type":"node","osm_id":10584663427,"type":"hamlet","location":[151.5781659,7.3720063],"bbox":[151.5581659,7.3520063,151.5981659,7.3920063]}
{"name":"Unumenei","display_name":"Unumenei, Nukaf, Paata, Chuuk, Micronesia","address":{"hamlet":"Unumenei","village":"Nukaf","state":"Chuuk","ISO3166-2-lvl4":"FM-TRK","country":"Micronesia","country_code":"fm"},"osm_type":"node","osm_id":10584663429,"type":"hamlet","location":[151.5831465,7.3720219],"bbox":[151.5631465,7.3520219,151.6031465,7.3920219]}
{"name":"Nefor","display_name":"Nefor, Nukaf, Paata, Chuuk, Micronesia","address":{"hamlet":"Nefor","village":"Nukaf","state":"Chuuk","ISO3166-2-lvl4":"FM-TRK","country":"Micronesia","country_code":"fm"},"osm_type":"node","osm_id":10584663432,"type":"hamlet","location":[151.5881348,7.3720978],"bbox":[151.5681348,7.3520978,151.6081348,7.3920978]}
{"name":"Epinnou","display_name":"Epinnou, Nukaf, Paata, Chuuk, Micronesia","address":{"hamlet":"Epinnou","village":"Nukaf","state":"Chuuk","ISO3166-2-lvl4":"FM-TRK","country":"Micronesia","country_code":"fm"},"osm_type":"node","osm_id":10584663435,"type":"hamlet","location":[151.5877221,7.378839],"bbox":[151.5677221,7.358839,151.6077221,7.398839]}
{"name":"Walung","display_name":"Walung, Tafunsak, Kosrae, Micronesia","address":{"hamlet":"Walung","village":"Tafunsak","state":"Kosrae","ISO3166-2-lvl4":"FM-KSA","country":"Micronesia","country_code":"fm"},"osm_type":"node","osm_id":1685386745,"type":"hamlet","location":[162.917661,5.3089706],"bbox":[162.897661,5.2889706,162.937661,5.3289706]}
{"name":"Ipat","display_name":"Ipat, Nett, Peidie kousapw, Pohnpei, 96941, Micronesia","address":{"hamlet":"Ipat","city":"Nett","district":"Peidie kousapw","state":"Pohnpei","ISO3166-2-lvl4":"FM-PNI","postcode":"96941","country":"Micronesia","country_code":"fm"},"osm_type":"node","osm_id":3229068762,"type":"hamlet","location":[158.196556,6.9564527],"bbox":[158.176556,6.9364527,158.216556,6.9764527]}
{"name":"Oegono","display_name":"Oegono, U, Sapwohn kousapw, Pohnpei, Micronesia","address":{"hamlet":"Oegono","city":"U","district":"Sapwohn kousapw","state":"Pohnpei","ISO3166-2-lvl4":"FM-PNI","country":"Micronesia","country_code":"fm"},"osm_type":"node","osm_id":7935621157,"type":"hamlet","location":[158.2653307,6.9686314],"bbox":[158.2453307,6.9486314,158.2853307,6.9886314]}
