{"name":"Saint Anne","other_names":{"name:af":"Saint Anne","name:br":"Saint Anne","name:de":"Saint Anne","name:en":"Saint Anne","name:fr":"Sainte Anne","name:he":"סנט אן","name:ie":"Saint Anne","name:ja":"セント・アン","name:lt":"Sent Ana","name:nl":"Saint Anne","name:pl":"Saint Anne","name:sr":"Света Ана","name:sv":"St Anne","name:ur":"سینٹ این، الدیرنے","name:zh":"圣安妮","name:ceb":"St Anne","name:ar":"سينت آن","name:mk":"Сент Ен","alt":"St Anne","alt:en":"St Anne","alt:fr":"Sainte-Anne","alt:ur":"سینٹ این"},"display_name":"Saint Anne, Alderney, GY9 3UF, Guernsey","address":{"town":"Saint Anne","state":"Alderney","postcode":"GY9 3UF","country":"Guernsey","country_code":"gg"},"population":2000,"osm_type":"relation","osm_id":14058630,"type":"town","location":[-2.2036184,49.7147885],"bbox":[-2.2130051,49.7097891,-2.1916385,49.7217653]}
{"name":"St Peter Port","other_names":{"name:ar":"سان بيتر بورت","name:be":"Сент-Пітэр-Порт","name:en":"Saint Peter Port","name:fr":"Saint-Pierre-Port","name:hu":"Saint Peter Port","name:it":"Saint Peter Port","name:lt":"Sent Piter Portas","name:mk":"Сент Питер Порт","name:pl":"Saint Peter Port","name:tr":"Saint Peter Port","name:uk":"Сент-Пітер-Порт","name:zh":"聖彼得港","name:zh-Hans":"圣彼得港","name:zh-Hant":"聖彼得港","name:be-tarask":"Сэнт-Пітэр-Порт"},"display_name":"St Peter Port, Guernsey, GY1, Guernsey","address":{"town":"St Peter Port","state":"Guernsey","postcode":"GY1","country":"Guernsey","country_code":"gg"},"population":18207,"osm_type":"node","osm_id":116359720,"type":"town","location":[-2.5389979,49.4568142],"bbox":[-2.5789979,49.4168142,-2.4989979,49.4968142]}
{"name":"The Bridge","other_names":{"name:en":"The Bridge","name:mk":"Бриџ"},"display_name":"The Bridge, St Sampson, Guernsey, GY2 4PB, Guernsey","address":{"town":"The Bridge","city":"St Sampson","state":"Guernsey","postcode":"GY2 4PB","country":"Guernsey","country_code":"gg"},"osm_type":"node","osm_id":1129613322,"type":"town","location":[-2.5198742,49.4833214],"bbox":[-2.5598742,49.4433214,-2.4798742,49.5233214]}
{"name":"St Anne","other_names":{"name:ar":"سينت آن","name:en":"St Anne","name:fr":"Sainte-Anne","name:mk":"Сент Ен","name:ur":"سینٹ این"},"display_name":"Saint Anne, Alderney, GY9 3UF, Guernsey","address":{"town":"Saint Anne","state":"Alderney","postcode":"GY9 3UF","country":"Guernsey","country_code":"gg"},"osm_type":"node","osm_id":25282227,"type":"town","location":[-2.2036184,49.7147885],"bbox":[-2.2436184,49.6747885,-2.1636184,49.7547885]}
{"name":"Forest","other_names":{"name:fr":"La Forêt","name:nrf":"La Fouarêt"},"display_name":"Forest, Guernsey","address":{"village":"Forest","state":"Guernsey","country":"Guernsey","country_code":"gg"},"osm_type":"node","osm_id":8445750405,"type":"village","location":[-2.5927968,49.4312917],"bbox":[-2.6127968,49.4112917,-2.5727968,49.4512917]}
{"name":"St Pierre du Bois","display_name":"St Pierre du Bois, St. Pierre du Bois, Guernsey, GY7 9RZ, Guernsey","address":{"village":"St Pierre du Bois","city":"St. Pierre du Bois","state":"Guernsey","postcode":"GY7 9RZ","country":"Guernsey","country_code":"gg"},"osm_type":"node","osm_id":8445750406,"type":"village","location":[-2.6227221,49.4357133],"bbox":[-2.6427221,49.4157133,-2.6027221,49.4557133]}
{"name":"St Martin","other_names":{"name:fr":"Saint-Martin"},"display_name":"St Martin, Guernsey","address":{"village":"St Martin","state":"Guernsey","country":"Guernsey","country_code":"gg"},"osm_type":"node","osm_id":8366933049,"type":"village","location":[-2.555524,49.4373488],"bbox":[-2.575524,49.4173488,-2.535524,49.4573488]}
{"name":"Cobo","display_name":"Cobo, Castel, Guernsey, GY5 7HB, Guernsey","address":{"village":"Cobo","city":"Castel","state":"Guernsey","postcode":"GY5 7HB","country":"Guernsey","country_code":"gg"},"osm_type":"node","osm_id":8445750402,"type":"village","location":[-2.5892697,49.4784132],"bbox":[-2.6092697,49.4584132,-2.5692697,49.4984132]}
{"name":"L'Islet","display_name":"L'Islet, St Sampson, Guernsey, GY2 4RE, Guernsey","address":{"village":"L'Islet","city":"St Sampson","state":"Guernsey","postcode":"GY2 4RE","country":"Guernsey","country_code":"gg"},"osm_type":"node","osm_id":8445750404,"type":"village","location":[-2.5476244,49.4882778],"bbox":[-2.5676244,49.4682778,-2.5276244,49.5082778]}
{"name":"L'Aumone","display_name":"L'Aumone, St Andrew, Guernsey, GY1 1FG, Guernsey","address":{"village":"L'Aumone","city":"St Andrew","state":"Guernsey","postcode":"GY1 1FG","country":"Guernsey","country_code":"gg"},"osm_type":"node","osm_id":8445750403,"type":"village","location":[-2.5628456,49.4604522],"bbox":[-2.5828456,49.4404522,-2.5428456,49.4804522]}
{"name":"Sark","other_names":{"name:af":"Sark","name:ar":"سارك","name:ba":"Сарк","name:be":"Сарк","name:bn":"সার্ক","name:br":"Sark","name:ca":"Sark","name:cs":"Sark","name:cy":"Sark","name:da":"Sark","name:de":"Sark","name:el":"Σαρκ","name:en":"Sark","name:eo":"Sark","name:es":"Sark","name:et":"Sark","name:fa":"سرک","name:fi":"Sark","name:fr":"Sercq","name:ga":"An tSairc","name:gd":"Sark","name:gl":"Sark","name:he":"סֶרְק","name:hr":"Sark","name:hu":"Sark","name:id":"Sark","name:ie":"Sark","name:it":"Sark","name:ja":"サーク島","name:jv":"Sark","name:ko":"사크 섬","name:lt":"Sarkas","name:nl":"Sark","name:nn":"Sark","name:no":"Sark","name:oc":"Sarc","name:pl":"Sark","name:pt":"Sark","name:ro":"Sark","name:ru":"Сарк","name:sh":"Sark","name:sk":"Sark","name:sl":"Sark","name:sr":"Сарк","name:sv":"Sark","name:ta":"சார்க்","name:tr":"Sark","name:uk":"Сарк","name:vi":"Sark","name:zh":"薩克島","name:nov":"Sark","name:nrm":"Ser","name:sco":"Sark","name:stq":"Sark","name:vls":"Sark","alt_name:gd":"Sarc","alt_name:vi":"Sercq"},"display_name":"Sark, Guernsey","address":{"village":"Sark","country":"Guernsey","country_code":"gg"},"population":492,"osm_type":"node","osm_id":27748769,"type":"village","location":[-2.3595986,49.4351648],"bbox":[-2.3795986,49.4151648,-2.3395986,49.4551648]}
{"name":"Braye","other_names":{"name:en":"Braye","name:mk":"Бреј"},"display_name":"Braye, Alderney, GY9 3XT, Guernsey","address":{"hamlet":"Braye","state":"Alderney","postcode":"GY9 3XT","country":"Guernsey","country_code":"gg"},"osm_type":"relation","osm_id":14058627,"type":"hamlet","location":[-2.2008,49.7230396],"bbox":[-2.2023905,49.7219595,-2.1998567,49.7241596]}
{"name":"Newtown","other_names":{"name:en":"Newtown","name:mk":"Њутаун"},"display_name":"Newtown, Saint Anne, Alderney, Guernsey","address":{"hamlet":"Newtown","town":"Saint Anne","state":"Alderney","country":"Guernsey","country_code":"gg"},"osm_type":"relation","osm_id":14058628,"type":"hamlet","location":[-2.1958593,49.7196505],"bbox":[-2.2015237,49.7185081,-2.1917847,49.7219595]}
{"name":"Crabby","other_names":{"name:en":"Crabby","name:mk":"Краби"},"display_name":"Crabby, Alderney, Guernsey","address":{"hamlet":"Crabby","state":"Alderney","country":"Guernsey","country_code":"gg"},"osm_type":"relation","osm_id":14058629,"type":"hamlet","location":[-2.2075998,49.7202785],"bbox":[-2.2145065,49.7169645,-2.2042024,49.7212213]}
{"name":"Longis","other_names":{"name:en":"Longis","name:mk":"Лонгис"},"display_name":"Longis, Alderney, Guernsey","address":{"hamlet":"Longis","state":"Alderney","country":"Guernsey","country_code":"gg"},"osm_type":"relation","osm_id":14058626,"type":"hamlet","location":[-2.1708991,49.723615],"bbox":[-2.1720207,49.7229364,-2.1685132,49.7243302]}
{"name":"Torteval","display_name":"Torteval, Guernsey, GY7 9LL, Guernsey","address":{"hamlet":"Torteval","city":"Torteval","state":"Guernsey","postcode":"GY7 9LL","country":"Guernsey","country_code":"gg"},"osm_type":"node","osm_id":8445750410,"type":"hamlet","location":[-2.6525071,49.4302813],"bbox":[-2.6725071,49.4102813,-2.6325071,49.4502813]}
{"name":"St Saviour","display_name":"St Saviour, Guernsey, GY7 9FS, Guernsey","address":{"hamlet":"St Saviour","city":"St Saviour","state":"Guernsey","postcode":"GY7 9FS","country":"Guernsey","country_code":"gg"},"osm_type":"node","osm_id":8445750409,"type":"hamlet","location":[-2.6138561,49.4442189],"bbox":[-2.6338561,49.4242189,-2.5938561,49.4642189]}
{"name":"Castel","display_name":"Castel, Cobo, Castel, Guernsey, GY5 7PH, Guernsey","address":{"hamlet":"Castel","village":"Cobo","city":"Castel","state":"Guernsey","postcode":"GY5 7PH","country":"Guernsey","country_code":"gg"},"osm_type":"node","osm_id":8445750408,"type":"hamlet","location":[-2.5913459,49.4677402],"bbox":[-2.6113459,49.4477402,-2.5713459,49.4877402]}
{"name":"St Andrew","display_name":"St Andrew, L'Aumone, St Andrew, Guernsey, GY6 8RZ, Guernsey","address":{"hamlet":"St Andrew","village":"L'Aumone","city":"St Andrew","state":"Guernsey","postcode":"GY6 8RZ","country":"Guernsey","country_code":"gg"},"osm_type":"node","osm_id":8445750412,"type":"hamlet","location":[-2.5688225,49.4499006],"bbox":[-2.5888225,49.4299006,-2.5488225,49.4699006]}
{"name":"St Sampson","display_name":"St Sampson, L'Islet, St Sampson, Guernsey, GY2 4YT, Guernsey","address":{"hamlet":"St Sampson","village":"L'Islet","city":"St Sampson","state":"Guernsey","postcode":"GY2 4YT","country":"Guernsey","country_code":"gg"},"osm_type":"node","osm_id":8445750411,"type":"hamlet","location":[-2.5379712,49.4814872],"bbox":[-2.5579712,49.4614872,-2.5179712,49.5014872]}
{"name":"The Vale","display_name":"The Vale, Le Clos du Valle, Vale, Guernsey, GY3 5JQ, Guernsey","address":{"hamlet":"The Vale","city_district":"Le Clos du Valle","city":"Vale","state":"Guernsey","postcode":"GY3 5JQ","country":"Guernsey","country_code":"gg"},"osm_type":"node","osm_id":8445750407,"type":"hamlet","location":[-2.5249545,49.4956414],"bbox":[-2.5449545,49.4756414,-2.5049545,49.5156414]}
{"name":"Manor Village","other_names":{"name:en":"Manor Village","name:mk":"Манор Вилиџ"},"display_name":"Manor Village, St Peter Port, Guernsey, GY1 3HR, Guernsey","address":{"hamlet":"Manor Village","town":"St Peter Port","state":"Guernsey","postcode":"GY1 3HR","country":"Guernsey","country_code":"gg"},"osm_type":"node","osm_id":2072668053,"type":"hamlet","location":[-2.4487505,49.4717887],"bbox":[-2.4687505,49.4517887,-2.4287505,49.4917887]}
{"name":"Newtown","other_names":{"name:en":"Newtown","name:mk":"Њутаун"},"display_name":"Newtown, Saint Anne, Alderney, GY9 3XT, Guernsey","address":{"hamlet":"Newtown","town":"Saint Anne","state":"Alderney","postcode":"GY9 3XT","country":"Guernsey","country_code":"gg"},"osm_type":"node","osm_id":323262904,"type":"hamlet","location":[-2.1958593,49.7196505],"bbox":[-2.2158593,49.6996505,-2.1758593,49.7396505]}
{"name":"Longis","other_names":{"name:en":"Longis","name:mk":"Лонгис"},"display_name":"Longis, Alderney, GY9 3XT, Guernsey","address":{"hamlet":"Longis","state":"Alderney","postcode":"GY9 3XT","country":"Guernsey","country_code":"gg"},"osm_type":"node","osm_id":1350235243,"type":"hamlet","location":[-2.1708991,49.723615],"bbox":[-2.1908991,49.703615,-2.1508991,49.743615]}
{"name":"Crabby","other_names":{"name:en":"Crabby","name:mk":"Краби"},"display_name":"Crabby, Alderney, GY9 3UF, Guernsey","address":{"hamlet":"Crabby","state":"Alderney","postcode":"GY9 3UF","country":"Guernsey","country_code":"gg"},"osm_type":"node","osm_id":323262899,"type":"hamlet","location":[-2.2075998,49.7202785],"bbox":[-2.2275998,49.7002785,-2.1875998,49.7402785]}
{"name":"Braye","other_names":{"name:en":"Braye","name:mk":"Бреј"},"display_name":"Braye, Alderney, GY9 3XT, Guernsey","address":{"hamlet":"Braye","state":"Alderney","postcode":"GY9 3XT","country":"Guernsey","country_code":"gg"},"osm_type":"node","osm_id":323262895,"type":"hamlet","location":[-2.2008,49.7230396],"bbox":[-2.2208,49.7030396,-2.1808,49.7430396]}
{"name":"Mannez","other_names":{"name:en":"Mannez","name:mk":"Манез"},"display_name":"Mannez, Alderney, GY9 3XT, Guernsey","address":{"hamlet":"Mannez","state":"Alderney","postcode":"GY9 3XT","country":"Guernsey","country_code":"gg"},"osm_type":"node","osm_id":1350221122,"type":"hamlet","location":[-2.1647192,49.728664],"bbox":[-2.1847192,49.708664,-2.1447192,49.748664]}
