{"name":"Gibraltar","other_names":{"name:am":"ጅብራልታር","name:an":"Chibraltar","name:ar":"جبل طارق","name:be":"Гібралтар","name:br":"Jibraltar","name:cs":"Gibraltár","name:en":"Gibraltar","name:fr":"Gibraltar","name:hi":"जिब्राल्टर","name:hu":"Gibraltár","name:it":"Gibilterra","name:ja":"ジブラルタル","name:kn":"ಜಿಬ್ರಾಲ್ಟರ್","name:ku":"Cîbraltar","name:ml":"ജിബ്രാൾട്ടർ","name:ru":"Гибралтар","name:sk":"Gibraltár","name:zh":"直布罗陀 / 直布羅陀","int_name":"Gibraltar","name:ang":"Calpis","name:arz":"جيبرالتار","name:ast":"Xibraltar","name:zh-Hans":"直布罗陀","name:zh-Hant":"直布羅陀"},"display_name":"Gibraltar","address":{"city":"Gibraltar","country":"Gibraltar","country_code":"gi"},"population":32577,"osm_type":"node","osm_id":267933614,"type":"city","location":[-5.3541295,36.140807],"bbox":[-5.5141295,35.980807,-5.1941295,36.300807]}
{"name":"Catalan Bay","display_name":"Catalan Bay, Gibraltar, GX11 1AA, Gibraltar","address":{"hamlet":"Catalan Bay","city":"Gibraltar","postcode":"GX11 1AA","country":"Gibraltar","country_code":"gi"},"osm_type":"node","osm_id":1045268625,"type":"hamlet","location":[-5.341402,36.1396153],"bbox":[-5.361402,36.1196153,-5.321402,36.1596153]}
