{"name":"Qaqortoq","other_names":{"name:ar":"قاقورتوق","name:kl":"Qaqortoq","name:lt":"Kakortokas","name:ru":"Какорток","name:uk":"Какорток","old_name":"Julianehåb"},"display_name":"Qaqortoq, Kujalleq, 3920, Kalaallit Nunaat","address":{"city":"Qaqortoq","municipality":"Kujalleq","ISO3166-2-lvl4":"GL-KU","postcode":"3920","country":"Kalaallit Nunaat","country_code":"gl"},"population":3174,"osm_type":"node","osm_id":1894193598,"type":"city","location":[-46.0385214,60.718202],"bbox":[-46.1985214,60.558202,-45.8785214,60.878202]}
{"name":"Nuuk","other_names":{"name:ar":"نوك","name:be":"Нук","name:bg":"Нуук","name:cv":"Нуук","name:da":"Nuuk","name:de":"Nuuk","name:el":"Νουούκ","name:en":"Nuuk","name:eo":"Nuko","name:es":"Nuuk","name:fa":"نوک","name:fr":"Nuuk","name:he":"נואוק","name:hu":"Nuuk","name:hy":"Նուուկ","name:ja":"ヌーク","name:ka":"ნუუკი","name:kk":"Нүүк","name:kl":"Nuuk","name:ko":"누크","name:ks":"نوک","name:ku":"Nûk","name:kv":"Нук","name:lt":"Nukas","name:lv":"Nūka","name:mk":"Нук","name:mn":"Нуук","name:mr":"नूक","name:os":"Нуук","name:pa":"ਨੂਕ","name:pl":"Nuuk","name:ro":"Godthåb","name:ru":"Нуук","name:sr":"Нук","name:sv":"Nuuk","name:th":"นุก","name:tt":"Нуук","name:uk":"Нуук","name:ur":"نوک","name:zh":"努克","alt_name":"Godthåb","name:ang":"Godhopa","name:azb":"نوک","name:ckb":"نووک","name:pnb":"نُوک","name:sah":"Нуук","old_name":"Godthåb","old_name:da":"Godthåb","old_name:is":"Góðvon","old_name:sv":"Godthåb","name:az-Arab":"نوک","name:bat-smg":"Nuuks","name:kk-Arab":"نۋۋك","name:be-tarask":"Нук"},"display_name":"Nuuk, Sermersooq, 3900, Kalaallit Nunaat","address":{"city":"Nuuk","municipality":"Sermersooq","ISO3166-2-lvl4":"GL-SM","postcode":"3900","country":"Kalaallit Nunaat","country_code":"gl"},"population":18326,"osm_type":"node","osm_id":992046822,"type":"city","location":[-51.7355386,64.175029],"bbox":[-51.8955386,64.015029,-51.5755386,64.335029]}
{"name":"Sisimiut","other_names":{"name:ar":"سيسيميوت","name:en":"Sisimiut","name:kl":"Sisimiut","name:lt":"Sisimiutas","name:ru":"Сисимиут","name:uk":"Сісіміут","old_name":"Holsteinborg"},"display_name":"Sisimiut, Qeqqata, 3911, Kalaallit Nunaat","address":{"city":"Sisimiut","municipality":"Qeqqata","ISO3166-2-lvl4":"GL-QE","postcode":"3911","country":"Kalaallit Nunaat","country_code":"gl"},"population":5571,"osm_type":"node","osm_id":1913331768,"type":"city","location":[-53.6664816,66.9371906],"bbox":[-53.8264816,66.7771906,-53.5064816,67.0971906]}
{"name":"Aasiaat","other_names":{"name:lt":"Osiotas","alt_name":"Ausiait","old_name":"Egedesminde"},"display_name":"Aasiaat, Qeqertalik, Kalaallit Nunaat","address":{"city":"Aasiaat","state":"Qeqertalik","ISO3166-2-lvl4":"GL-QT","country":"Kalaallit Nunaat","country_code":"gl"},"population":3005,"osm_type":"node","osm_id":443848765,"type":"city","location":[-52.8512976,68.709588],"bbox":[-53.0112976,68.549588,-52.6912976,68.869588]}
{"name":"Ilulissat","other_names":{"name:ar":"إيلوليسات","name:lt":"Ilulisatas","name:ru":"Илулиссат","name:uk":"Ілуліссат","old_name":"Jakobshavn"},"display_name":"Ilulissat, Avannaata, 3952, Kalaallit Nunaat","address":{"city":"Ilulissat","state":"Avannaata","ISO3166-2-lvl4":"GL-AV","postcode":"3952","country":"Kalaallit Nunaat","country_code":"gl"},"population":4905,"osm_type":"node","osm_id":381460254,"type":"city","location":[-51.0986385,69.2197127],"bbox":[-51.2586385,69.0597127,-50.9386385,69.3797127]}
{"name":"Nanortalik","other_names":{"old_name":"Nennortalik"},"display_name":"Nanortalik, Kujalleq, Kalaallit Nunaat","address":{"town":"Nanortalik","municipality":"Kujalleq","ISO3166-2-lvl4":"GL-KU","country":"Kalaallit Nunaat","country_code":"gl"},"population":1236,"osm_type":"way","osm_id":277793191,"type":"town","location":[-45.2428523,60.1400246],"bbox":[-45.2540652,60.1352749,-45.2270786,60.1511828]}
{"name":"Nanortalik","other_names":{"old_name":"Nennortalik"},"display_name":"Nanortalik, Kujalleq, Kalaallit Nunaat","address":{"town":"Nanortalik","municipality":"Kujalleq","ISO3166-2-lvl4":"GL-KU","country":"Kalaallit Nunaat","country_code":"gl"},"population":1185,"osm_type":"node","osm_id":538257987,"type":"town","location":[-45.2428523,60.1400246],"bbox":[-45.2828523,60.1000246,-45.2028523,60.1800246]}
{"name":"Narsaq","other_names":{"name:ru":"Нарсак","alt_name":"Narssaq","old_name":"Nordprøven"},"display_name":"Narsaq, Kujalleq, 3921, Kalaallit Nunaat","address":{"town":"Narsaq","municipality":"Kujalleq","ISO3166-2-lvl4":"GL-KU","postcode":"3921","country":"Kalaallit Nunaat","country_code":"gl"},"population":1376,"osm_type":"node","osm_id":1807080867,"type":"town","location":[-46.0452698,60.9127453],"bbox":[-46.0852698,60.8727453,-46.0052698,60.9527453]}
{"name":"Maniitsoq","other_names":{"name:ru":"Маниитсок","old_name":"Sukkertoppen"},"display_name":"Maniitsoq, Qeqqata, 3912, Kalaallit Nunaat","address":{"town":"Maniitsoq","municipality":"Qeqqata","ISO3166-2-lvl4":"GL-QE","postcode":"3912","country":"Kalaallit Nunaat","country_code":"gl"},"population":2784,"osm_type":"node","osm_id":1917462069,"type":"town","location":[-52.8967885,65.4175454],"bbox":[-52.9367885,65.3775454,-52.8567885,65.4575454]}
{"name":"Paamiut","other_names":{"name:lt":"Pamiutas","name:ru":"Паамиут","old_name":"Frederikshåb"},"display_name":"Paamiut, Sermersooq, 3940, Kalaallit Nunaat","address":{"town":"Paamiut","municipality":"Sermersooq","ISO3166-2-lvl4":"GL-SM","postcode":"3940","country":"Kalaallit Nunaat","country_code":"gl"},"osm_type":"node","osm_id":2051281081,"type":"town","location":[-49.6659478,61.994618],"bbox":[-49.7059478,61.954618,-49.6259478,62.034618]}
{"name":"Qaanaaq","other_names":{"name:da":"Thule","name:de":"Thule","name:en":"Thule","name:ru":"Каанаак","alt_name":"New Thule","old_name":"Thule;New Thule"},"display_name":"Qaanaaq, Avannaata, Kalaallit Nunaat","address":{"town":"Qaanaaq","state":"Avannaata","ISO3166-2-lvl4":"GL-AV","country":"Kalaallit Nunaat","country_code":"gl"},"population":652,"osm_type":"node","osm_id":306516095,"type":"town","location":[-69.2222746,77.4686357],"bbox":[-69.2622746,77.4286357,-69.1822746,77.5086357]}
{"name":"Kangaatsiaq","other_names":{"old_name":"Kangâtsiaq"},"display_name":"Kangaatsiaq, Qeqertalik, Kalaallit Nunaat","address":{"town":"Kangaatsiaq","state":"Qeqertalik","ISO3166-2-lvl4":"GL-QT","country":"Kalaallit Nunaat","country_code":"gl"},"osm_type":"node","osm_id":2051280944,"type":"town","location":[-53.4614913,68.3091537],"bbox":[-53.5014913,68.2691537,-53.4214913,68.3491537]}
{"name":"Qeqertarsuaq","other_names":{"name:en":"Qeqertarsuaq","name:ru":"Кекертарсуак","alt_name":"Godhavn","old_name":"Guthaven;Lievely;Leifly"},"display_name":"Qeqertarsuaq, Qeqertalik, 3953, Kalaallit Nunaat","address":{"town":"Qeqertarsuaq","state":"Qeqertalik","ISO3166-2-lvl4":"GL-QT","postcode":"3953","country":"Kalaallit Nunaat","country_code":"gl"},"population":1100,"osm_type":"node","osm_id":996562205,"type":"town","location":[-53.5353658,69.246235],"bbox":[-53.5753658,69.206235,-53.4953658,69.286235]}
{"name":"Qasigiannguit","display_name":"Qasigiannguit, Qeqertalik, 3951, Kalaallit Nunaat","address":{"town":"Qasigiannguit","state":"Qeqertalik","ISO3166-2-lvl4":"GL-QT","postcode":"3951","country":"Kalaallit Nunaat","country_code":"gl"},"population":1001,"osm_type":"node","osm_id":6173420639,"type":"town","location":[-51.19335,68.8193787],"bbox":[-51.23335,68.7793787,-51.15335,68.8593787]}
{"name":"Upernavik","other_names":{"name:bg":"Упернавик","name:en":"Upernavik","name:kl":"Upernavik","name:lt":"Upernavikas","name:ru":"Упернавик","name:uk":"Упернавік","name:be-tarask":"Упэрнавік"},"display_name":"Upernavik, Avannaata, Kalaallit Nunaat","address":{"town":"Upernavik","state":"Avannaata","ISO3166-2-lvl4":"GL-AV","country":"Kalaallit Nunaat","country_code":"gl"},"population":1129,"osm_type":"node","osm_id":338192478,"type":"town","location":[-56.1469625,72.7847392],"bbox":[-56.1869625,72.7447392,-56.1069625,72.8247392]}
{"name":"Uummannaq","other_names":{"name:kl":"Uummannaq","name:uk":"Уумманнак","old_name":"Omenak","name:be-tarask":"Уўманак"},"display_name":"Uummannaq, Avannaata, 3061, Kalaallit Nunaat","address":{"town":"Uummannaq","state":"Avannaata","ISO3166-2-lvl4":"GL-AV","postcode":"3061","country":"Kalaallit Nunaat","country_code":"gl"},"population":1299,"osm_type":"node","osm_id":1927339996,"type":"town","location":[-52.1268737,70.6748905],"bbox":[-52.1668737,70.6348905,-52.0868737,70.7148905]}
{"name":"Tasiilaq","other_names":{"name:ar":"تاسيلاك","name:he":"טאסיאילק","name:ja":"タシーラク","name:ka":"ტასიილაკი","name:kl":"Tasiilaq","name:ko":"타실라크","name:lt":"Tasilakas","name:mk":"Тасилак","name:ru":"Тасиилак","name:sv":"Tasiilaq","name:uk":"Аммассалік (Тасіілак)","alt_name":"Angmassalik;Ammassalik","name:bat-smg":"Tasilaks","name:be-tarask":"Тасііляк"},"display_name":"Tasiilaq, Ammasalik, Sermersooq, 3913, Kalaallit Nunaat","address":{"town":"Tasiilaq","city":"Ammasalik","municipality":"Sermersooq","ISO3166-2-lvl4":"GL-SM","postcode":"3913","country":"Kalaallit Nunaat","country_code":"gl"},"population":1930,"osm_type":"node","osm_id":2051281372,"type":"town","location":[-37.6378149,65.6152573],"bbox":[-37.6778149,65.5752573,-37.5978149,65.6552573]}
{"name":"Ittoqqortoormiit","other_names":{"name:da":"Scoresbysund","name:en":"Ittoqqortoormiit","name:kl":"Illoqqortoormiut","name:ru":"Иллоккортоормиут","name:uk":"Іттоккортоорміут","name:zh":"斯科斯比松","old_name":"Scoresbysund"},"display_name":"Ittoqqortoormiit, Sermersooq, 3980, Kalaallit Nunaat","address":{"town":"Ittoqqortoormiit","municipality":"Sermersooq","ISO3166-2-lvl4":"GL-SM","postcode":"3980","country":"Kalaallit Nunaat","country_code":"gl"},"population":345,"osm_type":"node","osm_id":1876686933,"type":"town","location":[-21.9641992,70.4850588],"bbox":[-22.0041992,70.4450588,-21.9241992,70.5250588]}
{"name":"Qassimiut","other_names":{"alt_name":"Qagssimiut","old_name":"Kagsimiut"},"display_name":"Qassimiut, Kujalleq, Kalaallit Nunaat","address":{"village":"Qassimiut","municipality":"Kujalleq","ISO3166-2-lvl4":"GL-KU","country":"Kalaallit Nunaat","country_code":"gl"},"population":30,"osm_type":"node","osm_id":1931229945,"type":"village","location":[-47.1586069,60.7817867],"bbox":[-47.1786069,60.7617867,-47.1386069,60.8017867]}
{"name":"Arsuk","display_name":"Arsuk, Sermersooq, Kalaallit Nunaat","address":{"village":"Arsuk","municipality":"Sermersooq","ISO3166-2-lvl4":"GL-SM","country":"Kalaallit Nunaat","country_code":"gl"},"osm_type":"node","osm_id":1924101036,"type":"village","location":[-48.45,61.175],"bbox":[-48.47,61.155,-48.43,61.195]}
{"name":"Alluitsup Paa","other_names":{"name:kl":"Alluitsup Paa","old_name":"Agdluitsup pâ;Sydprøven"},"display_name":"Alluitsup Paa, Kujalleq, 3919, Kalaallit Nunaat","address":{"village":"Alluitsup Paa","municipality":"Kujalleq","ISO3166-2-lvl4":"GL-KU","postcode":"3919","country":"Kalaallit Nunaat","country_code":"gl"},"population":216,"osm_type":"node","osm_id":1928557688,"type":"village","location":[-45.56926,60.4632667],"bbox":[-45.58926,60.4432667,-45.54926,60.4832667]}
{"name":"Saarloq","display_name":"Saarloq, Kujalleq, Kalaallit Nunaat","address":{"village":"Saarloq","municipality":"Kujalleq","ISO3166-2-lvl4":"GL-KU","country":"Kalaallit Nunaat","country_code":"gl"},"population":26,"osm_type":"node","osm_id":2049649035,"type":"village","location":[-46.0257582,60.5375528],"bbox":[-46.0457582,60.5175528,-46.0057582,60.5575528]}
{"name":"Eqalugaarsuit","other_names":{"old_name":"Eqalugârssuit"},"display_name":"Eqalugaarsuit, Kujalleq, Kalaallit Nunaat","address":{"village":"Eqalugaarsuit","municipality":"Kujalleq","ISO3166-2-lvl4":"GL-KU","country":"Kalaallit Nunaat","country_code":"gl"},"population":60,"osm_type":"node","osm_id":1928692482,"type":"village","location":[-45.9100132,60.623657],"bbox":[-45.9300132,60.603657,-45.8900132,60.643657]}
{"name":"Ammassivik","other_names":{"old_name":"Angmagssivik;Sletten"},"display_name":"Ammassivik, Kujalleq, Kalaallit Nunaat","address":{"village":"Ammassivik","municipality":"Kujalleq","ISO3166-2-lvl4":"GL-KU","country":"Kalaallit Nunaat","country_code":"gl"},"population":44,"osm_type":"node","osm_id":1928651214,"type":"village","location":[-45.3844041,60.5969457],"bbox":[-45.4044041,60.5769457,-45.3644041,60.6169457]}
{"name":"Dyrnæs","display_name":"Dyrnæs, Kujalleq, 3921, Kalaallit Nunaat","address":{"village":"Dyrnæs","municipality":"Kujalleq","ISO3166-2-lvl4":"GL-KU","postcode":"3921","country":"Kalaallit Nunaat","country_code":"gl"},"osm_type":"node","osm_id":8205199644,"type":"village","location":[-46.0313268,60.9472502],"bbox":[-46.0513268,60.9272502,-46.0113268,60.9672502]}
{"name":"Igaliku","other_names":{"old_name":"Igaliko"},"display_name":"Igaliku, Kujalleq, Igaliku, Kalaallit Nunaat","address":{"village":"Igaliku","municipality":"Kujalleq","ISO3166-2-lvl4":"GL-KU","state_district":"Igaliku","country":"Kalaallit Nunaat","country_code":"gl"},"population":44,"osm_type":"node","osm_id":1928931258,"type":"village","location":[-45.4210436,60.9891376],"bbox":[-45.4410436,60.9691376,-45.4010436,61.0091376]}
{"name":"Alluitsoq","other_names":{"name:de":"Lichtenau","name:kl":"Alluitsoq"},"display_name":"Alluitsoq, Kujalleq, Kalaallit Nunaat","address":{"village":"Alluitsoq","municipality":"Kujalleq","ISO3166-2-lvl4":"GL-KU","country":"Kalaallit Nunaat","country_code":"gl"},"osm_type":"node","osm_id":3420738394,"type":"village","location":[-45.5377897,60.5071376],"bbox":[-45.5577897,60.4871376,-45.5177897,60.5271376]}
{"name":"Qorlortorsuaq","display_name":"Qorlortorsuaq, Kujalleq, Kalaallit Nunaat","address":{"village":"Qorlortorsuaq","municipality":"Kujalleq","ISO3166-2-lvl4":"GL-KU","country":"Kalaallit Nunaat","country_code":"gl"},"osm_type":"node","osm_id":2077565908,"type":"village","location":[-45.238936,60.7742141],"bbox":[-45.258936,60.7542141,-45.218936,60.7942141]}
{"name":"Narsarsuaq","display_name":"Narsarsuaq, Kujalleq, 3923, Kalaallit Nunaat","address":{"village":"Narsarsuaq","municipality":"Kujalleq","ISO3166-2-lvl4":"GL-KU","postcode":"3923","country":"Kalaallit Nunaat","country_code":"gl"},"osm_type":"node","osm_id":5118647850,"type":"village","location":[-45.4235988,61.1555939],"bbox":[-45.4435988,61.1355939,-45.4035988,61.1755939]}
{"name":"Qeqertarsuatsiaat","other_names":{"old_name":"Fiskernæs;Fiskenæsset"},"display_name":"Qeqertarsuatsiaat, Sermersooq, Kalaallit Nunaat","address":{"village":"Qeqertarsuatsiaat","municipality":"Sermersooq","ISO3166-2-lvl4":"GL-SM","country":"Kalaallit Nunaat","country_code":"gl"},"population":235,"osm_type":"node","osm_id":1934295905,"type":"village","location":[-50.6733023,63.0893788],"bbox":[-50.6933023,63.0693788,-50.6533023,63.1093788]}
{"name":"Qassiarsuk","other_names":{"name:ar":"قاسيارسوك","name:da":"Qassiarsuk","name:de":"Qassiarsuk","name:fa":"قاسیارسوک","name:fr":"Qassiarsuk"},"display_name":"Qassiarsuk, Kujalleq, Kalaallit Nunaat","address":{"village":"Qassiarsuk","city":"Qassiarsuk","municipality":"Kujalleq","ISO3166-2-lvl4":"GL-KU","country":"Kalaallit Nunaat","country_code":"gl"},"population":80,"osm_type":"node","osm_id":1460042753,"type":"village","location":[-45.5155063,61.1547591],"bbox":[-45.5355063,61.1347591,-45.4955063,61.1747591]}
{"name":"Itilleq","other_names":{"old_name":"Itivdleq"},"display_name":"Itilleq, Qeqqata, Kalaallit Nunaat","address":{"village":"Itilleq","municipality":"Qeqqata","ISO3166-2-lvl4":"GL-QE","country":"Kalaallit Nunaat","country_code":"gl"},"osm_type":"node","osm_id":1922468729,"type":"village","location":[-53.4981929,66.577408],"bbox":[-53.5181929,66.557408,-53.4781929,66.597408]}
{"name":"Kangaamiut","other_names":{"old_name":"Gammel Sukkertoppen"},"display_name":"Kangaamiut, Qeqqata, Kalaallit Nunaat","address":{"village":"Kangaamiut","municipality":"Qeqqata","ISO3166-2-lvl4":"GL-QE","country":"Kalaallit Nunaat","country_code":"gl"},"osm_type":"node","osm_id":1320266404,"type":"village","location":[-53.3422961,65.8257228],"bbox":[-53.3622961,65.8057228,-53.3222961,65.8457228]}
{"name":"Atammik","other_names":{"old_name":"Atangmik"},"display_name":"Atammik, Qeqqata, Kalaallit Nunaat","address":{"village":"Atammik","municipality":"Qeqqata","ISO3166-2-lvl4":"GL-QE","country":"Kalaallit Nunaat","country_code":"gl"},"osm_type":"node","osm_id":2046347706,"type":"village","location":[-52.1753035,64.8034303],"bbox":[-52.1953035,64.7834303,-52.1553035,64.8234303]}
{"name":"Napasoq","other_names":{"old_name":"Napassoq;Napâssoq"},"display_name":"Napasoq, Qeqqata, Kalaallit Nunaat","address":{"village":"Napasoq","municipality":"Qeqqata","ISO3166-2-lvl4":"GL-QE","country":"Kalaallit Nunaat","country_code":"gl"},"osm_type":"node","osm_id":1922560306,"type":"village","location":[-52.3810263,65.0472241],"bbox":[-52.4010263,65.0272241,-52.3610263,65.0672241]}
{"name":"Kangerlussuaq","other_names":{"name:da":"Søndre Strømfjord","name:ru":"Кангерлуссуак","alt_name":"Sondrestrom"},"display_name":"Kangerlussuaq, Sisimiut, Qeqqata, Kalaallit Nunaat","address":{"village":"Kangerlussuaq","city":"Sisimiut","municipality":"Qeqqata","ISO3166-2-lvl4":"GL-QE","country":"Kalaallit Nunaat","country_code":"gl"},"osm_type":"node","osm_id":248059429,"type":"village","location":[-50.6913356,67.0086767],"bbox":[-50.7113356,66.9886767,-50.6713356,67.0286767]}
{"name":"Sarfannguit","other_names":{"old_name":"Sarfannguaq;Sarfánguaq"},"display_name":"Sarfannguit, Qeqqata, Kalaallit Nunaat","address":{"village":"Sarfannguit","municipality":"Qeqqata","ISO3166-2-lvl4":"GL-QE","country":"Kalaallit Nunaat","country_code":"gl"},"osm_type":"node","osm_id":1923322740,"type":"village","location":[-52.8606307,66.8977029],"bbox":[-52.8806307,66.8777029,-52.8406307,66.9177029]}
{"name":"Kapisillit","display_name":"Kapisillit, Nuuk, Sermersooq, Kalaallit Nunaat","address":{"village":"Kapisillit","city":"Nuuk","municipality":"Sermersooq","ISO3166-2-lvl4":"GL-SM","country":"Kalaallit Nunaat","country_code":"gl"},"osm_type":"node","osm_id":1926965100,"type":"village","location":[-50.2716975,64.4347916],"bbox":[-50.2916975,64.4147916,-50.2516975,64.4547916]}
{"name":"Iita","other_names":{"name:en":"Etah"},"display_name":"Iita, Avannaata, Kalaallit Nunaat","address":{"village":"Iita","state":"Avannaata","ISO3166-2-lvl4":"GL-AV","country":"Kalaallit Nunaat","country_code":"gl"},"osm_type":"node","osm_id":2051280902,"type":"village","location":[-72.6012716,78.3131833],"bbox":[-72.6212716,78.2931833,-72.5812716,78.3331833]}
{"name":"Neqi","display_name":"Neqi, Avannaata, Kalaallit Nunaat","address":{"village":"Neqi","state":"Avannaata","ISO3166-2-lvl4":"GL-AV","country":"Kalaallit Nunaat","country_code":"gl"},"osm_type":"node","osm_id":9387334817,"type":"village","location":[-71.5454501,77.8579774],"bbox":[-71.5654501,77.8379774,-71.5254501,77.8779774]}
{"name":"Siorapaluk","other_names":{"alt_name":"Hiurapaluk"},"display_name":"Siorapaluk, Qaanaaq, Avannaata, Kalaallit Nunaat","address":{"village":"Siorapaluk","town":"Qaanaaq","state":"Avannaata","ISO3166-2-lvl4":"GL-AV","country":"Kalaallit Nunaat","country_code":"gl"},"population":68,"osm_type":"node","osm_id":1925425062,"type":"village","location":[-70.6333799,77.7854283],"bbox":[-70.6533799,77.7654283,-70.6133799,77.8054283]}
{"name":"Narsaarsuk","display_name":"Narsaarsuk, Avannaata, Kalaallit Nunaat","address":{"village":"Narsaarsuk","state":"Avannaata","ISO3166-2-lvl4":"GL-AV","country":"Kalaallit Nunaat","country_code":"gl"},"osm_type":"node","osm_id":9387316406,"type":"village","location":[-69.3359457,76.4516017],"bbox":[-69.3559457,76.4316017,-69.3159457,76.4716017]}
{"name":"Uummannaq","other_names":{"name:en":"Dundas"},"display_name":"Uummannaq, Pituffik, Kalaallit Nunaat","address":{"village":"Uummannaq","state":"Pituffik","country":"Kalaallit Nunaat","country_code":"gl"},"osm_type":"node","osm_id":9392343530,"type":"village","location":[-68.7876997,76.5639631],"bbox":[-68.8076997,76.5439631,-68.7676997,76.5839631]}
{"name":"Moriusaq","other_names":{"alt_name":"Moriussaq"},"display_name":"Moriusaq, Avannaata, Kalaallit Nunaat","address":{"village":"Moriusaq","state":"Avannaata","ISO3166-2-lvl4":"GL-AV","country":"Kalaallit Nunaat","country_code":"gl"},"population":0,"osm_type":"node","osm_id":1925504656,"type":"village","location":[-69.8435224,76.7516143],"bbox":[-69.8635224,76.7316143,-69.8235224,76.7716143]}
{"name":"Qeqertarsuaq","display_name":"Qeqertarsuaq, Avannaata, Kalaallit Nunaat","address":{"village":"Qeqertarsuaq","state":"Avannaata","ISO3166-2-lvl4":"GL-AV","country":"Kalaallit Nunaat","country_code":"gl"},"osm_type":"node","osm_id":8241543322,"type":"village","location":[-70.1359684,77.4218092],"bbox":[-70.1559684,77.4018092,-70.1159684,77.4418092]}
{"name":"Kangerluarsuk","display_name":"Kangerluarsuk, Qaanaaq, Avannaata, Kalaallit Nunaat","address":{"village":"Kangerluarsuk","town":"Qaanaaq","state":"Avannaata","ISO3166-2-lvl4":"GL-AV","country":"Kalaallit Nunaat","country_code":"gl"},"osm_type":"node","osm_id":9387284158,"type":"village","location":[-68.5538463,77.5483318],"bbox":[-68.5738463,77.5283318,-68.5338463,77.5683318]}
{"name":"Quinisut","display_name":"Quinisut, Qaanaaq, Avannaata, Kalaallit Nunaat","address":{"village":"Quinisut","town":"Qaanaaq","state":"Avannaata","ISO3166-2-lvl4":"GL-AV","country":"Kalaallit Nunaat","country_code":"gl"},"osm_type":"node","osm_id":9387379168,"type":"village","location":[-67.7768234,77.5150782],"bbox":[-67.7968234,77.4950782,-67.7568234,77.5350782]}
{"name":"Attu","display_name":"Attu, Qeqertalik, Kalaallit Nunaat","address":{"village":"Attu","state":"Qeqertalik","ISO3166-2-lvl4":"GL-QT","country":"Kalaallit Nunaat","country_code":"gl"},"population":226,"osm_type":"node","osm_id":2049648999,"type":"village","location":[-53.6227778,67.9405556],"bbox":[-53.6427778,67.9205556,-53.6027778,67.9605556]}
{"name":"Appaalissiorfik","other_names":{"old_name":"Agpâligsiorfik"},"display_name":"Appaalissiorfik, Avannaata, Kalaallit Nunaat","address":{"village":"Appaalissiorfik","state":"Avannaata","ISO3166-2-lvl4":"GL-AV","country":"Kalaallit Nunaat","country_code":"gl"},"osm_type":"node","osm_id":2051280837,"type":"village","location":[-56.5833333,73.8083333],"bbox":[-56.6033333,73.7883333,-56.5633333,73.8283333]}
{"name":"Mernoq","display_name":"Mernoq, Avannaata, Kalaallit Nunaat","address":{"village":"Mernoq","state":"Avannaata","ISO3166-2-lvl4":"GL-AV","country":"Kalaallit Nunaat","country_code":"gl"},"osm_type":"node","osm_id":9396803475,"type":"village","location":[-56.3511218,73.7530894],"bbox":[-56.3711218,73.7330894,-56.3311218,73.7730894]}
{"name":"Nuussuaq","other_names":{"name:da":"Kraulshavn","old_name":"Nûgssuaq;Kraulshavn"},"display_name":"Nuussuaq, Avannaata, Kalaallit Nunaat","address":{"village":"Nuussuaq","state":"Avannaata","ISO3166-2-lvl4":"GL-AV","country":"Kalaallit Nunaat","country_code":"gl"},"osm_type":"node","osm_id":2049649027,"type":"village","location":[-57.0611111,74.1111111],"bbox":[-57.0811111,74.0911111,-57.0411111,74.1311111]}
{"name":"Innaanganeq","display_name":"Innaanganeq, Avannaata, Kalaallit Nunaat","address":{"village":"Innaanganeq","state":"Avannaata","ISO3166-2-lvl4":"GL-AV","country":"Kalaallit Nunaat","country_code":"gl"},"osm_type":"node","osm_id":9387267274,"type":"village","location":[-66.4346023,75.928811],"bbox":[-66.4546023,75.908811,-66.4146023,75.948811]}
{"name":"Ikerasaarsuk","display_name":"Ikerasaarsuk, Qeqertalik, Kalaallit Nunaat","address":{"village":"Ikerasaarsuk","state":"Qeqertalik","ISO3166-2-lvl4":"GL-QT","country":"Kalaallit Nunaat","country_code":"gl"},"osm_type":"node","osm_id":2049649012,"type":"village","location":[-53.445748,68.14009],"bbox":[-53.465748,68.12009,-53.425748,68.16009]}
{"name":"Savissivik","other_names":{"alt_name":"Havighivik","old_name":"Savigsivik"},"display_name":"Savissivik, Avannaata, Kalaallit Nunaat","address":{"village":"Savissivik","state":"Avannaata","ISO3166-2-lvl4":"GL-AV","country":"Kalaallit Nunaat","country_code":"gl"},"osm_type":"node","osm_id":1925855328,"type":"village","location":[-65.1142961,76.0196363],"bbox":[-65.1342961,75.9996363,-65.0942961,76.0396363]}
{"name":"Ikermiut","display_name":"Ikermiut, Avannaata, Kalaallit Nunaat","address":{"village":"Ikermiut","state":"Avannaata","ISO3166-2-lvl4":"GL-AV","country":"Kalaallit Nunaat","country_code":"gl"},"osm_type":"node","osm_id":2049649014,"type":"village","location":[-56.9795836,74.3318043],"bbox":[-56.9995836,74.3118043,-56.9595836,74.3518043]}
{"name":"Kittorsaq","display_name":"Kittorsaq, Avannaata, Kalaallit Nunaat","address":{"village":"Kittorsaq","state":"Avannaata","ISO3166-2-lvl4":"GL-AV","country":"Kalaallit Nunaat","country_code":"gl"},"osm_type":"node","osm_id":9396742450,"type":"village","location":[-56.7227387,73.9316621],"bbox":[-56.7427387,73.9116621,-56.7027387,73.9516621]}
{"name":"Itissaalik","other_names":{"alt_name":"Itussaalik","old_name":"Itivsâlik"},"display_name":"Itissaalik, Avannaata, Kalaallit Nunaat","address":{"village":"Itissaalik","state":"Avannaata","ISO3166-2-lvl4":"GL-AV","country":"Kalaallit Nunaat","country_code":"gl"},"osm_type":"node","osm_id":2049649016,"type":"village","location":[-56.7437966,74.0558431],"bbox":[-56.7637966,74.0358431,-56.7237966,74.0758431]}
{"name":"Kangerlussuaq","display_name":"Kangerlussuaq, Qaanaaq, Avannaata, Kalaallit Nunaat","address":{"village":"Kangerlussuaq","town":"Qaanaaq","state":"Avannaata","ISO3166-2-lvl4":"GL-AV","country":"Kalaallit Nunaat","country_code":"gl"},"osm_type":"node","osm_id":9387316220,"type":"village","location":[-67.0974293,77.3727963],"bbox":[-67.1174293,77.3527963,-67.0774293,77.3927963]}
{"name":"Illulik","other_names":{"old_name":"Igdlulik"},"display_name":"Illulik, Avannaata, Kalaallit Nunaat","address":{"village":"Illulik","state":"Avannaata","ISO3166-2-lvl4":"GL-AV","country":"Kalaallit Nunaat","country_code":"gl"},"osm_type":"node","osm_id":2051280917,"type":"village","location":[-56.715502,74.3460337],"bbox":[-56.735502,74.3260337,-56.695502,74.3660337]}
{"name":"Qeqertat","display_name":"Qeqertat, Qaanaaq, Avannaata, Kalaallit Nunaat","address":{"village":"Qeqertat","town":"Qaanaaq","state":"Avannaata","ISO3166-2-lvl4":"GL-AV","country":"Kalaallit Nunaat","country_code":"gl"},"population":26,"osm_type":"node","osm_id":6534842809,"type":"village","location":[-66.6859075,77.494079],"bbox":[-66.7059075,77.474079,-66.6659075,77.514079]}
{"name":"Qaarusulik","display_name":"Qaarusulik, Avannaata, Kalaallit Nunaat","address":{"village":"Qaarusulik","state":"Avannaata","ISO3166-2-lvl4":"GL-AV","country":"Kalaallit Nunaat","country_code":"gl"},"osm_type":"node","osm_id":9397026581,"type":"village","location":[-57.809432,74.7122256],"bbox":[-57.829432,74.6922256,-57.789432,74.7322256]}
{"name":"Kullorsuaq","other_names":{"name:da":"Djævlens Tommelfinger","old_name":"Kuvdlorssuaq"},"display_name":"Kullorsuaq, Avannaata, Kalaallit Nunaat","address":{"village":"Kullorsuaq","state":"Avannaata","ISO3166-2-lvl4":"GL-AV","country":"Kalaallit Nunaat","country_code":"gl"},"population":436,"osm_type":"node","osm_id":2049649020,"type":"village","location":[-57.2198151,74.579066],"bbox":[-57.2398151,74.559066,-57.1998151,74.599066]}
{"name":"Eqqorleq","display_name":"Eqqorleq, Avannaata, Kalaallit Nunaat","address":{"village":"Eqqorleq","state":"Avannaata","ISO3166-2-lvl4":"GL-AV","country":"Kalaallit Nunaat","country_code":"gl"},"osm_type":"node","osm_id":9392645118,"type":"village","location":[-56.3138262,73.2274436],"bbox":[-56.3338262,73.2074436,-56.2938262,73.2474436]}
{"name":"Itilliarsuk","display_name":"Itilliarsuk, Avannaata, Kalaallit Nunaat","address":{"village":"Itilliarsuk","state":"Avannaata","ISO3166-2-lvl4":"GL-AV","country":"Kalaallit Nunaat","country_code":"gl"},"osm_type":"node","osm_id":9392696131,"type":"village","location":[-56.5304505,73.5186291],"bbox":[-56.5504505,73.4986291,-56.5104505,73.5386291]}
{"name":"Nutaarmiut","other_names":{"old_name":"Nutârmiut"},"display_name":"Nutaarmiut, Avannaata, Kalaallit Nunaat","address":{"village":"Nutaarmiut","state":"Avannaata","ISO3166-2-lvl4":"GL-AV","country":"Kalaallit Nunaat","country_code":"gl"},"population":40,"osm_type":"node","osm_id":2049649026,"type":"village","location":[-56.4280625,73.5187655],"bbox":[-56.4480625,73.4987655,-56.4080625,73.5387655]}
{"name":"Kangerluk","other_names":{"name:ca":"Kangerluk","name:cs":"Kangerluk","name:da":"Kangerluk","name:de":"Kangerluk","name:en":"Kangerluk","name:es":"Kangerluk","name:fr":"Kangerluk","name:it":"Diskofjord","name:ka":"კანგერლუკი","name:nl":"Kangerluk","name:no":"Kangerluk","name:pl":"Kangerluk","name:pt":"Kangerluk","name:ru":"Кангерлук","name:sv":"Kangerluk","old_name":"Kangerdluk","alt_name:cs":"Diskofjord","alt_name:de":"Ekkittok;Ekkitsok","alt_name:en":"Diskofjord","alt_name:fr":"Diskofjord","alt_name:it":"Kangerluk;Evqitsoq","old_name:da":"Kangerdluk","old_name:de":"Kangerdluk","old_name:en":"Kangerdluk","old_name:es":"Kangerdluk","old_name:fr":"Kangerdluk","old_name:it":"Kangerdluk","old_name:nl":"Kangerdluk","old_name:pt":"Kangerdluk"},"display_name":"Kangerluk, Qeqertalik, Kalaallit Nunaat","address":{"village":"Kangerluk","state":"Qeqertalik","ISO3166-2-lvl4":"GL-QT","country":"Kalaallit Nunaat","country_code":"gl"},"population":54,"osm_type":"node","osm_id":2049649017,"type":"village","location":[-53.9486451,69.4843741],"bbox":[-53.9686451,69.4643741,-53.9286451,69.5043741]}
{"name":"Nivâq","display_name":"Nivâq, Qeqertalik, Kalaallit Nunaat","address":{"village":"Nivâq","state":"Qeqertalik","ISO3166-2-lvl4":"GL-QT","country":"Kalaallit Nunaat","country_code":"gl"},"osm_type":"node","osm_id":5312725677,"type":"village","location":[-52.4062998,68.6195605],"bbox":[-52.4262998,68.5995605,-52.3862998,68.6395605]}
{"name":"Avannarliit","other_names":{"name:da":"Nordre Huse"},"display_name":"Avannarliit, Avannaata, Kalaallit Nunaat","address":{"village":"Avannarliit","state":"Avannaata","ISO3166-2-lvl4":"GL-AV","country":"Kalaallit Nunaat","country_code":"gl"},"osm_type":"node","osm_id":9503297518,"type":"village","location":[-51.0861174,69.1254384],"bbox":[-51.1061174,69.1054384,-51.0661174,69.1454384]}
{"name":"Akunnaaq","other_names":{"old_name":"Akúnâk"},"display_name":"Akunnaaq, Qeqertalik, Kalaallit Nunaat","address":{"village":"Akunnaaq","state":"Qeqertalik","ISO3166-2-lvl4":"GL-QT","country":"Kalaallit Nunaat","country_code":"gl"},"osm_type":"node","osm_id":2049648982,"type":"village","location":[-52.3264842,68.7446942],"bbox":[-52.3464842,68.7246942,-52.3064842,68.7646942]}
{"name":"Ikamiut","display_name":"Ikamiut, Qeqertalik, Kalaallit Nunaat","address":{"village":"Ikamiut","state":"Qeqertalik","ISO3166-2-lvl4":"GL-QT","country":"Kalaallit Nunaat","country_code":"gl"},"osm_type":"node","osm_id":2049649011,"type":"village","location":[-51.8327778,68.6333333],"bbox":[-51.8527778,68.6133333,-51.8127778,68.6533333]}
{"name":"Iginniarfik","display_name":"Iginniarfik, Qeqertalik, Kalaallit Nunaat","address":{"village":"Iginniarfik","state":"Qeqertalik","ISO3166-2-lvl4":"GL-QT","country":"Kalaallit Nunaat","country_code":"gl"},"population":88,"osm_type":"node","osm_id":2049649010,"type":"village","location":[-53.1722222,68.1480556],"bbox":[-53.1922222,68.1280556,-53.1522222,68.1680556]}
{"name":"Eqi","display_name":"Eqi, Avannaata, Kalaallit Nunaat","address":{"village":"Eqi","state":"Avannaata","ISO3166-2-lvl4":"GL-AV","country":"Kalaallit Nunaat","country_code":"gl"},"osm_type":"node","osm_id":9503249705,"type":"village","location":[-51.0954204,69.1352344],"bbox":[-51.1154204,69.1152344,-51.0754204,69.1552344]}
{"name":"Qeqertarsuatsiaq","display_name":"Qeqertarsuatsiaq, Qeqertalik, Kalaallit Nunaat","address":{"village":"Qeqertarsuatsiaq","state":"Qeqertalik","ISO3166-2-lvl4":"GL-QT","country":"Kalaallit Nunaat","country_code":"gl"},"osm_type":"node","osm_id":8989818449,"type":"village","location":[-53.2363619,68.4132312],"bbox":[-53.2563619,68.3932312,-53.2163619,68.4332312]}
{"name":"Ataartaa","display_name":"Ataartaa, Avannaata, Kalaallit Nunaat","address":{"village":"Ataartaa","state":"Avannaata","ISO3166-2-lvl4":"GL-AV","country":"Kalaallit Nunaat","country_code":"gl"},"osm_type":"node","osm_id":9503282912,"type":"village","location":[-52.9930322,70.3118514],"bbox":[-53.0130322,70.2918514,-52.9730322,70.3318514]}
{"name":"Ilimanaq","other_names":{"old_name":"Claushavn"},"display_name":"Ilimanaq, Avannaata, Kalaallit Nunaat","address":{"village":"Ilimanaq","state":"Avannaata","ISO3166-2-lvl4":"GL-AV","country":"Kalaallit Nunaat","country_code":"gl"},"population":84,"osm_type":"node","osm_id":1917808253,"type":"village","location":[-51.1129933,69.0806727],"bbox":[-51.1329933,69.0606727,-51.0929933,69.1006727]}
{"name":"Niaqornaarsuk","display_name":"Niaqornaarsuk, Qeqertalik, Kalaallit Nunaat","address":{"village":"Niaqornaarsuk","state":"Qeqertalik","ISO3166-2-lvl4":"GL-QT","country":"Kalaallit Nunaat","country_code":"gl"},"population":300,"osm_type":"node","osm_id":2051281009,"type":"village","location":[-52.8517546,68.2361662],"bbox":[-52.8717546,68.2161662,-52.8317546,68.2561662]}
{"name":"Kitsissuarsuit","other_names":{"old_name":"Kitsigsuarssuit;Hunde Ejlande;Dog's Island"},"display_name":"Kitsissuarsuit, Qeqertalik, Kalaallit Nunaat","address":{"village":"Kitsissuarsuit","state":"Qeqertalik","ISO3166-2-lvl4":"GL-QT","country":"Kalaallit Nunaat","country_code":"gl"},"population":50,"osm_type":"node","osm_id":2049649018,"type":"village","location":[-53.1212302,68.8574131],"bbox":[-53.1412302,68.8374131,-53.1012302,68.8774131]}
{"name":"Paakitsoq","display_name":"Paakitsoq, Avannaata, Kalaallit Nunaat","address":{"village":"Paakitsoq","state":"Avannaata","ISO3166-2-lvl4":"GL-AV","country":"Kalaallit Nunaat","country_code":"gl"},"osm_type":"node","osm_id":9556695960,"type":"village","location":[-50.7309455,69.5140145],"bbox":[-50.7509455,69.4940145,-50.7109455,69.5340145]}
{"name":"Upernavik Kujalleq","other_names":{"name:da":"Søndre Upernavik","name:kl":"Upernavik Kujalleq","name:uk":"Упернавік Кійалек","old_name":"Upernavik Kujatdleq;Søndre Upernavik"},"display_name":"Upernavik Kujalleq, Avannaata, Kalaallit Nunaat","address":{"village":"Upernavik Kujalleq","state":"Avannaata","ISO3166-2-lvl4":"GL-AV","country":"Kalaallit Nunaat","country_code":"gl"},"population":194,"osm_type":"node","osm_id":1935662069,"type":"village","location":[-55.527856,72.1542307],"bbox":[-55.547856,72.1342307,-55.507856,72.1742307]}
{"name":"Saqqaq","other_names":{"alt_name":"Solsiden","old_name":"Sarqaq"},"display_name":"Saqqaq, Avannaata, Kalaallit Nunaat","address":{"village":"Saqqaq","state":"Avannaata","ISO3166-2-lvl4":"GL-AV","country":"Kalaallit Nunaat","country_code":"gl"},"osm_type":"node","osm_id":2051281255,"type":"village","location":[-51.9474886,70.0098637],"bbox":[-51.9674886,69.9898637,-51.9274886,70.0298637]}
{"name":"Akunnaaq","display_name":"Akunnaaq, Avannaata, Kalaallit Nunaat","address":{"village":"Akunnaaq","state":"Avannaata","ISO3166-2-lvl4":"GL-AV","country":"Kalaallit Nunaat","country_code":"gl"},"osm_type":"node","osm_id":9503104072,"type":"village","location":[-51.5677359,69.982228],"bbox":[-51.5877359,69.962228,-51.5477359,70.002228]}
{"name":"Oqaatsut","other_names":{"old_name":"Oqaitsut;Rodebay"},"display_name":"Oqaatsut, Avannaata, Kalaallit Nunaat","address":{"village":"Oqaatsut","state":"Avannaata","ISO3166-2-lvl4":"GL-AV","country":"Kalaallit Nunaat","country_code":"gl"},"population":52,"osm_type":"node","osm_id":381460259,"type":"village","location":[-51.0049993,69.3428183],"bbox":[-51.0249993,69.3228183,-50.9849993,69.3628183]}
{"name":"Ikerasak","display_name":"Ikerasak, Avannaata, Kalaallit Nunaat","address":{"village":"Ikerasak","state":"Avannaata","ISO3166-2-lvl4":"GL-AV","country":"Kalaallit Nunaat","country_code":"gl"},"osm_type":"node","osm_id":9392658422,"type":"village","location":[-55.1301813,72.2663959],"bbox":[-55.1501813,72.2463959,-55.1101813,72.2863959]}
{"name":"Tunoqqu","display_name":"Tunoqqu, Avannaata, Kalaallit Nunaat","address":{"village":"Tunoqqu","state":"Avannaata","ISO3166-2-lvl4":"GL-AV","country":"Kalaallit Nunaat","country_code":"gl"},"osm_type":"node","osm_id":9400678854,"type":"village","location":[-55.9937512,72.8506909],"bbox":[-56.0137512,72.8306909,-55.9737512,72.8706909]}
{"name":"Tussaaq","display_name":"Tussaaq, Avannaata, Kalaallit Nunaat","address":{"village":"Tussaaq","state":"Avannaata","ISO3166-2-lvl4":"GL-AV","country":"Kalaallit Nunaat","country_code":"gl"},"osm_type":"node","osm_id":8188719566,"type":"village","location":[-56.1796147,73.0482599],"bbox":[-56.1996147,73.0282599,-56.1596147,73.0682599]}
{"name":"Ikorfat","display_name":"Ikorfat, Avannaata, Kalaallit Nunaat","address":{"village":"Ikorfat","state":"Avannaata","ISO3166-2-lvl4":"GL-AV","country":"Kalaallit Nunaat","country_code":"gl"},"osm_type":"node","osm_id":9503309825,"type":"village","location":[-51.4456535,69.9718788],"bbox":[-51.4656535,69.9518788,-51.4256535,69.9918788]}
{"name":"Uluaa","display_name":"Uluaa, Avannaata, Kalaallit Nunaat","address":{"village":"Uluaa","state":"Avannaata","ISO3166-2-lvl4":"GL-AV","country":"Kalaallit Nunaat","country_code":"gl"},"osm_type":"node","osm_id":9403346371,"type":"village","location":[-54.907587,72.3906451],"bbox":[-54.927587,72.3706451,-54.887587,72.4106451]}
{"name":"Appat","other_names":{"name:da":"Ritenbenk"},"display_name":"Appat, Avannaata, Kalaallit Nunaat","address":{"village":"Appat","state":"Avannaata","ISO3166-2-lvl4":"GL-AV","country":"Kalaallit Nunaat","country_code":"gl"},"osm_type":"node","osm_id":9503179320,"type":"village","location":[-51.3012931,69.7614576],"bbox":[-51.3212931,69.7414576,-51.2812931,69.7814576]}
{"name":"Saattoq","display_name":"Saattoq, Avannaata, Kalaallit Nunaat","address":{"village":"Saattoq","state":"Avannaata","ISO3166-2-lvl4":"GL-AV","country":"Kalaallit Nunaat","country_code":"gl"},"osm_type":"node","osm_id":9397140118,"type":"village","location":[-56.0727189,73.1180676],"bbox":[-56.0927189,73.0980676,-56.0527189,73.1380676]}
{"name":"Aappilattoq","display_name":"Aappilattoq, Avannaata, Kalaallit Nunaat","address":{"village":"Aappilattoq","state":"Avannaata","ISO3166-2-lvl4":"GL-AV","country":"Kalaallit Nunaat","country_code":"gl"},"population":180,"osm_type":"node","osm_id":1932723206,"type":"village","location":[-55.5979679,72.8833228],"bbox":[-55.6179679,72.8633228,-55.5779679,72.9033228]}
{"name":"Kingittoq","display_name":"Kingittoq, Avannaata, Kalaallit Nunaat","address":{"village":"Kingittoq","state":"Avannaata","ISO3166-2-lvl4":"GL-AV","country":"Kalaallit Nunaat","country_code":"gl"},"osm_type":"node","osm_id":9397004231,"type":"village","location":[-55.9463435,72.6689168],"bbox":[-55.9663435,72.6489168,-55.9263435,72.6889168]}
{"name":"Aappi","display_name":"Aappi, Avannaata, Kalaallit Nunaat","address":{"village":"Aappi","state":"Avannaata","ISO3166-2-lvl4":"GL-AV","country":"Kalaallit Nunaat","country_code":"gl"},"osm_type":"node","osm_id":9392539446,"type":"village","location":[-55.7269084,72.9753036],"bbox":[-55.7469084,72.9553036,-55.7069084,72.9953036]}
{"name":"Qassersuaq","display_name":"Qassersuaq, Avannaata, Kalaallit Nunaat","address":{"village":"Qassersuaq","state":"Avannaata","ISO3166-2-lvl4":"GL-AV","country":"Kalaallit Nunaat","country_code":"gl"},"osm_type":"node","osm_id":9397124769,"type":"village","location":[-55.7116312,73.0864089],"bbox":[-55.7316312,73.0664089,-55.6916312,73.1064089]}
{"name":"Inussugaarsuk","display_name":"Inussugaarsuk, Avannaata, Kalaallit Nunaat","address":{"village":"Inussugaarsuk","state":"Avannaata","ISO3166-2-lvl4":"GL-AV","country":"Kalaallit Nunaat","country_code":"gl"},"osm_type":"node","osm_id":9392670568,"type":"village","location":[-55.4143882,72.7940881],"bbox":[-55.4343882,72.7740881,-55.3943882,72.8140881]}
{"name":"Ataa","display_name":"Ataa, Avannaata, Kalaallit Nunaat","address":{"village":"Ataa","state":"Avannaata","ISO3166-2-lvl4":"GL-AV","country":"Kalaallit Nunaat","country_code":"gl"},"osm_type":"node","osm_id":9503267790,"type":"village","location":[-50.9368367,69.7587254],"bbox":[-50.9568367,69.7387254,-50.9168367,69.7787254]}
{"name":"Upernaviarsuk","display_name":"Upernaviarsuk, Avannaata, Kalaallit Nunaat","address":{"village":"Upernaviarsuk","state":"Avannaata","ISO3166-2-lvl4":"GL-AV","country":"Kalaallit Nunaat","country_code":"gl"},"osm_type":"node","osm_id":9403344756,"type":"village","location":[-55.6468093,72.7692826],"bbox":[-55.6668093,72.7492826,-55.6268093,72.7892826]}
{"name":"Arsivik","display_name":"Arsivik, Ilulissat, Avannaata, Kalaallit Nunaat","address":{"village":"Arsivik","city":"Ilulissat","state":"Avannaata","ISO3166-2-lvl4":"GL-AV","country":"Kalaallit Nunaat","country_code":"gl"},"osm_type":"node","osm_id":9503187129,"type":"village","location":[-50.6924071,69.8444477],"bbox":[-50.7124071,69.8244477,-50.6724071,69.8644477]}
{"name":"Qeqertaq","other_names":{"old_name":"Øen"},"display_name":"Qeqertaq, Avannaata, Kalaallit Nunaat","address":{"village":"Qeqertaq","state":"Avannaata","ISO3166-2-lvl4":"GL-AV","country":"Kalaallit Nunaat","country_code":"gl"},"population":130,"osm_type":"node","osm_id":2051281173,"type":"village","location":[-51.3027778,69.9972222],"bbox":[-51.3227778,69.9772222,-51.2827778,70.0172222]}
{"name":"Qaarsut","other_names":{"old_name":"Qaersut"},"display_name":"Qaarsut, Avannaata, 3964, Kalaallit Nunaat","address":{"village":"Qaarsut","state":"Avannaata","ISO3166-2-lvl4":"GL-AV","postcode":"3964","country":"Kalaallit Nunaat","country_code":"gl"},"osm_type":"node","osm_id":2051281124,"type":"village","location":[-52.6374356,70.7309814],"bbox":[-52.6574356,70.7109814,-52.6174356,70.7509814]}
{"name":"Nuugaatsiaq","other_names":{"old_name":"Nûgâtsiaq"},"display_name":"Nuugaatsiaq, Avannaata, Kalaallit Nunaat","address":{"village":"Nuugaatsiaq","state":"Avannaata","ISO3166-2-lvl4":"GL-AV","country":"Kalaallit Nunaat","country_code":"gl"},"osm_type":"node","osm_id":2051281058,"type":"village","location":[-53.2125,71.535],"bbox":[-53.2325,71.515,-53.1925,71.555]}
{"name":"Nuugaaq","display_name":"Nuugaaq, Avannaata, Kalaallit Nunaat","address":{"village":"Nuugaaq","state":"Avannaata","ISO3166-2-lvl4":"GL-AV","country":"Kalaallit Nunaat","country_code":"gl"},"osm_type":"node","osm_id":9556703311,"type":"village","location":[-51.2542271,69.9650729],"bbox":[-51.2742271,69.9450729,-51.2342271,69.9850729]}
{"name":"Illorsuit","display_name":"Illorsuit, Avannaata, Kalaallit Nunaat","address":{"village":"Illorsuit","state":"Avannaata","ISO3166-2-lvl4":"GL-AV","country":"Kalaallit Nunaat","country_code":"gl"},"osm_type":"node","osm_id":9556692947,"type":"village","location":[-51.2044956,69.9797443],"bbox":[-51.2244956,69.9597443,-51.1844956,69.9997443]}
{"name":"Naajaat","display_name":"Naajaat, Avannaata, Kalaallit Nunaat","address":{"village":"Naajaat","state":"Avannaata","ISO3166-2-lvl4":"GL-AV","country":"Kalaallit Nunaat","country_code":"gl"},"osm_type":"node","osm_id":9556743590,"type":"village","location":[-51.1640678,69.9627986],"bbox":[-51.1840678,69.9427986,-51.1440678,69.9827986]}
{"name":"Saattut","other_names":{"old_name":"Sâtut"},"display_name":"Saattut, Avannaata, Kalaallit Nunaat","address":{"village":"Saattut","state":"Avannaata","ISO3166-2-lvl4":"GL-AV","country":"Kalaallit Nunaat","country_code":"gl"},"osm_type":"node","osm_id":1927339997,"type":"village","location":[-51.6352674,70.8109426],"bbox":[-51.6552674,70.7909426,-51.6152674,70.8309426]}
{"name":"Niaqornat","display_name":"Niaqornat, Avannaata, Kalaallit Nunaat","address":{"village":"Niaqornat","state":"Avannaata","ISO3166-2-lvl4":"GL-AV","country":"Kalaallit Nunaat","country_code":"gl"},"osm_type":"node","osm_id":2051281029,"type":"village","location":[-53.6640819,70.788942],"bbox":[-53.6840819,70.768942,-53.6440819,70.808942]}
{"name":"Ikerasak","display_name":"Ikerasak, Avannaata, Kalaallit Nunaat","address":{"village":"Ikerasak","state":"Avannaata","ISO3166-2-lvl4":"GL-AV","country":"Kalaallit Nunaat","country_code":"gl"},"osm_type":"node","osm_id":2049649013,"type":"village","location":[-51.3027778,70.5027778],"bbox":[-51.3227778,70.4827778,-51.2827778,70.5227778]}
{"name":"Anaa","display_name":"Anaa, Ilulissat, Avannaata, Kalaallit Nunaat","address":{"village":"Anaa","city":"Ilulissat","state":"Avannaata","ISO3166-2-lvl4":"GL-AV","country":"Kalaallit Nunaat","country_code":"gl"},"osm_type":"node","osm_id":9503096010,"type":"village","location":[-50.6054499,69.9618814],"bbox":[-50.6254499,69.9418814,-50.5854499,69.9818814]}
{"name":"Ukkusissat","other_names":{"old_name":"Uvkusigssat"},"display_name":"Ukkusissat, Avannaata, Kalaallit Nunaat","address":{"village":"Ukkusissat","state":"Avannaata","ISO3166-2-lvl4":"GL-AV","country":"Kalaallit Nunaat","country_code":"gl"},"population":184,"osm_type":"node","osm_id":2051281401,"type":"village","location":[-51.8866542,71.0505646],"bbox":[-51.9066542,71.0305646,-51.8666542,71.0705646]}
{"name":"Illorsuit","other_names":{"old_name":"Igdlorssuit"},"display_name":"Illorsuit, Avannaata, Kalaallit Nunaat","address":{"village":"Illorsuit","state":"Avannaata","ISO3166-2-lvl4":"GL-AV","country":"Kalaallit Nunaat","country_code":"gl"},"population":91,"osm_type":"node","osm_id":2049649015,"type":"village","location":[-53.5660457,71.2417937],"bbox":[-53.5860457,71.2217937,-53.5460457,71.2617937]}
{"name":"Kangersuatsiaq","other_names":{"old_name":"Kangerssuatsiaq;Prøven"},"display_name":"Kangersuatsiaq, Avannaata, Kalaallit Nunaat","address":{"village":"Kangersuatsiaq","state":"Avannaata","ISO3166-2-lvl4":"GL-AV","country":"Kalaallit Nunaat","country_code":"gl"},"osm_type":"node","osm_id":896200411,"type":"village","location":[-55.550421,72.3795211],"bbox":[-55.570421,72.3595211,-55.530421,72.3995211]}
{"name":"Innaarsuit","other_names":{"name:kl":"Innaarsuit","old_name":"Ivnârssuit"},"display_name":"Innaarsuit, Avannaata, Kalaallit Nunaat","address":{"village":"Innaarsuit","state":"Avannaata","ISO3166-2-lvl4":"GL-AV","country":"Kalaallit Nunaat","country_code":"gl"},"population":161,"osm_type":"node","osm_id":1932740703,"type":"village","location":[-56.0094558,73.2003085],"bbox":[-56.0294558,73.1803085,-55.9894558,73.2203085]}
{"name":"Uingasoq","display_name":"Uingasoq, Avannaata, Kalaallit Nunaat","address":{"village":"Uingasoq","state":"Avannaata","ISO3166-2-lvl4":"GL-AV","country":"Kalaallit Nunaat","country_code":"gl"},"osm_type":"node","osm_id":9403313713,"type":"village","location":[-56.0458302,73.2896014],"bbox":[-56.0658302,73.2696014,-56.0258302,73.3096014]}
{"name":"Saffiorfik","display_name":"Saffiorfik, Avannaata, Kalaallit Nunaat","address":{"village":"Saffiorfik","state":"Avannaata","ISO3166-2-lvl4":"GL-AV","country":"Kalaallit Nunaat","country_code":"gl"},"osm_type":"node","osm_id":9397147511,"type":"village","location":[-55.978564,73.2913893],"bbox":[-55.998564,73.2713893,-55.958564,73.3113893]}
{"name":"Isertoq","other_names":{"old_name":"Isortoq"},"display_name":"Isertoq, Ammasalik, Sermersooq, Kalaallit Nunaat","address":{"village":"Isertoq","city":"Ammasalik","municipality":"Sermersooq","ISO3166-2-lvl4":"GL-SM","country":"Kalaallit Nunaat","country_code":"gl"},"osm_type":"node","osm_id":1924110168,"type":"village","location":[-38.9747139,65.5485322],"bbox":[-38.9947139,65.5285322,-38.9547139,65.5685322]}
{"name":"Tasiusaq","other_names":{"name:kl":"Tasiusaq","old_name":"Tasiussaq"},"display_name":"Tasiusaq, Avannaata, Kalaallit Nunaat","address":{"village":"Tasiusaq","state":"Avannaata","ISO3166-2-lvl4":"GL-AV","country":"Kalaallit Nunaat","country_code":"gl"},"population":248,"osm_type":"node","osm_id":2049649041,"type":"village","location":[-56.0565041,73.3691077],"bbox":[-56.0765041,73.3491077,-56.0365041,73.3891077]}
{"name":"Naajaat","other_names":{"name:kl":"Naajaat","old_name":"Naujât;Naujat;Naajat"},"display_name":"Naajaat, Avannaata, Kalaallit Nunaat","address":{"village":"Naajaat","state":"Avannaata","ISO3166-2-lvl4":"GL-AV","country":"Kalaallit Nunaat","country_code":"gl"},"population":54,"osm_type":"node","osm_id":1932752473,"type":"village","location":[-55.8083566,73.1428415],"bbox":[-55.8283566,73.1228415,-55.7883566,73.1628415]}
{"name":"Saattoq","other_names":{"old_name":"Sâtoq"},"display_name":"Saattoq, Avannaata, Kalaallit Nunaat","address":{"village":"Saattoq","state":"Avannaata","ISO3166-2-lvl4":"GL-AV","country":"Kalaallit Nunaat","country_code":"gl"},"osm_type":"node","osm_id":2051281231,"type":"village","location":[-56.1167476,73.5242613],"bbox":[-56.1367476,73.5042613,-56.0967476,73.5442613]}
{"name":"Sarfaq","display_name":"Sarfaq, Avannaata, Kalaallit Nunaat","address":{"village":"Sarfaq","state":"Avannaata","ISO3166-2-lvl4":"GL-AV","country":"Kalaallit Nunaat","country_code":"gl"},"osm_type":"node","osm_id":2051281341,"type":"village","location":[-56.2027778,73.6472222],"bbox":[-56.2227778,73.6272222,-56.1827778,73.6672222]}
{"name":"Kuuk","other_names":{"old_name":"Kûk"},"display_name":"Kuuk, Avannaata, Kalaallit Nunaat","address":{"village":"Kuuk","state":"Avannaata","ISO3166-2-lvl4":"GL-AV","country":"Kalaallit Nunaat","country_code":"gl"},"osm_type":"node","osm_id":2049649022,"type":"village","location":[-56.1944444,73.7055556],"bbox":[-56.2144444,73.6855556,-56.1744444,73.7255556]}
{"name":"Ipiutaq","display_name":"Ipiutaq, Kujalleq, Kalaallit Nunaat","address":{"village":"Ipiutaq","municipality":"Kujalleq","ISO3166-2-lvl4":"GL-KU","country":"Kalaallit Nunaat","country_code":"gl"},"osm_type":"node","osm_id":2840144653,"type":"village","location":[-44.2140509,59.8781188],"bbox":[-44.2340509,59.8581188,-44.1940509,59.8981188]}
{"name":"Aappilattoq","other_names":{"old_name":"Augpilagtoq"},"display_name":"Aappilattoq, Kujalleq, Kalaallit Nunaat","address":{"village":"Aappilattoq","municipality":"Kujalleq","ISO3166-2-lvl4":"GL-KU","country":"Kalaallit Nunaat","country_code":"gl"},"population":113,"osm_type":"node","osm_id":1927841111,"type":"village","location":[-44.2851054,60.1507523],"bbox":[-44.3051054,60.1307523,-44.2651054,60.1707523]}
{"name":"Narsarmijit","other_names":{"name:kl":"Narsaq Kujalleq","alt_name":"Narsaq Kujalleq","old_name":"Frederiksdal","old_name:de":"Friedrichsthal"},"display_name":"Narsarmijit, Kujalleq, Kalaallit Nunaat","address":{"village":"Narsarmijit","municipality":"Kujalleq","ISO3166-2-lvl4":"GL-KU","country":"Kalaallit Nunaat","country_code":"gl"},"population":71,"osm_type":"node","osm_id":1929380616,"type":"village","location":[-44.6643603,60.0049088],"bbox":[-44.6843603,59.9849088,-44.6443603,60.0249088]}
{"name":"Tasiusaq","other_names":{"alt_name":"Tasiusaq (Kujalleq)"},"display_name":"Tasiusaq, Kujalleq, Kalaallit Nunaat","address":{"village":"Tasiusaq","municipality":"Kujalleq","ISO3166-2-lvl4":"GL-KU","country":"Kalaallit Nunaat","country_code":"gl"},"population":60,"osm_type":"node","osm_id":2049649039,"type":"village","location":[-44.815153,60.1937367],"bbox":[-44.835153,60.1737367,-44.795153,60.2137367]}
{"name":"Pubik","display_name":"Pubik, Ammasalik, Sermersooq, Kalaallit Nunaat","address":{"village":"Pubik","city":"Ammasalik","municipality":"Sermersooq","ISO3166-2-lvl4":"GL-SM","country":"Kalaallit Nunaat","country_code":"gl"},"osm_type":"node","osm_id":5584576456,"type":"village","location":[-37.8760279,65.7883633],"bbox":[-37.8960279,65.7683633,-37.8560279,65.8083633]}
{"name":"Tiniteqilaaq","other_names":{"alt_name":"Tiniteqilaaq","old_name":"Tiilerilaaq"},"display_name":"Tiniteqilaaq, Ammasalik, Sermersooq, Kalaallit Nunaat","address":{"village":"Tiniteqilaaq","city":"Ammasalik","municipality":"Sermersooq","ISO3166-2-lvl4":"GL-SM","country":"Kalaallit Nunaat","country_code":"gl"},"population":134,"osm_type":"node","osm_id":794637804,"type":"village","location":[-37.7784589,65.8897371],"bbox":[-37.7984589,65.8697371,-37.7584589,65.9097371]}
{"name":"Kulusuk","other_names":{"old_name":"Qulusuk;Kap Dan"},"display_name":"Kulusuk, Ammasalik, Sermersooq, Kalaallit Nunaat","address":{"village":"Kulusuk","city":"Ammasalik","municipality":"Sermersooq","ISO3166-2-lvl4":"GL-SM","country":"Kalaallit Nunaat","country_code":"gl"},"osm_type":"node","osm_id":794695069,"type":"village","location":[-37.1869257,65.5756356],"bbox":[-37.2069257,65.5556356,-37.1669257,65.5956356]}
{"name":"Sermiligaaq","other_names":{"old_name":"Sermiligâq"},"display_name":"Sermiligaaq, Ammasalik, Sermersooq, Kalaallit Nunaat","address":{"village":"Sermiligaaq","city":"Ammasalik","municipality":"Sermersooq","ISO3166-2-lvl4":"GL-SM","country":"Kalaallit Nunaat","country_code":"gl"},"osm_type":"node","osm_id":794677102,"type":"village","location":[-36.3784872,65.9080649],"bbox":[-36.3984872,65.8880649,-36.3584872,65.9280649]}
{"name":"Kuummiut","other_names":{"name:en":"Kuummiit","name:kl":"Kuummiut","old_name":"Kûngmît"},"display_name":"Kuummiut, Ammasalik, Sermersooq, Kalaallit Nunaat","address":{"village":"Kuummiut","city":"Ammasalik","municipality":"Sermersooq","ISO3166-2-lvl4":"GL-SM","country":"Kalaallit Nunaat","country_code":"gl"},"population":392,"osm_type":"node","osm_id":794640639,"type":"village","location":[-37.0042682,65.8644613],"bbox":[-37.0242682,65.8444613,-36.9842682,65.8844613]}
{"name":"Nerlerit Inaat","display_name":"Nerlerit Inaat, Sermersooq, Kalaallit Nunaat","address":{"village":"Nerlerit Inaat","municipality":"Sermersooq","ISO3166-2-lvl4":"GL-SM","country":"Kalaallit Nunaat","country_code":"gl"},"osm_type":"node","osm_id":8187991908,"type":"village","location":[-22.6429221,70.7440604],"bbox":[-22.6629221,70.7240604,-22.6229221,70.7640604]}
{"name":"Daneborg","display_name":"Daneborg, Kalaallit Nunaat","address":{"village":"Daneborg","country":"Kalaallit Nunaat","country_code":"gl"},"population":12,"osm_type":"node","osm_id":7939788026,"type":"village","location":[-20.2224284,74.3046566],"bbox":[-20.2424284,74.2846566,-20.2024284,74.3246566]}
{"name":"Niaqornat","display_name":"Niaqornat, Avannaata, Kalaallit Nunaat","address":{"hamlet":"Niaqornat","village":"Niaqornat","state":"Avannaata","ISO3166-2-lvl4":"GL-AV","country":"Kalaallit Nunaat","country_code":"gl"},"population":35,"osm_type":"way","osm_id":1028150910,"type":"hamlet","location":[-53.663885342681034,70.78941855],"bbox":[-53.6687853,70.7881473,-53.6548802,70.7907302]}
{"name":"Ivittuut","other_names":{"old_name":"Ivigtût"},"display_name":"Ivittuut, Sermersooq, Kalaallit Nunaat","address":{"hamlet":"Ivittuut","municipality":"Sermersooq","ISO3166-2-lvl4":"GL-SM","country":"Kalaallit Nunaat","country_code":"gl"},"osm_type":"node","osm_id":1927638943,"type":"hamlet","location":[-48.1692956,61.2071937],"bbox":[-48.1892956,61.1871937,-48.1492956,61.2271937]}
{"name":"Tasiluk","display_name":"Tasiluk, Kujalleq, Kalaallit Nunaat","address":{"hamlet":"Tasiluk","municipality":"Kujalleq","ISO3166-2-lvl4":"GL-KU","country":"Kalaallit Nunaat","country_code":"gl"},"osm_type":"node","osm_id":3420795093,"type":"hamlet","location":[-45.8040126,60.6799138],"bbox":[-45.8240126,60.6599138,-45.7840126,60.6999138]}
{"name":"Tatsip Ataa","display_name":"Tatsip Ataa, Kujalleq, Kalaallit Nunaat","address":{"hamlet":"Tatsip Ataa","municipality":"Kujalleq","ISO3166-2-lvl4":"GL-KU","country":"Kalaallit Nunaat","country_code":"gl"},"osm_type":"node","osm_id":9805238648,"type":"hamlet","location":[-45.4748949,60.8335074],"bbox":[-45.4948949,60.8135074,-45.4548949,60.8535074]}
{"name":"Uunartoq","display_name":"Uunartoq, Kujalleq, Kalaallit Nunaat","address":{"hamlet":"Uunartoq","municipality":"Kujalleq","ISO3166-2-lvl4":"GL-KU","country":"Kalaallit Nunaat","country_code":"gl"},"osm_type":"node","osm_id":5016481787,"type":"hamlet","location":[-45.3341666,60.5075446],"bbox":[-45.3541666,60.4875446,-45.3141666,60.5275446]}
{"name":"Nunataaq","display_name":"Nunataaq, Qassiarsuk, Kujalleq, Kalaallit Nunaat","address":{"hamlet":"Nunataaq","city":"Qassiarsuk","municipality":"Kujalleq","ISO3166-2-lvl4":"GL-KU","country":"Kalaallit Nunaat","country_code":"gl"},"osm_type":"node","osm_id":3438076305,"type":"hamlet","location":[-45.6244691,61.1246293],"bbox":[-45.6444691,61.1046293,-45.6044691,61.1446293]}
{"name":"Tasiusaq","other_names":{"name:ru":"Тасиусак"},"display_name":"Tasiusaq, Qassiarsuk, Kujalleq, Kalaallit Nunaat","address":{"hamlet":"Tasiusaq","city":"Qassiarsuk","municipality":"Kujalleq","ISO3166-2-lvl4":"GL-KU","country":"Kalaallit Nunaat","country_code":"gl"},"osm_type":"node","osm_id":1460042749,"type":"hamlet","location":[-45.6172568,61.1444063],"bbox":[-45.6372568,61.1244063,-45.5972568,61.1644063]}
{"name":"Itilleq","display_name":"Itilleq, Kujalleq, Igaliku, Kalaallit Nunaat","address":{"hamlet":"Itilleq","municipality":"Kujalleq","ISO3166-2-lvl4":"GL-KU","state_district":"Igaliku","country":"Kalaallit Nunaat","country_code":"gl"},"osm_type":"node","osm_id":9800281222,"type":"hamlet","location":[-45.4583236,60.997666],"bbox":[-45.4783236,60.977666,-45.4383236,61.017666]}
{"name":"Timerliit","other_names":{"name:en":"Timerliit"},"display_name":"Timerliit, Kujalleq, Kalaallit Nunaat","address":{"hamlet":"Timerliit","municipality":"Kujalleq","ISO3166-2-lvl4":"GL-KU","country":"Kalaallit Nunaat","country_code":"gl"},"osm_type":"node","osm_id":5825697753,"type":"hamlet","location":[-45.3093021,60.8556983],"bbox":[-45.3293021,60.8356983,-45.2893021,60.8756983]}
{"name":"Igaliku Kujalleq","other_names":{"alt_name":"Sondre Igaliko"},"display_name":"Igaliku Kujalleq, Kujalleq, Kalaallit Nunaat","address":{"hamlet":"Igaliku Kujalleq","municipality":"Kujalleq","ISO3166-2-lvl4":"GL-KU","country":"Kalaallit Nunaat","country_code":"gl"},"osm_type":"node","osm_id":9805270658,"type":"hamlet","location":[-45.2703169,60.8917865],"bbox":[-45.2903169,60.8717865,-45.2503169,60.9117865]}
{"name":"Atarnaatsit","display_name":"Atarnaatsit, Kujalleq, Igaliku, Kalaallit Nunaat","address":{"hamlet":"Atarnaatsit","municipality":"Kujalleq","ISO3166-2-lvl4":"GL-KU","state_district":"Igaliku","country":"Kalaallit Nunaat","country_code":"gl"},"osm_type":"node","osm_id":9805238646,"type":"hamlet","location":[-45.4569103,61.0194795],"bbox":[-45.4769103,60.9994795,-45.4369103,61.0394795]}
{"name":"Qorlortup Itinnera","display_name":"Qorlortup Itinnera, Qassiarsuk, Kujalleq, Kalaallit Nunaat","address":{"hamlet":"Qorlortup Itinnera","city":"Qassiarsuk","municipality":"Kujalleq","ISO3166-2-lvl4":"GL-KU","country":"Kalaallit Nunaat","country_code":"gl"},"osm_type":"node","osm_id":6612158181,"type":"hamlet","location":[-45.5472268,61.1949813],"bbox":[-45.5672268,61.1749813,-45.5272268,61.2149813]}
{"name":"Inneruulalik","display_name":"Inneruulalik, Qassiarsuk, Kujalleq, Kalaallit Nunaat","address":{"hamlet":"Inneruulalik","city":"Qassiarsuk","municipality":"Kujalleq","ISO3166-2-lvl4":"GL-KU","country":"Kalaallit Nunaat","country_code":"gl"},"osm_type":"node","osm_id":10930589598,"type":"hamlet","location":[-45.4825867,61.1062129],"bbox":[-45.5025867,61.0862129,-45.4625867,61.1262129]}
{"name":"Qordlortoq","display_name":"Qordlortoq, Qassiarsuk, Kujalleq, Kalaallit Nunaat","address":{"hamlet":"Qordlortoq","city":"Qassiarsuk","municipality":"Kujalleq","ISO3166-2-lvl4":"GL-KU","country":"Kalaallit Nunaat","country_code":"gl"},"osm_type":"node","osm_id":6612158182,"type":"hamlet","location":[-45.5154516,61.2068287],"bbox":[-45.5354516,61.1868287,-45.4954516,61.2268287]}
{"name":"Kangeq","display_name":"Kangeq, Sermersooq, Kalaallit Nunaat","address":{"hamlet":"Kangeq","municipality":"Sermersooq","ISO3166-2-lvl4":"GL-SM","country":"Kalaallit Nunaat","country_code":"gl"},"population":0,"osm_type":"node","osm_id":9800447562,"type":"hamlet","location":[-52.0506112,64.1086736],"bbox":[-52.0706112,64.0886736,-52.0306112,64.1286736]}
{"name":"Arinannguit","other_names":{"name:en":"Annannguit"},"display_name":"Arinannguit, Kujalleq, Kalaallit Nunaat","address":{"hamlet":"Arinannguit","municipality":"Kujalleq","ISO3166-2-lvl4":"GL-KU","country":"Kalaallit Nunaat","country_code":"gl"},"osm_type":"node","osm_id":6612158822,"type":"hamlet","location":[-45.4814715,61.2045466],"bbox":[-45.5014715,61.1845466,-45.4614715,61.2245466]}
{"name":"Qinngua","display_name":"Qinngua, Kujalleq, Kalaallit Nunaat","address":{"hamlet":"Qinngua","municipality":"Kujalleq","ISO3166-2-lvl4":"GL-KU","country":"Kalaallit Nunaat","country_code":"gl"},"osm_type":"node","osm_id":6612158183,"type":"hamlet","location":[-45.5259541,61.2419897],"bbox":[-45.5459541,61.2219897,-45.5059541,61.2619897]}
{"name":"Qinngua Kangilleq","display_name":"Qinngua Kangilleq, Kujalleq, Kalaallit Nunaat","address":{"hamlet":"Qinngua Kangilleq","municipality":"Kujalleq","ISO3166-2-lvl4":"GL-KU","country":"Kalaallit Nunaat","country_code":"gl"},"osm_type":"node","osm_id":6612158184,"type":"hamlet","location":[-45.5000654,61.2530716],"bbox":[-45.5200654,61.2330716,-45.4800654,61.2730716]}
{"name":"Kiattut","display_name":"Kiattut, Kujalleq, 3923, Kalaallit Nunaat","address":{"hamlet":"Kiattut","municipality":"Kujalleq","ISO3166-2-lvl4":"GL-KU","postcode":"3923","country":"Kalaallit Nunaat","country_code":"gl"},"osm_type":"node","osm_id":6612159174,"type":"hamlet","location":[-45.427831,61.1766217],"bbox":[-45.447831,61.1566217,-45.407831,61.1966217]}
{"name":"Niaqornarssuaq","display_name":"Niaqornarssuaq, Sermersooq, Kalaallit Nunaat","address":{"hamlet":"Niaqornarssuaq","municipality":"Sermersooq","ISO3166-2-lvl4":"GL-SM","country":"Kalaallit Nunaat","country_code":"gl"},"osm_type":"node","osm_id":9800447563,"type":"hamlet","location":[-51.6894987,64.3470709],"bbox":[-51.7094987,64.3270709,-51.6694987,64.3670709]}
{"name":"Skilift","display_name":"Skilift, Sisimiut, Qeqqata, Kalaallit Nunaat","address":{"hamlet":"Skilift","city":"Sisimiut","municipality":"Qeqqata","ISO3166-2-lvl4":"GL-QE","country":"Kalaallit Nunaat","country_code":"gl"},"osm_type":"node","osm_id":932065332,"type":"hamlet","location":[-53.5331267,66.9392699],"bbox":[-53.5531267,66.9192699,-53.5131267,66.9592699]}
{"name":"Killinnguit","other_names":{"alt_name":"Killinnguat"},"display_name":"Killinnguit, Sisimiut, Qeqqata, Kalaallit Nunaat","address":{"hamlet":"Killinnguit","city":"Sisimiut","municipality":"Qeqqata","ISO3166-2-lvl4":"GL-QE","country":"Kalaallit Nunaat","country_code":"gl"},"osm_type":"node","osm_id":7323657411,"type":"hamlet","location":[-53.5166704,66.9170127],"bbox":[-53.5366704,66.8970127,-53.4966704,66.9370127]}
{"name":"Nuussuaq","display_name":"Nuussuaq, Kapisillit, Nuuk, Sermersooq, Kalaallit Nunaat","address":{"hamlet":"Nuussuaq","village":"Kapisillit","city":"Nuuk","municipality":"Sermersooq","ISO3166-2-lvl4":"GL-SM","country":"Kalaallit Nunaat","country_code":"gl"},"osm_type":"node","osm_id":9800447561,"type":"hamlet","location":[-50.2509119,64.4336713],"bbox":[-50.2709119,64.4136713,-50.2309119,64.4536713]}
{"display_name":"Thule, Pituffik, Kalaallit Nunaat","address":{"hamlet":"Thule","state":"Pituffik","country":"Kalaallit Nunaat","country_code":"gl"},"osm_type":"node","osm_id":8109576295,"type":"hamlet","location":[-68.7544909,76.5370519],"bbox":[-68.7744909,76.5170519,-68.7344909,76.5570519]}
{"name":"Danialiip Qaannivia","display_name":"Danialiip Qaannivia, Nuussuaq, Avannaata, Kalaallit Nunaat","address":{"hamlet":"Danialiip Qaannivia","village":"Nuussuaq","state":"Avannaata","ISO3166-2-lvl4":"GL-AV","country":"Kalaallit Nunaat","country_code":"gl"},"osm_type":"node","osm_id":9396996556,"type":"hamlet","location":[-57.0506015,74.1097721],"bbox":[-57.0706015,74.0897721,-57.0306015,74.1297721]}
{"name":"Ujaqqamik","display_name":"Ujaqqamik, Illulik, Avannaata, Kalaallit Nunaat","address":{"hamlet":"Ujaqqamik","village":"Illulik","state":"Avannaata","ISO3166-2-lvl4":"GL-AV","country":"Kalaallit Nunaat","country_code":"gl"},"osm_type":"node","osm_id":10107233945,"type":"hamlet","location":[-56.678145,74.341843],"bbox":[-56.698145,74.321843,-56.658145,74.361843]}
{"name":"Ikerasaarsuk","display_name":"Ikerasaarsuk, Nutaarmiut, Avannaata, Kalaallit Nunaat","address":{"hamlet":"Ikerasaarsuk","village":"Nutaarmiut","state":"Avannaata","ISO3166-2-lvl4":"GL-AV","country":"Kalaallit Nunaat","country_code":"gl"},"osm_type":"node","osm_id":9392618407,"type":"hamlet","location":[-56.4202507,73.5283567],"bbox":[-56.4402507,73.5083567,-56.4002507,73.5483567]}
{"name":"Noorliit","display_name":"Noorliit, Tasiusaq, Avannaata, Kalaallit Nunaat","address":{"hamlet":"Noorliit","village":"Tasiusaq","state":"Avannaata","ISO3166-2-lvl4":"GL-AV","country":"Kalaallit Nunaat","country_code":"gl"},"osm_type":"node","osm_id":9397624806,"type":"hamlet","location":[-56.0749411,73.3664337],"bbox":[-56.0949411,73.3464337,-56.0549411,73.3864337]}
{"name":"Ikkatteq","other_names":{"old_name":"Íkáteq"},"display_name":"Ikkatteq, Ammasalik, Sermersooq, Kalaallit Nunaat","address":{"hamlet":"Ikkatteq","city":"Ammasalik","municipality":"Sermersooq","ISO3166-2-lvl4":"GL-SM","country":"Kalaallit Nunaat","country_code":"gl"},"osm_type":"node","osm_id":2051280907,"type":"hamlet","location":[-37.9467527,65.6360668],"bbox":[-37.9667527,65.6160668,-37.9267527,65.6560668]}
{"name":"Qernertivartivit","display_name":"Qernertivartivit, Ammasalik, Sermersooq, Kalaallit Nunaat","address":{"hamlet":"Qernertivartivit","city":"Ammasalik","municipality":"Sermersooq","ISO3166-2-lvl4":"GL-SM","country":"Kalaallit Nunaat","country_code":"gl"},"osm_type":"node","osm_id":794656742,"type":"hamlet","location":[-37.2892417,65.7148711],"bbox":[-37.3092417,65.6948711,-37.2692417,65.7348711]}
{"name":"Summit Camp","display_name":"Summit Camp, Kalaallit Nunaat","address":{"hamlet":"Summit Camp","country":"Kalaallit Nunaat","country_code":"gl"},"osm_type":"node","osm_id":6611075404,"type":"hamlet","location":[-38.4604051,72.579689],"bbox":[-38.4804051,72.559689,-38.4404051,72.599689]}
{"name":"Mestersvig","display_name":"Mestersvig, Kalaallit Nunaat","address":{"hamlet":"Mestersvig","country":"Kalaallit Nunaat","country_code":"gl"},"population":2,"osm_type":"node","osm_id":8112421458,"type":"hamlet","location":[-23.9196612,72.2323555],"bbox":[-23.9396612,72.2123555,-23.8996612,72.2523555]}
{"name":"Danmarkshavn","other_names":{"name:da":"Danmarkshavn","name:en":"Denmark Port","name:es":"Puerto de Dinamarca"},"display_name":"Danmarkshavn, Kalaallit Nunaat","address":{"hamlet":"Danmarkshavn","country":"Kalaallit Nunaat","country_code":"gl"},"population":8,"osm_type":"node","osm_id":8112414007,"type":"hamlet","location":[-18.6736769,76.769517],"bbox":[-18.6936769,76.749517,-18.6536769,76.789517]}
{"name":"Itterajivit","other_names":{"old_name":"Kap Hope","alt_name:en":"Ittaajimmiut;Igterajivit"},"display_name":"Itterajivit, Sermersooq, Kalaallit Nunaat","address":{"hamlet":"Itterajivit","municipality":"Sermersooq","ISO3166-2-lvl4":"GL-SM","country":"Kalaallit Nunaat","country_code":"gl"},"population":0,"osm_type":"node","osm_id":2057705785,"type":"hamlet","location":[-22.329882,70.459168],"bbox":[-22.349882,70.439168,-22.309882,70.479168]}
{"name":"Uunarteq","other_names":{"old_name":"Kap Tobin"},"display_name":"Uunarteq, Sermersooq, Kalaallit Nunaat","address":{"hamlet":"Uunarteq","municipality":"Sermersooq","ISO3166-2-lvl4":"GL-SM","country":"Kalaallit Nunaat","country_code":"gl"},"osm_type":"node","osm_id":2057705891,"type":"hamlet","location":[-21.9722222,70.4188889],"bbox":[-21.9922222,70.3988889,-21.9522222,70.4388889]}
