{"name":"Douglas","other_names":{"name:be":"Дуглас","name:en":"Douglas","name:ga":"Dúlais","name:gd":"Dùghlais","name:gv":"Doolish","name:he":"דאגלס","name:ja":"ダグラス","name:ru":"Дуглас","name:zh":"道格拉斯","name:br":"Doolish","name:es":"Douglas","name:fr":"Douglas","name:hu":"Douglas","name:it":"Douglas","name:mk":"Даглас","name:pl":"Douglas"},"display_name":"Douglas, Middle, Isle of Man","address":{"city":"Douglas","county":"Middle","country":"Isle of Man","country_code":"im"},"population":26218,"osm_type":"relation","osm_id":1061138,"type":"administrative","location":[-4.4779021,54.149774],"bbox":[-4.5294604,54.1389676,-4.4552287,54.1854843]}
{"name":"Douglas","other_names":{"name:br":"Doolish","name:en":"Douglas","name:es":"Douglas","name:fr":"Douglas","name:ga":"Dúlais","name:gd":"Dùghlais","name:gv":"Doolish","name:hu":"Douglas","name:it":"Douglas","name:mk":"Даглас","name:pl":"Douglas","name:ru":"Дуглас","name:zh":"道格拉斯"},"display_name":"Douglas, Middle, Isle of Man","address":{"city":"Douglas","county":"Middle","country":"Isle of Man","country_code":"im"},"population":27938,"osm_type":"node","osm_id":2199688788,"type":"city","location":[-4.4779021,54.149774],"bbox":[-4.6379021,53.989774,-4.3179021,54.309774]}
{"name":"Castletown","other_names":{"name:en":"Castletown","name:gd":"Balley Chashtal","name:gv":"Balley Chashtal","name:mk":"Каслтаун","name:ru":"Каслтаун"},"display_name":"Castletown, Rushen, Isle of Man","address":{"town":"Castletown","county":"Rushen","country":"Isle of Man","country_code":"im"},"population":3109,"osm_type":"relation","osm_id":1031319,"type":"administrative","location":[-4.654102333428813,54.07717255],"bbox":[-4.6745893,54.069538,-4.6327849,54.0847495]}
{"name":"Peel","other_names":{"name:en":"Peel","name:gd":"Purt na hInshey","name:gv":"Purt ny h-Inshey","name:ru":"Пил","name:mk":"Пил"},"display_name":"Peel, Glenfaba, Isle of Man","address":{"town":"Peel","county":"Glenfaba","country":"Isle of Man","country_code":"im"},"population":5093,"osm_type":"relation","osm_id":1061133,"type":"administrative","location":[-4.6957105,54.2229326],"bbox":[-4.7067018,54.2130782,-4.6735891,54.2308224]}
{"name":"Ramsey","other_names":{"name:be":"Рэмсі","name:cs":"Ramsey","name:en":"Ramsey","name:gd":"Rhumsaa","name:gv":"Rhumsaa","name:ru":"Рамси","name:non":"Hrams-á","name:mk":"Рамзи"},"display_name":"Ramsey, Garff, IM8, Isle of Man","address":{"town":"Ramsey","county":"Garff","postcode":"IM8","country":"Isle of Man","country_code":"im"},"population":7309,"osm_type":"relation","osm_id":1061132,"type":"administrative","location":[-4.38252,54.3216912],"bbox":[-4.4093076,54.3127101,-4.3654574,54.3383447]}
{"name":"Castletown","other_names":{"name:en":"Castletown","name:gd":"Balley Chashtal","name:gv":"Balley Chashtal","name:mk":"Каслтаун","name:ru":"Каслтаун"},"display_name":"Castletown, Rushen, Isle of Man","address":{"town":"Castletown","county":"Rushen","country":"Isle of Man","country_code":"im"},"osm_type":"node","osm_id":10131472250,"type":"town","location":[-4.6528163,54.0745467],"bbox":[-4.6928163,54.0345467,-4.6128163,54.1145467]}
{"name":"Peel","other_names":{"name:en":"Peel","name:gv":"Purt ny h-Inshey","name:mk":"Пил"},"display_name":"Peel, Glenfaba, Isle of Man","address":{"town":"Peel","county":"Glenfaba","country":"Isle of Man","country_code":"im"},"osm_type":"node","osm_id":4013424282,"type":"town","location":[-4.6957105,54.2229326],"bbox":[-4.7357105,54.1829326,-4.6557105,54.2629326]}
{"name":"Ramsey","other_names":{"name:gv":"Rhumsaa","name:mk":"Рамзи"},"display_name":"Ramsey, Garff, Isle of Man","address":{"town":"Ramsey","county":"Garff","country":"Isle of Man","country_code":"im"},"osm_type":"node","osm_id":2199688012,"type":"town","location":[-4.38252,54.3216912],"bbox":[-4.42252,54.2816912,-4.34252,54.3616912]}
{"name":"Port Saint Mary","other_names":{"name:en":"Port Saint Mary","name:gd":"Purt le Moirrey","name:gv":"Purt le Moirrey","name:ru":"Порт-Сент-Мэри"},"display_name":"Port Saint Mary, Rushen, Isle of Man","address":{"village":"Port Saint Mary","county":"Rushen","country":"Isle of Man","country_code":"im"},"osm_type":"relation","osm_id":1034178,"type":"administrative","location":[-4.7391371,54.077268],"bbox":[-4.7523599,54.0671594,-4.7282612,54.0849044]}
{"name":"Colby","other_names":{"name:en":"Colby","name:gv":"Colbee"},"display_name":"Colby, Rushen, Isle of Man","address":{"village":"Colby","county":"Rushen","country":"Isle of Man","country_code":"im"},"osm_type":"way","osm_id":60499872,"type":"village","location":[-4.7046335,54.0966024],"bbox":[-4.7098825,54.0943192,-4.6953788,54.1026794]}
{"name":"Port Erin","other_names":{"name:en":"Port Erin","name:gd":"Purt Çhiarn","name:gv":"Purt Chiarn","name:ru":"Порт-Эрин","alt:gv":"Purt Çhiarn"},"display_name":"Port Erin, Rushen, Isle of Man","address":{"village":"Port Erin","county":"Rushen","country":"Isle of Man","country_code":"im"},"osm_type":"relation","osm_id":1032811,"type":"administrative","location":[-4.7568003,54.086017],"bbox":[-4.7797875,54.0795027,-4.7446553,54.1007486]}
{"name":"Foxdale","other_names":{"name:en":"Foxdale","name:gv":"Forsdal"},"display_name":"Foxdale, Patrick, Glenfaba, Isle of Man","address":{"village":"Foxdale","county":"Glenfaba","country":"Isle of Man","country_code":"im"},"osm_type":"way","osm_id":83376253,"type":"village","location":[-4.6349243,54.1695338],"bbox":[-4.6410293,54.1678042,-4.6284766,54.172676]}
{"name":"Ballasalla","other_names":{"name:en":"Ballasalla","name:gv":"Balley Sallagh"},"display_name":"Ballasalla, Malew, Rushen, Isle of Man","address":{"village":"Ballasalla","city":"Malew","county":"Rushen","country":"Isle of Man","country_code":"im"},"osm_type":"relation","osm_id":14716437,"type":"village","location":[-4.6316184,54.0977846],"bbox":[-4.6387832,54.0934422,-4.6184317,54.1052777]}
{"name":"Onchan","other_names":{"name:en":"Onchan","name:gv":"Kione Droghad","name:be":"Онкан"},"display_name":"Onchan, Middle, Isle of Man","address":{"village":"Onchan","county":"Middle","country":"Isle of Man","country_code":"im"},"osm_type":"relation","osm_id":1061142,"type":"administrative","location":[-4.4554497,54.1749257],"bbox":[-4.51337,54.165698,-4.4205626,54.230739]}
{"name":"Glen Vine","other_names":{"name:en":"Glen Vine","name:gv":"Glion Vian"},"display_name":"Glen Vine, Marown, Middle, Isle of Man","address":{"village":"Glen Vine","city":"Marown","county":"Middle","country":"Isle of Man","country_code":"im"},"osm_type":"way","osm_id":38336588,"type":"village","location":[-4.5529841,54.1769461],"bbox":[-4.5584918,54.1731172,-4.5436189,54.1832606]}
{"name":"Kirk Michael","other_names":{"name:en":"Kirk Michael","name:gv":"Balley Keeill Vaayl"},"display_name":"Kirk Michael, Michael, Isle of Man","address":{"village":"Kirk Michael","city":"Michael","county":"Michael","country":"Isle of Man","country_code":"im"},"osm_type":"way","osm_id":114185354,"type":"village","location":[-4.5881535,54.2847452],"bbox":[-4.5955901,54.2776791,-4.5794537,54.2902303]}
{"name":"Strang","display_name":"Strang, Braddan, Middle, Isle of Man","address":{"village":"Strang","city":"Braddan","county":"Middle","country":"Isle of Man","country_code":"im"},"osm_type":"way","osm_id":79240231,"type":"village","location":[-4.513393,54.1722897],"bbox":[-4.5152373,54.1686195,-4.5092459,54.1748681]}
{"name":"Union Mills","other_names":{"name:en":"Union Mills","name:gv":"Mwyllin Doo Aah"},"display_name":"Union Mills, Middle, Isle of Man","address":{"village":"Union Mills","county":"Middle","country":"Isle of Man","country_code":"im"},"osm_type":"way","osm_id":79240227,"type":"village","location":[-4.522811,54.1697696],"bbox":[-4.5312719,54.1657112,-4.5158934,54.1735431]}
{"name":"Crosby","other_names":{"name:en":"Crosby","name:gv":"Balley ny Croshey"},"display_name":"Crosby, Marown, Middle, Isle of Man","address":{"village":"Crosby","city":"Marown","county":"Middle","country":"Isle of Man","country_code":"im"},"osm_type":"relation","osm_id":15524161,"type":"administrative","location":[-4.5663605,54.1843735],"bbox":[-4.5725526,54.1821898,-4.5609482,54.1873324]}
{"name":"Andreas","other_names":{"name:en":"Andreas","name:gv":"Andreas"},"display_name":"Andreas, Ayre, Isle of Man","address":{"village":"Andreas","county":"Ayre","country":"Isle of Man","country_code":"im"},"osm_type":"way","osm_id":83352983,"type":"village","location":[-4.444528090305354,54.36920845],"bbox":[-4.4533279,54.3642473,-4.4372821,54.3741914]}
{"name":"Ballaugh","other_names":{"name:en":"Ballaugh","name:gv":"Balley ny Loghey"},"display_name":"Ballaugh, Michael, Isle of Man","address":{"village":"Ballaugh","county":"Michael","country":"Isle of Man","country_code":"im"},"osm_type":"way","osm_id":83354912,"type":"village","location":[-4.542891158387038,54.31168995],"bbox":[-4.5484882,54.3085757,-4.5361629,54.3153268]}
{"name":"Laxey","other_names":{"name:en":"Laxey","name:gv":"Laksaa","name:be":"Лаксі"},"display_name":"Laxey, Garff, Isle of Man","address":{"village":"Laxey","county":"Garff","country":"Isle of Man","country_code":"im"},"osm_type":"relation","osm_id":1061137,"type":"administrative","location":[-4.4002383,54.2301076],"bbox":[-4.4149036,54.2198569,-4.3829237,54.2400406]}
{"name":"Bride","other_names":{"name:en":"Bride","name:gv":"Vreeshey"},"display_name":"Bride, Ayre, Isle of Man","address":{"village":"Bride","county":"Ayre","country":"Isle of Man","country_code":"im"},"osm_type":"way","osm_id":81765835,"type":"village","location":[-4.388527499429443,54.382087299999995],"bbox":[-4.3921177,54.3799524,-4.3842684,54.3841135]}
{"name":"Port Erin","other_names":{"name:gv":"Purt Çhiarn"},"display_name":"Port Erin, Rushen, Isle of Man","address":{"village":"Port Erin","county":"Rushen","country":"Isle of Man","country_code":"im"},"osm_type":"node","osm_id":1287831029,"type":"village","location":[-4.7568003,54.086017],"bbox":[-4.7768003,54.066017,-4.7368003,54.106017]}
{"name":"Port Saint Mary","other_names":{"name:en":"Port Saint Mary","name:gd":"Purt le Moirrey","name:gv":"Purt le Moirrey","name:ru":"Порт-Сент-Мэри"},"display_name":"Port Saint Mary, Rushen, Isle of Man","address":{"village":"Port Saint Mary","county":"Rushen","country":"Isle of Man","country_code":"im"},"osm_type":"node","osm_id":1287831044,"type":"village","location":[-4.7391371,54.077268],"bbox":[-4.7591371,54.057268,-4.7191371,54.097268]}
{"name":"Colby","display_name":"Colby, Rushen, Isle of Man","address":{"village":"Colby","county":"Rushen","country":"Isle of Man","country_code":"im"},"osm_type":"node","osm_id":1287831033,"type":"village","location":[-4.7046335,54.0966024],"bbox":[-4.7246335,54.0766024,-4.6846335,54.1166024]}
{"name":"Ballasalla","display_name":"Ballasalla, Malew, Rushen, Isle of Man","address":{"village":"Ballasalla","city":"Malew","county":"Rushen","country":"Isle of Man","country_code":"im"},"osm_type":"node","osm_id":1287831031,"type":"village","location":[-4.6316184,54.0977846],"bbox":[-4.6516184,54.0777846,-4.6116184,54.1177846]}
{"name":"Glen Maye","other_names":{"name:en":"Glen Maye","alt_name":"Glenmaye"},"display_name":"Glen Maye, Patrick, Glenfaba, Isle of Man","address":{"village":"Glen Maye","county":"Glenfaba","country":"Isle of Man","country_code":"im"},"osm_type":"node","osm_id":283479392,"type":"village","location":[-4.7030596,54.1846582],"bbox":[-4.7230596,54.1646582,-4.6830596,54.2046582]}
{"name":"Patrick","display_name":"Patrick, Glenfaba, Isle of Man","address":{"village":"Patrick","county":"Glenfaba","country":"Isle of Man","country_code":"im"},"osm_type":"node","osm_id":475393292,"type":"village","location":[-4.6955465,54.2064202],"bbox":[-4.7155465,54.1864202,-4.6755465,54.2264202]}
{"name":"Foxdale","other_names":{"name:en":"Foxdale","name:gv":"Forsdal"},"display_name":"Foxdale, Patrick, Glenfaba, Isle of Man","address":{"village":"Foxdale","county":"Glenfaba","country":"Isle of Man","country_code":"im"},"osm_type":"node","osm_id":6948694189,"type":"village","location":[-4.6349243,54.1695338],"bbox":[-4.6549243,54.1495338,-4.6149243,54.1895338]}
{"name":"St Johns","other_names":{"name:en":"St Johns","name:gv":"Balley Keeill Eoin"},"display_name":"St Johns, German, Glenfaba, Isle of Man","address":{"village":"St Johns","city":"German","county":"Glenfaba","country":"Isle of Man","country_code":"im"},"osm_type":"node","osm_id":283504450,"type":"village","location":[-4.6420438,54.2024332],"bbox":[-4.6620438,54.1824332,-4.6220438,54.2224332]}
{"name":"Kirk Michael","other_names":{"name:en":"Kirk Michael","name:gv":"Balley Keeill Vaayl"},"display_name":"Kirk Michael, Michael, Isle of Man","address":{"village":"Kirk Michael","city":"Michael","county":"Michael","country":"Isle of Man","country_code":"im"},"osm_type":"node","osm_id":283505157,"type":"village","location":[-4.5881535,54.2847452],"bbox":[-4.6081535,54.2647452,-4.5681535,54.3047452]}
{"name":"Glen Vine","display_name":"Glen Vine, Marown, Middle, Isle of Man","address":{"village":"Glen Vine","city":"Marown","county":"Middle","country":"Isle of Man","country_code":"im"},"osm_type":"node","osm_id":1773962837,"type":"village","location":[-4.5529841,54.1769461],"bbox":[-4.5729841,54.1569461,-4.5329841,54.1969461]}
{"name":"Crosby","display_name":"Crosby, Marown, Middle, Isle of Man","address":{"village":"Crosby","city":"Marown","county":"Middle","country":"Isle of Man","country_code":"im"},"osm_type":"node","osm_id":1773962836,"type":"village","location":[-4.5663605,54.1843735],"bbox":[-4.5863605,54.1643735,-4.5463605,54.2043735]}
{"name":"Strang","display_name":"Strang, Braddan, Middle, Isle of Man","address":{"village":"Strang","city":"Braddan","county":"Middle","country":"Isle of Man","country_code":"im"},"osm_type":"node","osm_id":1773962838,"type":"village","location":[-4.513393,54.1722897],"bbox":[-4.533393,54.1522897,-4.493393,54.1922897]}
{"name":"Union Mills","display_name":"Union Mills, Middle, Isle of Man","address":{"village":"Union Mills","county":"Middle","country":"Isle of Man","country_code":"im"},"osm_type":"node","osm_id":1773962839,"type":"village","location":[-4.522811,54.1697696],"bbox":[-4.542811,54.1497696,-4.502811,54.1897696]}
{"name":"Onchan","other_names":{"name:be":"Онкан","name:en":"Onchan","name:gv":"Kione Droghad"},"display_name":"Onchan, Middle, Isle of Man","address":{"village":"Onchan","county":"Middle","country":"Isle of Man","country_code":"im"},"osm_type":"node","osm_id":4013424280,"type":"village","location":[-4.4554497,54.1749257],"bbox":[-4.4754497,54.1549257,-4.4354497,54.1949257]}
{"name":"Ballaugh","other_names":{"name:gv":"Balley ny Loughey"},"display_name":"Ballaugh, Michael, Isle of Man","address":{"village":"Ballaugh","county":"Michael","country":"Isle of Man","country_code":"im"},"osm_type":"node","osm_id":6948740313,"type":"village","location":[-4.5430536,54.3119375],"bbox":[-4.5630536,54.2919375,-4.5230536,54.3319375]}
{"name":"Baldrine","display_name":"Baldrine, Lonan, Garff, Isle of Man","address":{"village":"Baldrine","city":"Lonan","county":"Garff","country":"Isle of Man","country_code":"im"},"osm_type":"node","osm_id":475394412,"type":"village","location":[-4.4077582,54.2034406],"bbox":[-4.4277582,54.1834406,-4.3877582,54.2234406]}
{"name":"Laxey","other_names":{"name:be":"Лаксі","name:en":"Laxey","name:gv":"Laksaa"},"display_name":"Laxey, Garff, Isle of Man","address":{"village":"Laxey","county":"Garff","country":"Isle of Man","country_code":"im"},"osm_type":"node","osm_id":410291638,"type":"village","location":[-4.4002383,54.2301076],"bbox":[-4.4202383,54.2101076,-4.3802383,54.2501076]}
{"name":"Dreemskerry","display_name":"Dreemskerry, Maughold, Garff, Isle of Man","address":{"village":"Dreemskerry","county":"Garff","country":"Isle of Man","country_code":"im"},"osm_type":"node","osm_id":283509321,"type":"village","location":[-4.3364175,54.2924486],"bbox":[-4.3564175,54.2724486,-4.3164175,54.3124486]}
{"name":"Maughold","other_names":{"name:be":"Магольд"},"display_name":"Maughold, Garff, Isle of Man","address":{"village":"Maughold","county":"Garff","country":"Isle of Man","country_code":"im"},"osm_type":"node","osm_id":283504480,"type":"village","location":[-4.3182991,54.2986783],"bbox":[-4.3382991,54.2786783,-4.2982991,54.3186783]}
{"name":"Sulby","display_name":"Sulby, Lezayre, Ayre, Isle of Man","address":{"village":"Sulby","city":"Lezayre","county":"Ayre","country":"Isle of Man","country_code":"im"},"osm_type":"node","osm_id":967364100,"type":"village","location":[-4.4895805,54.3197288],"bbox":[-4.5095805,54.2997288,-4.4695805,54.3397288]}
{"name":"Jurby","other_names":{"name:gv":"Jorby"},"display_name":"Jurby, Michael, Isle of Man","address":{"village":"Jurby","county":"Michael","country":"Isle of Man","country_code":"im"},"osm_type":"node","osm_id":4498568404,"type":"village","location":[-4.5191932,54.3600908],"bbox":[-4.5391932,54.3400908,-4.4991932,54.3800908]}
{"name":"Andreas","other_names":{"name:en":"Andreas","name:gv":"Andreas","alt_name":"Kirk Andreas"},"display_name":"Andreas, Ayre, Isle of Man","address":{"village":"Andreas","county":"Ayre","country":"Isle of Man","country_code":"im"},"population":1428,"osm_type":"node","osm_id":5712582248,"type":"village","location":[-4.4444608,54.3672437],"bbox":[-4.4644608,54.3472437,-4.4244608,54.3872437]}
{"name":"Bride","other_names":{"name:en":"Bride","name:gv":"Vreeshey"},"display_name":"Bride, Ayre, Isle of Man","address":{"village":"Bride","county":"Ayre","country":"Isle of Man","country_code":"im"},"osm_type":"node","osm_id":9306730399,"type":"village","location":[-4.3888574,54.3820769],"bbox":[-4.4088574,54.3620769,-4.3688574,54.4020769]}
{"name":"Point of Ayre","other_names":{"name:en":"Point of Ayre","name:gv":"Kione ny h-Ayrey","name:ru":"Эр"},"display_name":"Point of Ayre, Bride, Ayre, Isle of Man","address":{"village":"Point of Ayre","county":"Ayre","country":"Isle of Man","country_code":"im"},"osm_type":"node","osm_id":283502832,"type":"village","location":[-4.3665504,54.4174631],"bbox":[-4.3865504,54.3974631,-4.3465504,54.4374631]}
{"name":"Dalby","other_names":{"name:en":"Dalby","name:gv":"Delbee"},"display_name":"Dalby, Patrick, Glenfaba, Isle of Man","address":{"hamlet":"Dalby","village":"Patrick","county":"Glenfaba","country":"Isle of Man","country_code":"im"},"osm_type":"way","osm_id":831979532,"type":"hamlet","location":[-4.7293589,54.1688856],"bbox":[-4.7311291,54.167592,-4.727665,54.1707223]}
{"name":"Cregneash","other_names":{"name:en":"Cregneash","name:gd":"Creneash","name:gv":"Creneash","alt_name":"Cregneish"},"display_name":"Cregneash, Rushen, Isle of Man","address":{"hamlet":"Cregneash","county":"Rushen","country":"Isle of Man","country_code":"im"},"osm_type":"node","osm_id":4900486725,"type":"hamlet","location":[-4.7681898,54.0696763],"bbox":[-4.7881898,54.0496763,-4.7481898,54.0896763]}
{"name":"Bradda West","display_name":"Bradda West, Port Erin, Rushen, Isle of Man","address":{"hamlet":"Bradda West","village":"Port Erin","county":"Rushen","country":"Isle of Man","country_code":"im"},"osm_type":"node","osm_id":283505417,"type":"hamlet","location":[-4.766164,54.0946626],"bbox":[-4.786164,54.0746626,-4.746164,54.1146626]}
{"name":"Bradda East","display_name":"Bradda East, Port Erin, Rushen, Isle of Man","address":{"hamlet":"Bradda East","village":"Port Erin","county":"Rushen","country":"Isle of Man","country_code":"im"},"osm_type":"node","osm_id":283510910,"type":"hamlet","location":[-4.7557596,54.0960792],"bbox":[-4.7757596,54.0760792,-4.7357596,54.1160792]}
{"name":"The Howe","display_name":"The Howe, Rushen, Isle of Man","address":{"hamlet":"The Howe","county":"Rushen","country":"Isle of Man","country_code":"im"},"osm_type":"node","osm_id":842400491,"type":"hamlet","location":[-4.7564239,54.0747702],"bbox":[-4.7764239,54.0547702,-4.7364239,54.0947702]}
{"name":"Gansey","display_name":"Gansey, Port Saint Mary, Rushen, Isle of Man","address":{"hamlet":"Gansey","village":"Port Saint Mary","county":"Rushen","country":"Isle of Man","country_code":"im"},"osm_type":"node","osm_id":491619166,"type":"hamlet","location":[-4.7303547,54.0788137],"bbox":[-4.7503547,54.0588137,-4.7103547,54.0988137]}
{"name":"Rushen","other_names":{"name:en":"Rushen","name:gv":"Rosien"},"display_name":"Rushen, Isle of Man","address":{"hamlet":"Rushen","county":"Rushen","country":"Isle of Man","country_code":"im"},"osm_type":"node","osm_id":283493515,"type":"hamlet","location":[-4.7402716,54.0888392],"bbox":[-4.7602716,54.0688392,-4.7202716,54.1088392]}
{"name":"Ballafesson","display_name":"Ballafesson, Rushen, Isle of Man","address":{"hamlet":"Ballafesson","county":"Rushen","country":"Isle of Man","country_code":"im"},"osm_type":"node","osm_id":283500163,"type":"hamlet","location":[-4.7430984,54.0939592],"bbox":[-4.7630984,54.0739592,-4.7230984,54.1139592]}
{"name":"Strandhall","display_name":"Strandhall, Rushen, Isle of Man","address":{"hamlet":"Strandhall","county":"Rushen","country":"Isle of Man","country_code":"im"},"osm_type":"node","osm_id":283486251,"type":"hamlet","location":[-4.7008127,54.0851139],"bbox":[-4.7208127,54.0651139,-4.6808127,54.1051139]}
{"name":"Ballakilpheric","display_name":"Ballakilpheric, Rushen, Isle of Man","address":{"hamlet":"Ballakilpheric","county":"Rushen","country":"Isle of Man","country_code":"im"},"osm_type":"node","osm_id":286772339,"type":"hamlet","location":[-4.7162723,54.1066072],"bbox":[-4.7362723,54.0866072,-4.6962723,54.1266072]}
{"name":"Balladoole","display_name":"Balladoole, Arbory, Rushen, Isle of Man","address":{"hamlet":"Balladoole","city":"Arbory","county":"Rushen","country":"Isle of Man","country_code":"im"},"osm_type":"node","osm_id":283482218,"type":"hamlet","location":[-4.6828904,54.0834888],"bbox":[-4.7028904,54.0634888,-4.6628904,54.1034888]}
{"name":"Surby","display_name":"Surby, Rushen, Isle of Man","address":{"hamlet":"Surby","county":"Rushen","country":"Isle of Man","country_code":"im"},"osm_type":"node","osm_id":842400493,"type":"hamlet","location":[-4.7440908,54.0986822],"bbox":[-4.7640908,54.0786822,-4.7240908,54.1186822]}
{"name":"Colby Glen","display_name":"Colby Glen, Arbory, Rushen, Isle of Man","address":{"hamlet":"Colby Glen","city":"Arbory","county":"Rushen","country":"Isle of Man","country_code":"im"},"osm_type":"node","osm_id":842400476,"type":"hamlet","location":[-4.7053299,54.1034039],"bbox":[-4.7253299,54.0834039,-4.6853299,54.1234039]}
{"name":"Ronague","display_name":"Ronague, Arbory, Rushen, Isle of Man","address":{"hamlet":"Ronague","city":"Arbory","county":"Rushen","country":"Isle of Man","country_code":"im"},"osm_type":"node","osm_id":283478115,"type":"hamlet","location":[-4.6871714,54.1189654],"bbox":[-4.7071714,54.0989654,-4.6671714,54.1389654]}
{"name":"Cross Four Ways","display_name":"Cross Four Ways, Malew, Rushen, Isle of Man","address":{"hamlet":"Cross Four Ways","city":"Malew","county":"Rushen","country":"Isle of Man","country_code":"im"},"osm_type":"node","osm_id":780295091,"type":"hamlet","location":[-4.6468126,54.0950643],"bbox":[-4.6668126,54.0750643,-4.6268126,54.1150643]}
{"name":"Ballabeg","other_names":{"name:en":"Ballabeg","name:gv":"Balley Beg"},"display_name":"Ballabeg, Arbory, Rushen, Isle of Man","address":{"hamlet":"Ballabeg","city":"Arbory","county":"Rushen","country":"Isle of Man","country_code":"im"},"osm_type":"node","osm_id":283519563,"type":"hamlet","location":[-4.6794688,54.100454],"bbox":[-4.6994688,54.080454,-4.6594688,54.120454]}
{"name":"Grenaby","display_name":"Grenaby, Malew, Rushen, IM9 3BD, Isle of Man","address":{"hamlet":"Grenaby","city":"Malew","county":"Rushen","postcode":"IM9 3BD","country":"Isle of Man","country_code":"im"},"osm_type":"node","osm_id":283514634,"type":"hamlet","location":[-4.6557806,54.1180067],"bbox":[-4.6757806,54.0980067,-4.6357806,54.1380067]}
{"name":"Derbyhaven","other_names":{"name:en":"Derbyhaven","name:gv":"Camys y Ree"},"display_name":"Derbyhaven, Malew, Rushen, Isle of Man","address":{"hamlet":"Derbyhaven","city":"Malew","county":"Rushen","country":"Isle of Man","country_code":"im"},"osm_type":"node","osm_id":283513569,"type":"hamlet","location":[-4.6241659,54.0768433],"bbox":[-4.6441659,54.0568433,-4.6041659,54.0968433]}
{"name":"Great Meadow","display_name":"Great Meadow, Malew, Rushen, Isle of Man","address":{"hamlet":"Great Meadow","city":"Malew","county":"Rushen","country":"Isle of Man","country_code":"im"},"osm_type":"node","osm_id":283519596,"type":"hamlet","location":[-4.653902,54.086524],"bbox":[-4.673902,54.066524,-4.633902,54.106524]}
{"name":"Ballamodha","display_name":"Ballamodha, Malew, Rushen, Isle of Man","address":{"hamlet":"Ballamodha","city":"Malew","county":"Rushen","country":"Isle of Man","country_code":"im"},"osm_type":"node","osm_id":283508356,"type":"hamlet","location":[-4.6379648,54.1308782],"bbox":[-4.6579648,54.1108782,-4.6179648,54.1508782]}
{"name":"Ballanank","display_name":"Ballanank, Malew, Rushen, Isle of Man","address":{"hamlet":"Ballanank","city":"Malew","county":"Rushen","country":"Isle of Man","country_code":"im"},"osm_type":"node","osm_id":283511577,"type":"hamlet","location":[-4.6287351,54.1163265],"bbox":[-4.6487351,54.0963265,-4.6087351,54.1363265]}
{"name":"Saint Marks","display_name":"Saint Marks, Malew, Rushen, Isle of Man","address":{"hamlet":"Saint Marks","city":"Malew","county":"Rushen","country":"Isle of Man","country_code":"im"},"osm_type":"node","osm_id":283489880,"type":"hamlet","location":[-4.6100772,54.1332808],"bbox":[-4.6300772,54.1132808,-4.5900772,54.1532808]}
{"name":"Santon","display_name":"Santon, Middle, Isle of Man","address":{"hamlet":"Santon","county":"Middle","country":"Isle of Man","country_code":"im"},"osm_type":"node","osm_id":283494317,"type":"hamlet","location":[-4.5710066,54.1249692],"bbox":[-4.5910066,54.1049692,-4.5510066,54.1449692]}
{"name":"Crogga Bridge","display_name":"Crogga Bridge, Santon, Middle, Isle of Man","address":{"hamlet":"Crogga Bridge","county":"Middle","country":"Isle of Man","country_code":"im"},"osm_type":"node","osm_id":475393647,"type":"hamlet","location":[-4.5479977,54.1245845],"bbox":[-4.5679977,54.1045845,-4.5279977,54.1445845]}
{"name":"Newtown","other_names":{"name:en":"Newtown","name:gv":"Balley Noa"},"display_name":"Newtown, Santon, Middle, Isle of Man","address":{"hamlet":"Newtown","county":"Middle","country":"Isle of Man","country_code":"im"},"osm_type":"node","osm_id":441171223,"type":"hamlet","location":[-4.5661122,54.1323725],"bbox":[-4.5861122,54.1123725,-4.5461122,54.1523725]}
{"name":"Mount Murray","display_name":"Mount Murray, Santon, Middle, Isle of Man","address":{"hamlet":"Mount Murray","county":"Middle","country":"Isle of Man","country_code":"im"},"osm_type":"node","osm_id":480447916,"type":"hamlet","location":[-4.5642911,54.1365991],"bbox":[-4.5842911,54.1165991,-4.5442911,54.1565991]}
{"name":"Knock Froy","display_name":"Knock Froy, Santon, Middle, Isle of Man","address":{"hamlet":"Knock Froy","county":"Middle","country":"Isle of Man","country_code":"im"},"osm_type":"node","osm_id":475394773,"type":"hamlet","location":[-4.5581473,54.1324741],"bbox":[-4.5781473,54.1124741,-4.5381473,54.1524741]}
{"name":"Crogga","display_name":"Crogga, Santon, Middle, Isle of Man","address":{"hamlet":"Crogga","county":"Middle","country":"Isle of Man","country_code":"im"},"osm_type":"node","osm_id":475392977,"type":"hamlet","location":[-4.5502635,54.1232048],"bbox":[-4.5702635,54.1032048,-4.5302635,54.1432048]}
{"name":"Quine's Hill","display_name":"Quine's Hill, Braddan, Middle, Isle of Man","address":{"hamlet":"Quine's Hill","city":"Braddan","county":"Middle","country":"Isle of Man","country_code":"im"},"osm_type":"node","osm_id":475394893,"type":"hamlet","location":[-4.5321952,54.1321381],"bbox":[-4.5521952,54.1121381,-4.5121952,54.1521381]}
{"name":"Niarbyl","display_name":"Niarbyl, Patrick, Glenfaba, Isle of Man","address":{"hamlet":"Niarbyl","village":"Patrick","county":"Glenfaba","country":"Isle of Man","country_code":"im"},"osm_type":"node","osm_id":283522771,"type":"hamlet","location":[-4.7400508,54.1638542],"bbox":[-4.7600508,54.1438542,-4.7200508,54.1838542]}
{"name":"Dalby","other_names":{"name:en":"Dalby","name:gv":"Delbee"},"display_name":"Dalby, Patrick, Glenfaba, Isle of Man","address":{"hamlet":"Dalby","village":"Patrick","county":"Glenfaba","country":"Isle of Man","country_code":"im"},"osm_type":"node","osm_id":10305031877,"type":"hamlet","location":[-4.7293589,54.1688856],"bbox":[-4.7493589,54.1488856,-4.7093589,54.1888856]}
{"name":"Lower Foxdale","display_name":"Lower Foxdale, Patrick, Glenfaba, Isle of Man","address":{"hamlet":"Lower Foxdale","village":"Patrick","county":"Glenfaba","country":"Isle of Man","country_code":"im"},"osm_type":"node","osm_id":283494422,"type":"hamlet","location":[-4.6419675,54.1796841],"bbox":[-4.6619675,54.1596841,-4.6219675,54.1996841]}
{"name":"Braaid","display_name":"Braaid, Marown, Middle, Isle of Man","address":{"hamlet":"Braaid","city":"Marown","county":"Middle","country":"Isle of Man","country_code":"im"},"osm_type":"node","osm_id":283490552,"type":"hamlet","location":[-4.5736025,54.1547256],"bbox":[-4.5936025,54.1347256,-4.5536025,54.1747256]}
{"name":"Orrisdale","display_name":"Orrisdale, Michael, Isle of Man","address":{"hamlet":"Orrisdale","city":"Michael","county":"Michael","country":"Isle of Man","country_code":"im"},"osm_type":"node","osm_id":283495055,"type":"hamlet","location":[-4.5763444,54.3051138],"bbox":[-4.5963444,54.2851138,-4.5563444,54.3251138]}
{"name":"Ballacraine","display_name":"Ballacraine, St Johns, German, Glenfaba, Isle of Man","address":{"hamlet":"Ballacraine","village":"St Johns","city":"German","county":"Glenfaba","country":"Isle of Man","country_code":"im"},"osm_type":"node","osm_id":448463229,"type":"hamlet","location":[-4.6295092,54.20319],"bbox":[-4.6495092,54.18319,-4.6095092,54.22319]}
{"name":"Poortown","display_name":"Poortown, St Johns, German, Glenfaba, Isle of Man","address":{"hamlet":"Poortown","village":"St Johns","city":"German","county":"Glenfaba","country":"Isle of Man","country_code":"im"},"osm_type":"node","osm_id":283504075,"type":"hamlet","location":[-4.657253,54.2146562],"bbox":[-4.677253,54.1946562,-4.637253,54.2346562]}
{"name":"Little London","display_name":"Little London, Michael, Isle of Man","address":{"hamlet":"Little London","city":"Michael","county":"Michael","country":"Isle of Man","country_code":"im"},"osm_type":"node","osm_id":283479252,"type":"hamlet","location":[-4.5764204,54.2441349],"bbox":[-4.5964204,54.2241349,-4.5564204,54.2641349]}
{"name":"Ballakinnish","display_name":"Ballakinnish, Braddan, Middle, Isle of Man","address":{"hamlet":"Ballakinnish","city":"Braddan","county":"Middle","country":"Isle of Man","country_code":"im"},"osm_type":"node","osm_id":475393327,"type":"hamlet","location":[-4.5312198,54.1448492],"bbox":[-4.5512198,54.1248492,-4.5112198,54.1648492]}
{"name":"Kewaigue","display_name":"Kewaigue, Braddan, Middle, Isle of Man","address":{"hamlet":"Kewaigue","city":"Braddan","county":"Middle","country":"Isle of Man","country_code":"im"},"osm_type":"node","osm_id":458774874,"type":"hamlet","location":[-4.5112931,54.1426264],"bbox":[-4.5312931,54.1226264,-4.4912931,54.1626264]}
{"name":"Baldwin","display_name":"Baldwin, Braddan, Middle, Isle of Man","address":{"hamlet":"Baldwin","city":"Braddan","county":"Middle","country":"Isle of Man","country_code":"im"},"osm_type":"node","osm_id":283507566,"type":"hamlet","location":[-4.5254416,54.2001934],"bbox":[-4.5454416,54.1801934,-4.5054416,54.2201934]}
{"name":"Ballanard","display_name":"Ballanard, Douglas, Middle, Isle of Man","address":{"hamlet":"Ballanard","city":"Douglas","county":"Middle","country":"Isle of Man","country_code":"im"},"osm_type":"node","osm_id":475395080,"type":"hamlet","location":[-4.4916601,54.1760887],"bbox":[-4.5116601,54.1560887,-4.4716601,54.1960887]}
{"name":"Boilley Veen","display_name":"Boilley Veen, Lonan, Garff, Isle of Man","address":{"hamlet":"Boilley Veen","city":"Lonan","county":"Garff","country":"Isle of Man","country_code":"im"},"osm_type":"node","osm_id":9285188895,"type":"hamlet","location":[-4.4092503,54.2184494],"bbox":[-4.4292503,54.1984494,-4.3892503,54.2384494]}
{"name":"Ballaskella","display_name":"Ballaskella, Lezayre, Ayre, Isle of Man","address":{"hamlet":"Ballaskella","city":"Lezayre","county":"Ayre","country":"Isle of Man","country_code":"im"},"osm_type":"node","osm_id":283498646,"type":"hamlet","location":[-4.4932223,54.2774047],"bbox":[-4.5132223,54.2574047,-4.4732223,54.2974047]}
{"name":"Ravensdale","display_name":"Ravensdale, Ballaugh, Michael, Isle of Man","address":{"hamlet":"Ravensdale","village":"Ballaugh","county":"Michael","country":"Isle of Man","country_code":"im"},"osm_type":"node","osm_id":283495424,"type":"hamlet","location":[-4.5337648,54.2964137],"bbox":[-4.5537648,54.2764137,-4.5137648,54.3164137]}
{"name":"Ballajora","display_name":"Ballajora, Dreemskerry, Maughold, Garff, Isle of Man","address":{"hamlet":"Ballajora","village":"Dreemskerry","county":"Garff","country":"Isle of Man","country_code":"im"},"osm_type":"node","osm_id":283481783,"type":"hamlet","location":[-4.3379456,54.2875486],"bbox":[-4.3579456,54.2675486,-4.3179456,54.3075486]}
{"name":"Agneash","display_name":"Agneash, Lonan, Garff, Isle of Man","address":{"hamlet":"Agneash","city":"Lonan","county":"Garff","country":"Isle of Man","country_code":"im"},"osm_type":"node","osm_id":283518171,"type":"hamlet","location":[-4.4095404,54.2460227],"bbox":[-4.4295404,54.2260227,-4.3895404,54.2660227]}
{"name":"Glen Mona","display_name":"Glen Mona, Maughold, Garff, Isle of Man","address":{"hamlet":"Glen Mona","village":"Maughold","county":"Garff","country":"Isle of Man","country_code":"im"},"osm_type":"node","osm_id":283495844,"type":"hamlet","location":[-4.3763323,54.2717918],"bbox":[-4.3963323,54.2517918,-4.3563323,54.2917918]}
{"name":"Dhoon","display_name":"Dhoon, Maughold, Garff, Isle of Man","address":{"hamlet":"Dhoon","village":"Maughold","county":"Garff","country":"Isle of Man","country_code":"im"},"osm_type":"node","osm_id":283510261,"type":"hamlet","location":[-4.3720879,54.2541717],"bbox":[-4.3920879,54.2341717,-4.3520879,54.2741717]}
{"name":"Ballarragh","display_name":"Ballarragh, Lonan, Garff, Isle of Man","address":{"hamlet":"Ballarragh","city":"Lonan","county":"Garff","country":"Isle of Man","country_code":"im"},"osm_type":"node","osm_id":283478940,"type":"hamlet","location":[-4.3775077,54.242137],"bbox":[-4.3975077,54.222137,-4.3575077,54.262137]}
{"name":"Jurby West","display_name":"Jurby West, Jurby, Michael, Isle of Man","address":{"hamlet":"Jurby West","village":"Jurby","county":"Michael","country":"Isle of Man","country_code":"im"},"osm_type":"node","osm_id":283501062,"type":"hamlet","location":[-4.5346928,54.3539304],"bbox":[-4.5546928,54.3339304,-4.5146928,54.3739304]}
{"name":"Dollagh","display_name":"Dollagh, Ballaugh, Michael, Isle of Man","address":{"hamlet":"Dollagh","village":"Ballaugh","county":"Michael","country":"Isle of Man","country_code":"im"},"osm_type":"node","osm_id":475393123,"type":"hamlet","location":[-4.5488453,54.3171276],"bbox":[-4.5688453,54.2971276,-4.5288453,54.3371276]}
{"name":"The Cronk","display_name":"The Cronk, Ballaugh, Michael, Isle of Man","address":{"hamlet":"The Cronk","village":"Ballaugh","county":"Michael","country":"Isle of Man","country_code":"im"},"osm_type":"node","osm_id":283512900,"type":"hamlet","location":[-4.5535958,54.3303583],"bbox":[-4.5735958,54.3103583,-4.5335958,54.3503583]}
{"name":"Sandygate","display_name":"Sandygate, Jurby, Michael, Isle of Man","address":{"hamlet":"Sandygate","village":"Jurby","county":"Michael","country":"Isle of Man","country_code":"im"},"osm_type":"node","osm_id":283482693,"type":"hamlet","location":[-4.5031847,54.3462161],"bbox":[-4.5231847,54.3262161,-4.4831847,54.3662161]}
{"name":"Lezayre","display_name":"Lezayre, Ayre, Isle of Man","address":{"hamlet":"Lezayre","city":"Lezayre","county":"Ayre","country":"Isle of Man","country_code":"im"},"osm_type":"node","osm_id":283512568,"type":"hamlet","location":[-4.4265581,54.3186481],"bbox":[-4.4465581,54.2986481,-4.4065581,54.3386481]}
{"name":"Saint Jude's","display_name":"Saint Jude's, Andreas, Ayre, Isle of Man","address":{"hamlet":"Saint Jude's","village":"Andreas","county":"Ayre","country":"Isle of Man","country_code":"im"},"osm_type":"node","osm_id":283479873,"type":"hamlet","location":[-4.468341,54.3408959],"bbox":[-4.488341,54.3208959,-4.448341,54.3608959]}
{"name":"Cranstal","display_name":"Cranstal, Bride, Ayre, Isle of Man","address":{"hamlet":"Cranstal","village":"Bride","county":"Ayre","country":"Isle of Man","country_code":"im"},"osm_type":"node","osm_id":283513982,"type":"hamlet","location":[-4.3715601,54.39264],"bbox":[-4.3915601,54.37264,-4.3515601,54.41264]}
{"name":"Regaby","display_name":"Regaby, Bride, Ayre, Isle of Man","address":{"hamlet":"Regaby","village":"Bride","county":"Ayre","country":"Isle of Man","country_code":"im"},"osm_type":"node","osm_id":283518513,"type":"hamlet","location":[-4.412291,54.3492977],"bbox":[-4.432291,54.3292977,-4.392291,54.3692977]}
