{"name":"St. Brelade","other_names":{"name:ar":"القديس بريليد","name:br":"Sant Branwalader","name:cy":"Sant Brelad","name:fr":"Saint-Brélade","name:ja":"セント・ブレラーデ","name:zh":"圣布雷拉德","name:nrf":"St Brélade"},"display_name":"St. Brelade, Jersey","address":{"town":"St. Brelade","country":"Jersey","country_code":"je"},"population":10568,"osm_type":"node","osm_id":8065898662,"type":"town","location":[-2.1996144,49.1930223],"bbox":[-2.2396144,49.1530223,-2.1596144,49.2330223]}
{"name":"St. Helier","other_names":{"name:ar":"ساينت هيلير","name:be":"Сент-Хеліер","name:br":"Sant-Heler","name:en":"St. Helier","name:es":"San Helerio","name:fa":"سن هلیه","name:fr":"Saint-Hélier","name:he":"סנט הלייר","name:hu":"Saint Helier","name:it":"Saint Helier","name:ka":"სენტ-ჰელიერი","name:ko":"세인트헬리어","name:lt":"Sent Helieras","name:mk":"Сент Хелиер","name:pl":"Saint Helier","name:pt":"Santo Helério","name:ru":"Сент-Хелиер","name:th":"เซนต์เฮลิเยอร์","name:tr":"Saint Helier","name:uk":"Сент-Гелієр","name:ur":"سینٹ ہیلیر","name:zh":"聖赫利爾","name:nrf":"St. Hélyi","short_name":"St. Helier","name:zh-Hans":"圣赫利尔","name:zh-Hant":"聖赫利爾","official_name":"Parish of Saint Helier","official_name:short":"Saint Helier"},"display_name":"St. Helier, Jersey","address":{"town":"St. Helier","country":"Jersey","country_code":"je"},"population":32522,"osm_type":"node","osm_id":2615659256,"type":"town","location":[-2.1102277,49.1856637],"bbox":[-2.1502277,49.1456637,-2.0702277,49.2256637]}
{"name":"St. Saviour","other_names":{"name:en":"St. Saviour","name:fr":"Saint-Sauveur","name:mk":"Сент Сејвиор"},"display_name":"St. Saviour, Saint Saviour, Jersey","address":{"town":"St. Saviour","city":"Saint Saviour","country":"Jersey","country_code":"je"},"population":13580,"osm_type":"node","osm_id":2615659255,"type":"town","location":[-2.0903183,49.1948946],"bbox":[-2.1303183,49.1548946,-2.0503183,49.2348946]}
{"name":"Gorey Village","display_name":"Gorey Village, Jersey","address":{"village":"Gorey Village","country":"Jersey","country_code":"je"},"osm_type":"way","osm_id":185752974,"type":"village","location":[-2.033915968249972,49.196746000000005],"bbox":[-2.0381935,49.194413,-2.0289389,49.1989978]}
{"name":"Saint Ouen","display_name":"Saint Ouen, Jersey","address":{"village":"Saint Ouen","city":"Saint Ouen","country":"Jersey","country_code":"je"},"osm_type":"relation","osm_id":14056189,"type":"village","location":[-2.2009137008866544,49.2336349],"bbox":[-2.2068855,49.2312975,-2.1929995,49.2359444]}
{"name":"Les Quennevais","other_names":{"name:en":"Les Quennevais","name:nrf":"Les Tchennevais"},"display_name":"Les Quennevais, St. Brelade, Jersey","address":{"village":"Les Quennevais","town":"St. Brelade","country":"Jersey","country_code":"je"},"osm_type":"node","osm_id":7758286927,"type":"village","location":[-2.1981085,49.1964948],"bbox":[-2.2181085,49.1764948,-2.1781085,49.2164948]}
{"name":"St. Aubin","other_names":{"name:ar":"القديس أوبين","name:en":"St. Aubin","name:fr":"Saint-Aubin","name:mk":"Сент Обен","alt_name":"Saint Aubin"},"display_name":"St. Aubin, St. Brelade, Jersey","address":{"village":"St. Aubin","town":"St. Brelade","country":"Jersey","country_code":"je"},"osm_type":"node","osm_id":1432784186,"type":"village","location":[-2.1704668,49.1874419],"bbox":[-2.1904668,49.1674419,-2.1504668,49.2074419]}
{"name":"St Peter","other_names":{"name:ar":"القديس بطرس","name:cy":"Sant Pedr","name:en":"St Peter","name:es":"San Pedro","name:fr":"Saint-Pierre","name:ja":"セント・ピーター","name:mk":"Сент Питер","name:ru":"Святой Петр","name:zh":"圣彼得","name:nrf":"St Pièrre"},"display_name":"St Peter, St. Peter, Jersey","address":{"village":"St Peter","city":"St. Peter","country":"Jersey","country_code":"je"},"population":5003,"osm_type":"node","osm_id":1362809683,"type":"village","location":[-2.18372,49.2128288],"bbox":[-2.20372,49.1928288,-2.16372,49.2328288]}
{"name":"Beaumont","other_names":{"name:en":"Beaumont","name:nrf":"Bieau Mont"},"display_name":"Beaumont, St. Peter, Jersey","address":{"village":"Beaumont","city":"St. Peter","country":"Jersey","country_code":"je"},"osm_type":"node","osm_id":7677889366,"type":"village","location":[-2.1592066,49.1963415],"bbox":[-2.1792066,49.1763415,-2.1392066,49.2163415]}
{"name":"First Tower","other_names":{"name:en":"First Tower","alt_name":"Ville ès Nouaux"},"display_name":"First Tower, St. Helier, Jersey","address":{"village":"First Tower","town":"St. Helier","country":"Jersey","country_code":"je"},"osm_type":"node","osm_id":7677889357,"type":"village","location":[-2.1270177,49.1947086],"bbox":[-2.1470177,49.1747086,-2.1070177,49.2147086]}
{"name":"St. Lawrence","other_names":{"name:ar":"القديس لورانس","name:fr":"Saint-Lawrence","name:mk":"Сент Лоренс"},"display_name":"Saint Lawrence, Jersey","address":{"village":"Saint Lawrence","country":"Jersey","country_code":"je"},"population":5418,"osm_type":"node","osm_id":1432784182,"type":"village","location":[-2.1416892,49.2149124],"bbox":[-2.1616892,49.1949124,-2.1216892,49.2349124]}
{"name":"Georgetown","display_name":"Georgetown, Saint Saviour, Jersey","address":{"village":"Georgetown","city":"Saint Saviour","country":"Jersey","country_code":"je"},"osm_type":"node","osm_id":7677889362,"type":"village","location":[-2.0935964,49.178851],"bbox":[-2.1135964,49.158851,-2.0735964,49.198851]}
{"name":"St. Clement","other_names":{"name:fr":"Saint-Clément","name:mk":"Сент Клемент"},"display_name":"St. Clement, Jersey","address":{"village":"St. Clement","country":"Jersey","country_code":"je"},"population":9221,"osm_type":"node","osm_id":2892306358,"type":"village","location":[-2.0562124,49.1736373],"bbox":[-2.0762124,49.1536373,-2.0362124,49.1936373]}
{"name":"Grouville","other_names":{"name:mk":"Грувил","name:nrf":"Grouville","alt_name:nrf":"Grouïlle"},"display_name":"Grouville, Jersey","address":{"village":"Grouville","country":"Jersey","country_code":"je"},"population":4866,"osm_type":"node","osm_id":2892306359,"type":"village","location":[-2.0516828,49.18404],"bbox":[-2.0716828,49.16404,-2.0316828,49.20404]}
{"name":"Gorey","other_names":{"name:en":"Gorey","name:fr":"Gouray","name:nrf":"Gouôrray"},"display_name":"Gorey, Grouville, Jersey","address":{"village":"Gorey","country":"Jersey","country_code":"je"},"osm_type":"node","osm_id":2892306356,"type":"village","location":[-2.0317647,49.1988275],"bbox":[-2.0517647,49.1788275,-2.0117647,49.2188275]}
{"name":"Maufant","display_name":"Maufant, Saint Saviour, Jersey","address":{"village":"Maufant","city":"Saint Saviour","country":"Jersey","country_code":"je"},"osm_type":"node","osm_id":7677889355,"type":"village","location":[-2.0632148,49.2097903],"bbox":[-2.0832148,49.1897903,-2.0432148,49.2297903]}
{"name":"St. Martin","other_names":{"name:fr":"Saint-Martin","name:mk":"Сент Мартин","alt_name":"Saint Martin"},"display_name":"St. Martin, Jersey","address":{"village":"St. Martin","country":"Jersey","country_code":"je"},"osm_type":"node","osm_id":1432583071,"type":"village","location":[-2.0516314,49.2177274],"bbox":[-2.0716314,49.1977274,-2.0316314,49.2377274]}
{"name":"St. Ouen","other_names":{"name:cy":"Sant Won","name:en":"St. Ouen","name:es":"San Ouen","name:fr":"Saint-Ouën","name:mk":"Сент Питер","name:zh":"圣旺","name:nrf":"St Ouën"},"display_name":"St. Ouen, Saint Ouen, Jersey","address":{"village":"St. Ouen","city":"Saint Ouen","country":"Jersey","country_code":"je"},"osm_type":"node","osm_id":12624393,"type":"village","location":[-2.2020406,49.2335087],"bbox":[-2.2220406,49.2135087,-2.1820406,49.2535087]}
{"name":"St Mary","other_names":{"name:cy":"Santes Fair","name:en":"St Mary","name:fr":"Sainte-Marie","name:ja":"セント・メアリー","name:mk":"Сент Мери","name:zh":"圣玛丽","name:nrf":"Ste Mathie"},"display_name":"St Mary, St. Mary, Jersey","address":{"village":"St Mary","city":"St. Mary","country":"Jersey","country_code":"je"},"osm_type":"node","osm_id":12624694,"type":"village","location":[-2.1716245,49.2364029],"bbox":[-2.1916245,49.2164029,-2.1516245,49.2564029]}
{"name":"St. John","other_names":{"name:fr":"Saint-Jean","name:ja":"セント・ジョン","name:mk":"Сент Џон","name:zh":"圣约翰"},"display_name":"St. John, Jersey","address":{"village":"St. John","country":"Jersey","country_code":"je"},"population":2911,"osm_type":"node","osm_id":12625437,"type":"village","location":[-2.1349726,49.2465535],"bbox":[-2.1549726,49.2265535,-2.1149726,49.2665535]}
{"name":"Sion","display_name":"Sion, St. John, Jersey","address":{"village":"Sion","country":"Jersey","country_code":"je"},"osm_type":"node","osm_id":7677889354,"type":"village","location":[-2.1142488,49.2199767],"bbox":[-2.1342488,49.1999767,-2.0942488,49.2399767]}
{"name":"Carrefour Selous","display_name":"Carrefour Selous, Saint Lawrence, Jersey","address":{"village":"Carrefour Selous","country":"Jersey","country_code":"je"},"osm_type":"node","osm_id":7677889364,"type":"village","location":[-2.1456462,49.227055],"bbox":[-2.1656462,49.207055,-2.1256462,49.247055]}
{"name":"Trinity","other_names":{"name:fr":"La Trinnité","name:mk":"Тринити"},"display_name":"Trinity, Jersey","address":{"village":"Trinity","country":"Jersey","country_code":"je"},"osm_type":"node","osm_id":1432583068,"type":"village","location":[-2.0929268,49.234492],"bbox":[-2.1129268,49.214492,-2.0729268,49.254492]}
{"name":"La Moye","display_name":"La Moye, Jersey","address":{"hamlet":"La Moye","country":"Jersey","country_code":"je"},"osm_type":"node","osm_id":1787256074,"type":"hamlet","location":[-2.2258243,49.1731013],"bbox":[-2.2458243,49.1531013,-2.2058243,49.1931013]}
{"name":"Corbiere","other_names":{"name:en":"Corbiere","name:nrf":"La Corbièthe"},"display_name":"Corbiere, La Vingtaine de la Moye, St. Brelade, Jersey","address":{"hamlet":"Corbiere","city_district":"La Vingtaine de la Moye","town":"St. Brelade","country":"Jersey","country_code":"je"},"osm_type":"node","osm_id":1432784187,"type":"hamlet","location":[-2.2307026,49.1828907],"bbox":[-2.2507026,49.1628907,-2.2107026,49.2028907]}
{"name":"La Pulente","display_name":"La Pulente, Jersey","address":{"hamlet":"La Pulente","country":"Jersey","country_code":"je"},"osm_type":"node","osm_id":1787256046,"type":"hamlet","location":[-2.231811,49.1897363],"bbox":[-2.251811,49.1697363,-2.211811,49.2097363]}
{"name":"Portelet","display_name":"Portelet, La Vingtaine de Noirmont, St. Brelade, Jersey","address":{"hamlet":"Portelet","city_district":"La Vingtaine de Noirmont","town":"St. Brelade","country":"Jersey","country_code":"je"},"osm_type":"node","osm_id":1432784181,"type":"hamlet","location":[-2.1767816,49.1719985],"bbox":[-2.1967816,49.1519985,-2.1567816,49.1919985]}
{"name":"Le Bourg","display_name":"Le Bourg, La Grande Vingtaine, St. Clement, Jersey","address":{"hamlet":"Le Bourg","city_district":"La Grande Vingtaine","village":"St. Clement","country":"Jersey","country_code":"je"},"osm_type":"node","osm_id":1793049229,"type":"hamlet","location":[-2.0435133,49.1689871],"bbox":[-2.0635133,49.1489871,-2.0235133,49.1889871]}
{"name":"Grouville Arsenal","display_name":"Grouville Arsenal, La Vingtaine de Longueville, Grouville, Jersey","address":{"hamlet":"Grouville Arsenal","city_district":"La Vingtaine de Longueville","village":"Grouville","country":"Jersey","country_code":"je"},"osm_type":"node","osm_id":7677889368,"type":"hamlet","location":[-2.0585971,49.1816311],"bbox":[-2.0785971,49.1616311,-2.0385971,49.2016311]}
{"name":"L'Etacq","other_names":{"name:en":"L'Etacq","name:nrf":"L'Êta"},"display_name":"L'Etacq, Jersey","address":{"hamlet":"L'Etacq","country":"Jersey","country_code":"je"},"osm_type":"node","osm_id":1787256051,"type":"hamlet","location":[-2.2461662,49.2381228],"bbox":[-2.2661662,49.2181228,-2.2261662,49.2581228]}
{"name":"Les Landes","display_name":"Les Landes, La Cueillette de Millais, Saint Ouen, Jersey","address":{"hamlet":"Les Landes","city_district":"La Cueillette de Millais","city":"Saint Ouen","country":"Jersey","country_code":"je"},"osm_type":"node","osm_id":1787228880,"type":"hamlet","location":[-2.2480545,49.2472565],"bbox":[-2.2680545,49.2272565,-2.2280545,49.2672565]}
{"name":"Crabbe","display_name":"Crabbe, Vingtaine du Nord, St. Mary, Jersey","address":{"hamlet":"Crabbe","city_district":"Vingtaine du Nord","city":"St. Mary","country":"Jersey","country_code":"je"},"osm_type":"node","osm_id":1787228881,"type":"hamlet","location":[-2.18703,49.2452989],"bbox":[-2.20703,49.2252989,-2.16703,49.2652989]}
{"name":"Grève de Lecq","other_names":{"name:en":"Grève de Lecq","name:nrf":"La Grève dé Lé"},"display_name":"Grève de Lecq, La Cueillette de Léoville, Saint Ouen, Jersey","address":{"hamlet":"Grève de Lecq","city_district":"La Cueillette de Léoville","city":"Saint Ouen","country":"Jersey","country_code":"je"},"osm_type":"node","osm_id":1776222011,"type":"hamlet","location":[-2.2018149,49.2468257],"bbox":[-2.2218149,49.2268257,-2.1818149,49.2668257]}
{"name":"Égypte","other_names":{"name:en":"Égypte","name:nrf":"Êgypte"},"display_name":"Égypte, Vingtaine de la Ville à l'Evêque, Trinity, Jersey","address":{"hamlet":"Égypte","city_district":"Vingtaine de la Ville à l'Evêque","village":"Trinity","country":"Jersey","country_code":"je"},"osm_type":"node","osm_id":1787238808,"type":"hamlet","location":[-2.0950184,49.2472845],"bbox":[-2.1150184,49.2272845,-2.0750184,49.2672845]}
{"name":"Rozel","other_names":{"name:en":"Rozel","name:nrf":"La Rôzé"},"display_name":"Rozel, La Vingtaine de Rozel, Trinity, Jersey","address":{"hamlet":"Rozel","city_district":"La Vingtaine de Rozel","village":"Trinity","country":"Jersey","country_code":"je"},"osm_type":"node","osm_id":1432583078,"type":"hamlet","location":[-2.0478614,49.2371288],"bbox":[-2.0678614,49.2171288,-2.0278614,49.2571288]}
