{"name":"Moroni موروني","other_names":{"name:am":"ሞሮኒ","name:ar":"موروني","name:be":"Мароні","name:bg":"Морони","name:bo":"མོ་རོ་ནི།","name:de":"Moroni","name:el":"Μορονί","name:en":"Moroni","name:es":"Moroni","name:fa":"موروني","name:fr":"Moroni","name:fy":"Morony","name:he":"מורוני","name:hu":"Moroni","name:hy":"Մորոնի","name:id":"Moroni","name:is":"Moróní","name:ja":"モロニ","name:jv":"Moroni","name:ka":"მორონი","name:ko":"모로니","name:ku":"Moronî","name:ky":"Морони","name:lt":"Moronis","name:mk":"Морони","name:mn":"Морони","name:mr":"मोरोनी","name:oc":"Moròni","name:pl":"Moroni","name:ps":"مورونی","name:ru":"Морони","name:sr":"Морони","name:sv":"Moroni","name:ta":"மூறூனீ","name:th":"โมโรนี","name:tl":"Moroni","name:uk":"Мороні","name:ur":"مورونی","name:vi":"Moroni","name:yo":"Moroni","name:zh":"莫羅尼","name:azb":"مورونی","name:ckb":"مۆرۆنی","name:ota":"مورونی","name:pnb":"مورونی","name:sco":"Moroni","name:udm":"Морони","name:war":"Moroni","name:simple":"Moroni"},"display_name":"Moroni موروني, Ngazidja القمر الكبرى, Comores Komori جزر القمر","address":{"city":"Moroni موروني","state":"Ngazidja القمر الكبرى","ISO3166-2-lvl4":"KM-G","country":"Comores Komori جزر القمر","country_code":"km"},"population":111329,"osm_type":"node","osm_id":339324562,"type":"city","location":[43.2543044,-11.6931255],"bbox":[43.0943044,-11.8531255,43.4143044,-11.5331255]}
{"name":"فومبوني Fomboni","other_names":{"name:ar":"فومبوني","name:de":"Fomboni","name:en":"Fomboni","name:es":"Fomboni","name:fa":"فومبونی","name:fr":"Fomboni","name:uk":"Фомбоні","name:azb":"فومبونی"},"display_name":"فومبوني Fomboni, Fomboni, موهيلي Mohéli, Comores Komori جزر القمر","address":{"city":"فومبوني Fomboni","state":"موهيلي Mohéli","ISO3166-2-lvl4":"KM-M","country":"Comores Komori جزر القمر","country_code":"km"},"osm_type":"node","osm_id":2317482083,"type":"city","location":[43.742727,-12.284054],"bbox":[43.582727,-12.444054,43.902727,-12.124054]}
{"name":"Mutsamudu موتسامودو","other_names":{"name:ar":"موتسامودو","name:en":"Mutsamudu","name:fr":"Mutsamudu","name:ko":"무차무두"},"display_name":"Mutsamudu موتسامودو, Nzwani أنجوان, Comores Komori جزر القمر","address":{"city":"Mutsamudu موتسامودو","state":"Nzwani أنجوان","ISO3166-2-lvl4":"KM-A","country":"Comores Komori جزر القمر","country_code":"km"},"population":30000,"osm_type":"node","osm_id":1295700465,"type":"city","location":[44.3942831,-12.168846],"bbox":[44.2342831,-12.328846,44.5542831,-12.008846]}
{"name":"Foumbouni فومبوني","other_names":{"name:ar":"فومبوني","name:en":"Foumbouni","name:fr":"Foumbouni","name:hr":"Foumbouni","name:id":"Foumbouni","name:it":"Foumbouni","name:pl":"Foumbouni","name:ro":"Foumbouni","name:sv":"Foumbouni"},"display_name":"Foumbouni فومبوني, Ngazidja القمر الكبرى, Comores Komori جزر القمر","address":{"town":"Foumbouni فومبوني","state":"Ngazidja القمر الكبرى","ISO3166-2-lvl4":"KM-G","country":"Comores Komori جزر القمر","country_code":"km"},"osm_type":"way","osm_id":402868166,"type":"town","location":[43.4951635,-11.865448],"bbox":[43.4890659,-11.870391,43.4968096,-11.8599035]}
{"name":"Foumbouni فومبوني","other_names":{"name:ar":"فومبوني","name:en":"Foumbouni","name:fr":"Foumbouni","name:hr":"Foumbouni","name:id":"Foumbouni","name:it":"Foumbouni","name:pl":"Foumbouni","name:ro":"Foumbouni","name:sv":"Foumbouni"},"display_name":"Foumbouni فومبوني, Ngazidja القمر الكبرى, Comores Komori جزر القمر","address":{"town":"Foumbouni فومبوني","state":"Ngazidja القمر الكبرى","ISO3166-2-lvl4":"KM-G","country":"Comores Komori جزر القمر","country_code":"km"},"osm_type":"node","osm_id":4052722395,"type":"town","location":[43.4951635,-11.865448],"bbox":[43.4551635,-11.905448,43.5351635,-11.825448]}
{"name":"Hahaya هاهايا","other_names":{"name:ar":"هاهايا","name:fr":"Hahaya"},"display_name":"Hahaya هاهايا, Ngazidja القمر الكبرى, Comores Komori جزر القمر","address":{"town":"Hahaya هاهايا","state":"Ngazidja القمر الكبرى","ISO3166-2-lvl4":"KM-G","country":"Comores Komori جزر القمر","country_code":"km"},"population":2638,"osm_type":"node","osm_id":2317587042,"type":"town","location":[43.2713158,-11.5644457],"bbox":[43.2313158,-11.6044457,43.3113158,-11.5244457]}
{"name":"ندروندروني Ndrondroni","other_names":{"name:ar":"ندروندروني","name:de":"Ndrondroni","name:en":"Ndrondroni","name:es":"Ndrondroni","name:fr":"Ndrondroni"},"display_name":"ندروندروني Ndrondroni, M'lédjélé, موهيلي Mohéli, Comores Komori جزر القمر","address":{"town":"ندروندروني Ndrondroni","city":"M'lédjélé","state":"موهيلي Mohéli","ISO3166-2-lvl4":"KM-M","country":"Comores Komori جزر القمر","country_code":"km"},"osm_type":"node","osm_id":2317482098,"type":"town","location":[43.678156,-12.3476463],"bbox":[43.638156,-12.3876463,43.718156,-12.3076463]}
{"name":"جويزي Djoiezi","other_names":{"name:ar":"جويزي","name:de":"Djoiezi","name:en":"Djoiezi","name:es":"Djoiezi","name:fr":"Djoiezi"},"display_name":"جويزي Djoiezi, Moili Mdjini, موهيلي Mohéli, Comores Komori جزر القمر","address":{"town":"جويزي Djoiezi","city":"Moili Mdjini","state":"موهيلي Mohéli","ISO3166-2-lvl4":"KM-M","country":"Comores Komori جزر القمر","country_code":"km"},"osm_type":"node","osm_id":2317482076,"type":"town","location":[43.7719476,-12.3025278],"bbox":[43.7319476,-12.3425278,43.8119476,-12.2625278]}
{"name":"والله Ouallah","other_names":{"name:ar":"والله","name:de":"Ouallah","name:en":"Ouallah","name:es":"Ouallah","name:fr":"Ouallah","alt_name:ar":"أوالا"},"display_name":"والله Ouallah, Moimbao, موهيلي Mohéli, Comores Komori جزر القمر","address":{"town":"والله Ouallah","city":"Moimbao","state":"موهيلي Mohéli","ISO3166-2-lvl4":"KM-M","country":"Comores Komori جزر القمر","country_code":"km"},"osm_type":"node","osm_id":2317482095,"type":"town","location":[43.6625136,-12.327085],"bbox":[43.6225136,-12.367085,43.7025136,-12.287085]}
{"name":"نيومشوا Nioumachoua","other_names":{"name:ar":"نيومشوا","name:de":"Nioumachoua","name:en":"Nioumachoua","name:es":"Nioumachoua","name:fr":"Nioumachoua"},"display_name":"نيومشوا Nioumachoua, M'lédjélé, موهيلي Mohéli, Comores Komori جزر القمر","address":{"town":"نيومشوا Nioumachoua","city":"M'lédjélé","state":"موهيلي Mohéli","ISO3166-2-lvl4":"KM-M","country":"Comores Komori جزر القمر","country_code":"km"},"osm_type":"node","osm_id":2317482092,"type":"town","location":[43.7178957,-12.364451],"bbox":[43.6778957,-12.404451,43.7578957,-12.324451]}
{"name":"دوموني Domoni","other_names":{"name:ar":"دوموني","name:de":"Domoni","name:en":"Domoni","name:es":"Domoni","name:fr":"Domoni"},"display_name":"دوموني Domoni, Moimbassa, موهيلي Mohéli, Comores Komori جزر القمر","address":{"town":"دوموني Domoni","city":"Moimbassa","state":"موهيلي Mohéli","ISO3166-2-lvl4":"KM-M","country":"Comores Komori جزر القمر","country_code":"km"},"osm_type":"node","osm_id":2317482080,"type":"town","location":[43.6431446,-12.2580229],"bbox":[43.6031446,-12.2980229,43.6831446,-12.2180229]}
{"name":"Hoani","other_names":{"name:ar":"هواني","name:de":"Hoani","name:es":"Hoani","name:fr":"Hoani"},"display_name":"Hoani, Moimbassa, موهيلي Mohéli, Comores Komori جزر القمر","address":{"town":"Hoani","city":"Moimbassa","state":"موهيلي Mohéli","ISO3166-2-lvl4":"KM-M","country":"Comores Komori جزر القمر","country_code":"km"},"osm_type":"node","osm_id":2317482086,"type":"town","location":[43.675036,-12.2583648],"bbox":[43.635036,-12.2983648,43.715036,-12.2183648]}
{"name":"سيما Sima","other_names":{"name:ar":"سيما","name:de":"Sima","name:en":"Sima","name:es":"Sima","name:fr":"Sima","name:hy":"Սիմա"},"display_name":"سيما Sima, Nzwani أنجوان, Comores Komori جزر القمر","address":{"town":"سيما Sima","state":"Nzwani أنجوان","ISO3166-2-lvl4":"KM-A","country":"Comores Komori جزر القمر","country_code":"km"},"osm_type":"node","osm_id":2317281174,"type":"town","location":[44.2732653,-12.1981154],"bbox":[44.2332653,-12.2381154,44.3132653,-12.1581154]}
{"name":"Tsembéhou","other_names":{"name:fr":"Tsembéhou"},"display_name":"Tsembéhou, Nzwani أنجوان, Comores Komori جزر القمر","address":{"town":"Tsembéhou","state":"Nzwani أنجوان","ISO3166-2-lvl4":"KM-A","country":"Comores Komori جزر القمر","country_code":"km"},"osm_type":"node","osm_id":7228442367,"type":"town","location":[44.467106,-12.2080089],"bbox":[44.427106,-12.2480089,44.507106,-12.1680089]}
{"name":"Chandra شاندرا","other_names":{"name:ar":"شاندرا","name:en":"Chandra","name:fr":"Chandra","name:hr":"Chandra","name:pl":"Chandra","name:ro":"Chandra","name:sv":"Chandra","name:sw":"Chandra"},"display_name":"Chandra شاندرا, Nzwani أنجوان, Comores Komori جزر القمر","address":{"town":"Chandra شاندرا","state":"Nzwani أنجوان","ISO3166-2-lvl4":"KM-A","country":"Comores Komori جزر القمر","country_code":"km"},"osm_type":"node","osm_id":2318289090,"type":"town","location":[44.4641536,-12.1998655],"bbox":[44.4241536,-12.2398655,44.5041536,-12.1598655]}
{"name":"Bazimini بازيميني","other_names":{"name:ar":"بازيميني","name:de":"Bazimini","name:en":"Bazimini","name:es":"Bazimini","name:fr":"Bazimini"},"display_name":"Bazimini بازيميني, Nzwani أنجوان, Comores Komori جزر القمر","address":{"town":"Bazimini بازيميني","state":"Nzwani أنجوان","ISO3166-2-lvl4":"KM-A","country":"Comores Komori جزر القمر","country_code":"km"},"osm_type":"node","osm_id":1229049872,"type":"town","location":[44.4493718,-12.1804726],"bbox":[44.4093718,-12.2204726,44.4893718,-12.1404726]}
{"name":"Hajoho هاجهو","other_names":{"name:ar":"هاجهو","name:de":"Hajoho","name:en":"Hajoho","name:fa":"هاجوهو","name:fr":"Hajoho","name:sv":"Hajoho"},"display_name":"Hajoho هاجهو, Nzwani أنجوان, Comores Komori جزر القمر","address":{"town":"Hajoho هاجهو","state":"Nzwani أنجوان","ISO3166-2-lvl4":"KM-A","country":"Comores Komori جزر القمر","country_code":"km"},"osm_type":"node","osm_id":1229049545,"type":"town","location":[44.4887603,-12.1243932],"bbox":[44.4487603,-12.1643932,44.5287603,-12.0843932]}
{"name":"Miringoni ميرينكوني","other_names":{"name:ar":"ميرينكوني","name:de":"Miringoni","name:en":"Miringoni","name:es":"Miringoni","name:fr":"Miringoni"},"display_name":"Miringoni ميرينكوني, Moimbao, موهيلي Mohéli, Comores Komori جزر القمر","address":{"town":"Miringoni ميرينكوني","city":"Moimbao","state":"موهيلي Mohéli","ISO3166-2-lvl4":"KM-M","country":"Comores Komori جزر القمر","country_code":"km"},"osm_type":"node","osm_id":2317482090,"type":"town","location":[43.6366052,-12.3022872],"bbox":[43.5966052,-12.3422872,43.6766052,-12.2622872]}
{"name":"Ouani أواني","other_names":{"name:ar":"أواني","name:en":"Ouani","name:fr":"Ouani"},"display_name":"Ouani أواني, Nzwani أنجوان, Comores Komori جزر القمر","address":{"town":"Ouani أواني","state":"Nzwani أنجوان","ISO3166-2-lvl4":"KM-A","country":"Comores Komori جزر القمر","country_code":"km"},"osm_type":"node","osm_id":1229049286,"type":"town","location":[44.4272275,-12.1339888],"bbox":[44.3872275,-12.1739888,44.4672275,-12.0939888]}
{"name":"Adda-Douéni","other_names":{"name:de":"Adda-Douéni","name:en":"Adda-Douéni","name:fa":"ادا-دوئنی","name:fr":"Adda-Douéni","name:hr":"Adda Daouéni","name:hy":"Ադդա-Դուենի","name:id":"Adda-Daouéni","name:ro":"Adda Daouéni"},"display_name":"Adda-Douéni, Nzwani أنجوان, Comores Komori جزر القمر","address":{"town":"Adda-Douéni","state":"Nzwani أنجوان","ISO3166-2-lvl4":"KM-A","country":"Comores Komori جزر القمر","country_code":"km"},"osm_type":"node","osm_id":8518493559,"type":"town","location":[44.4935533,-12.2974902],"bbox":[44.4535533,-12.3374902,44.5335533,-12.2574902]}
{"name":"دوموني Domoni","other_names":{"name:ar":"دوموني","name:de":"Domoni","name:en":"Domoni","name:es":"Domoni","name:fr":"Domoni"},"display_name":"دوموني Domoni, Nzwani أنجوان, Comores Komori جزر القمر","address":{"town":"دوموني Domoni","state":"Nzwani أنجوان","ISO3166-2-lvl4":"KM-A","country":"Comores Komori جزر القمر","country_code":"km"},"osm_type":"node","osm_id":1229050458,"type":"town","location":[44.528851,-12.2586544],"bbox":[44.488851,-12.2986544,44.568851,-12.2186544]}
{"name":"Bambao بامبو","other_names":{"name:ar":"بامبو","name:en":"Bambao","name:fr":"Bambao"},"display_name":"Bambao بامبو, Nzwani أنجوان, Comores Komori جزر القمر","address":{"town":"Bambao بامبو","state":"Nzwani أنجوان","ISO3166-2-lvl4":"KM-A","country":"Comores Komori جزر القمر","country_code":"km"},"osm_type":"node","osm_id":1229050356,"type":"town","location":[44.5166595,-12.2022861],"bbox":[44.4766595,-12.2422861,44.5566595,-12.1622861]}
{"name":"Harembo هارمبو","other_names":{"name:ar":"هارمبو","name:de":"Harembo","name:en":"Harembo","name:fr":"Harembo","name:sv":"Harembo"},"display_name":"Harembo هارمبو, Nzwani أنجوان, Comores Komori جزر القمر","address":{"town":"Harembo هارمبو","state":"Nzwani أنجوان","ISO3166-2-lvl4":"KM-A","country":"Comores Komori جزر القمر","country_code":"km"},"osm_type":"node","osm_id":1229050437,"type":"town","location":[44.4977311,-12.1509075],"bbox":[44.4577311,-12.1909075,44.5377311,-12.1109075]}
{"name":"Jimilimé جيميليم","other_names":{"name:ar":"جيميليم","name:de":"Jimilimé","name:en":"Jimilimé","name:fr":"Jimilimé","name:hy":"Ջիմիլիմե","name:id":"Jimilimé","alt_name:fr":"Jamilimé"},"display_name":"Jimilimé جيميليم, Nzwani أنجوان, Comores Komori جزر القمر","address":{"town":"Jimilimé جيميليم","state":"Nzwani أنجوان","ISO3166-2-lvl4":"KM-A","country":"Comores Komori جزر القمر","country_code":"km"},"osm_type":"node","osm_id":1229049495,"type":"town","location":[44.4630155,-12.0973976],"bbox":[44.4230155,-12.1373976,44.5030155,-12.0573976]}
{"name":"Pomoni بوموني","other_names":{"name:ar":"بوموني","name:en":"Pomoni","name:fr":"Pomoni","name:hy":"Պոմոնի","name:id":"Pomni"},"display_name":"Pomoni بوموني, Nzwani أنجوان, Comores Komori جزر القمر","address":{"town":"Pomoni بوموني","state":"Nzwani أنجوان","ISO3166-2-lvl4":"KM-A","country":"Comores Komori جزر القمر","country_code":"km"},"osm_type":"node","osm_id":2995360506,"type":"town","location":[44.4101223,-12.2836247],"bbox":[44.3701223,-12.3236247,44.4501223,-12.2436247]}
{"name":"Akibani أكيباني","other_names":{"name:ar":"أكيباني","name:de":"Akibani","name:en":"Akibani","name:fa":"اکیبانی","name:fr":"Akibani"},"display_name":"Akibani أكيباني, Nzwani أنجوان, Comores Komori جزر القمر","address":{"town":"Akibani أكيباني","state":"Nzwani أنجوان","ISO3166-2-lvl4":"KM-A","country":"Comores Komori جزر القمر","country_code":"km"},"osm_type":"node","osm_id":2317281173,"type":"town","location":[44.3474195,-12.1961321],"bbox":[44.3074195,-12.2361321,44.3874195,-12.1561321]}
{"name":"Chouani","display_name":"Chouani, Ngazidja القمر الكبرى, Comores Komori جزر القمر","address":{"village":"Chouani","state":"Ngazidja القمر الكبرى","ISO3166-2-lvl4":"KM-G","country":"Comores Komori جزر القمر","country_code":"km"},"osm_type":"way","osm_id":87760165,"type":"village","location":[43.29421465436718,-11.823616300000001],"bbox":[43.292162,-11.825454,43.2962389,-11.8218836]}
{"name":"Iconi","other_names":{"name:fr":"Iconi"},"display_name":"Iconi, Ngazidja القمر الكبرى, Comores Komori جزر القمر","address":{"village":"Iconi","state":"Ngazidja القمر الكبرى","ISO3166-2-lvl4":"KM-G","country":"Comores Komori جزر القمر","country_code":"km"},"osm_type":"way","osm_id":402882902,"type":"village","location":[43.2321538,-11.7462387],"bbox":[43.2311958,-11.750722,43.245845,-11.7376872]}
{"name":"Ifoundihé Chambouani","display_name":"Ifoundihé Chambouani, Ngazidja القمر الكبرى, Comores Komori جزر القمر","address":{"village":"Ifoundihé Chambouani","state":"Ngazidja القمر الكبرى","ISO3166-2-lvl4":"KM-G","country":"Comores Komori جزر القمر","country_code":"km"},"osm_type":"way","osm_id":443799046,"type":"village","location":[43.41981174163276,-11.901973550000001],"bbox":[43.4180662,-11.9045197,43.4230069,-11.8997779]}
{"name":"Djoumouachongo","display_name":"Djoumouachongo, Ngazidja القمر الكبرى, Comores Komori جزر القمر","address":{"village":"Djoumouachongo","state":"Ngazidja القمر الكبرى","ISO3166-2-lvl4":"KM-G","country":"Comores Komori جزر القمر","country_code":"km"},"osm_type":"way","osm_id":87760082,"type":"village","location":[43.290278533424164,-11.8110624],"bbox":[43.2881923,-11.8136615,43.2980414,-11.8085052]}
{"name":"دوموني Domoni","other_names":{"name:ar":"دوموني","name:en":"Domoni","name:fr":"Domoni"},"display_name":"دوموني Domoni, Ngazidja القمر الكبرى, Comores Komori جزر القمر","address":{"village":"دوموني Domoni","state":"Ngazidja القمر الكبرى","ISO3166-2-lvl4":"KM-G","country":"Comores Komori جزر القمر","country_code":"km"},"population":0,"osm_type":"way","osm_id":443799045,"type":"village","location":[43.42047677691293,-11.8793971],"bbox":[43.414101,-11.8827432,43.4242478,-11.876198]}
{"name":"Lingoni لينكني","other_names":{"name:ar":"لينكني","name:de":"Lingoni","name:en":"Lingoni","name:fa":"لینگونی","name:fr":"Lingoni","name:ro":"Lingoni","name:sv":"Lingoni","name:azb":"لینقونی"},"display_name":"Lingoni لينكني, Nzwani أنجوان, Comores Komori جزر القمر","address":{"village":"Lingoni لينكني","state":"Nzwani أنجوان","ISO3166-2-lvl4":"KM-A","country":"Comores Komori جزر القمر","country_code":"km"},"osm_type":"way","osm_id":494448937,"type":"village","location":[44.41591809603524,-12.2606732],"bbox":[44.4133597,-12.2630617,44.4186768,-12.2581604]}
{"display_name":"Ngazidja القمر الكبرى, Comores Komori جزر القمر","address":{"state":"Ngazidja القمر الكبرى","ISO3166-2-lvl4":"KM-G","country":"Comores Komori جزر القمر","country_code":"km"},"osm_type":"way","osm_id":402863734,"type":"village","location":[43.435095411596954,-11.8000856],"bbox":[43.4335535,-11.8082728,43.4375643,-11.7914761]}
{"display_name":"Ngazidja القمر الكبرى, Comores Komori جزر القمر","address":{"state":"Ngazidja القمر الكبرى","ISO3166-2-lvl4":"KM-G","country":"Comores Komori جزر القمر","country_code":"km"},"osm_type":"way","osm_id":402863736,"type":"village","location":[43.454859873176176,-11.7884867],"bbox":[43.4502984,-11.7916368,43.4559193,-11.7853452]}
{"display_name":"Ngazidja القمر الكبرى, Comores Komori جزر القمر","address":{"state":"Ngazidja القمر الكبرى","ISO3166-2-lvl4":"KM-G","country":"Comores Komori جزر القمر","country_code":"km"},"osm_type":"way","osm_id":87760167,"type":"village","location":[43.27017384157544,-11.70011405],"bbox":[43.2662255,-11.7040222,43.2769114,-11.6977607]}
{"display_name":"Ngazidja القمر الكبرى, Comores Komori جزر القمر","address":{"state":"Ngazidja القمر الكبرى","ISO3166-2-lvl4":"KM-G","country":"Comores Komori جزر القمر","country_code":"km"},"osm_type":"way","osm_id":412380096,"type":"village","location":[43.44792205159612,-11.856352399999999],"bbox":[43.4422883,-11.8595995,43.4497744,-11.853055]}
{"name":"Dindri","display_name":"Dindri, Nzwani أنجوان, Comores Komori جزر القمر","address":{"village":"Dindri","state":"Nzwani أنجوان","ISO3166-2-lvl4":"KM-A","country":"Comores Komori جزر القمر","country_code":"km"},"osm_type":"way","osm_id":222887260,"type":"village","location":[44.45316884277019,-12.2148725],"bbox":[44.4459122,-12.2188847,44.4579138,-12.2108751]}
{"name":"Mjamaoue","display_name":"Mjamaoue, Nzwani أنجوان, Comores Komori جزر القمر","address":{"village":"Mjamaoue","state":"Nzwani أنجوان","ISO3166-2-lvl4":"KM-A","country":"Comores Komori جزر القمر","country_code":"km"},"osm_type":"way","osm_id":553014786,"type":"village","location":[44.312291997837825,-12.1969082],"bbox":[44.3074701,-12.1990553,44.3153048,-12.1949734]}
{"name":"Nioumadzaha","display_name":"Nioumadzaha, Ngazidja القمر الكبرى, Comores Komori جزر القمر","address":{"village":"Nioumadzaha","state":"Ngazidja القمر الكبرى","ISO3166-2-lvl4":"KM-G","country":"Comores Komori جزر القمر","country_code":"km"},"osm_type":"node","osm_id":4198511651,"type":"village","location":[43.2743263,-11.793823],"bbox":[43.2543263,-11.813823,43.2943263,-11.773823]}
{"name":"Iconi","display_name":"Iconi, Ngazidja القمر الكبرى, Comores Komori جزر القمر","address":{"village":"Iconi","state":"Ngazidja القمر الكبرى","ISO3166-2-lvl4":"KM-G","country":"Comores Komori جزر القمر","country_code":"km"},"osm_type":"node","osm_id":4198486478,"type":"village","location":[43.2321538,-11.7462387],"bbox":[43.2121538,-11.7662387,43.2521538,-11.7262387]}
{"name":"Selea","display_name":"Selea, Ngazidja القمر الكبرى, Comores Komori جزر القمر","address":{"village":"Selea","state":"Ngazidja القمر الكبرى","ISO3166-2-lvl4":"KM-G","country":"Comores Komori جزر القمر","country_code":"km"},"osm_type":"node","osm_id":4198511650,"type":"village","location":[43.2708659,-11.7855211],"bbox":[43.2508659,-11.8055211,43.2908659,-11.7655211]}
{"name":"Panda","other_names":{"name:fr":"Panda"},"display_name":"Panda, Ngazidja القمر الكبرى, Comores Komori جزر القمر","address":{"village":"Panda","state":"Ngazidja القمر الكبرى","ISO3166-2-lvl4":"KM-G","country":"Comores Komori جزر القمر","country_code":"km"},"osm_type":"node","osm_id":4269799600,"type":"village","location":[43.3932323,-11.8746048],"bbox":[43.3732323,-11.8946048,43.4132323,-11.8546048]}
{"name":"Mouandzaza Djoumbe","display_name":"Mouandzaza Djoumbe, Ngazidja القمر الكبرى, Comores Komori جزر القمر","address":{"village":"Mouandzaza Djoumbe","state":"Ngazidja القمر الكبرى","ISO3166-2-lvl4":"KM-G","country":"Comores Komori جزر القمر","country_code":"km"},"osm_type":"node","osm_id":4198508189,"type":"village","location":[43.2649358,-11.7777033],"bbox":[43.2449358,-11.7977033,43.2849358,-11.7577033]}
{"display_name":"Ngazidja القمر الكبرى, Comores Komori جزر القمر","address":{"state":"Ngazidja القمر الكبرى","ISO3166-2-lvl4":"KM-G","country":"Comores Komori جزر القمر","country_code":"km"},"osm_type":"node","osm_id":4269799641,"type":"village","location":[43.4048261,-11.8869569],"bbox":[43.3848261,-11.9069569,43.4248261,-11.8669569]}
{"name":"Dzahadjou","display_name":"Dzahadjou, Ngazidja القمر الكبرى, Comores Komori جزر القمر","address":{"village":"Dzahadjou","state":"Ngazidja القمر الكبرى","ISO3166-2-lvl4":"KM-G","country":"Comores Komori جزر القمر","country_code":"km"},"osm_type":"node","osm_id":4269799556,"type":"village","location":[43.3495099,-11.8528894],"bbox":[43.3295099,-11.8728894,43.3695099,-11.8328894]}
{"name":"Dembeni دمبيني","other_names":{"name:ar":"دمبيني","name:en":"Dembeni","name:fr":"Dembeni"},"display_name":"Dembeni دمبيني, Ngazidja القمر الكبرى, Comores Komori جزر القمر","address":{"village":"Dembeni دمبيني","state":"Ngazidja القمر الكبرى","ISO3166-2-lvl4":"KM-G","country":"Comores Komori جزر القمر","country_code":"km"},"osm_type":"node","osm_id":4269799606,"type":"village","location":[43.4027092,-11.8762117],"bbox":[43.3827092,-11.8962117,43.4227092,-11.8562117]}
{"display_name":"Ngazidja القمر الكبرى, Comores Komori جزر القمر","address":{"state":"Ngazidja القمر الكبرى","ISO3166-2-lvl4":"KM-G","country":"Comores Komori جزر القمر","country_code":"km"},"osm_type":"node","osm_id":4269799566,"type":"village","location":[43.3774739,-11.8589411],"bbox":[43.3574739,-11.8789411,43.3974739,-11.8389411]}
{"name":"Bangoi Hambou","display_name":"Bangoi Hambou, Ngazidja القمر الكبرى, Comores Komori جزر القمر","address":{"village":"Bangoi Hambou","state":"Ngazidja القمر الكبرى","ISO3166-2-lvl4":"KM-G","country":"Comores Komori جزر القمر","country_code":"km"},"population":600,"osm_type":"node","osm_id":4337126136,"type":"village","location":[43.288311,-11.8438376],"bbox":[43.268311,-11.8638376,43.308311,-11.8238376]}
{"display_name":"Ngazidja القمر الكبرى, Comores Komori جزر القمر","address":{"state":"Ngazidja القمر الكبرى","ISO3166-2-lvl4":"KM-G","country":"Comores Komori جزر القمر","country_code":"km"},"osm_type":"node","osm_id":3317523490,"type":"village","location":[43.3770624,-11.8499805],"bbox":[43.3570624,-11.8699805,43.3970624,-11.8299805]}
{"name":"M'djoiezi hambou","display_name":"M'djoiezi hambou, Ngazidja القمر الكبرى, Comores Komori جزر القمر","address":{"village":"M'djoiezi hambou","state":"Ngazidja القمر الكبرى","ISO3166-2-lvl4":"KM-G","country":"Comores Komori جزر القمر","country_code":"km"},"osm_type":"node","osm_id":4269799557,"type":"village","location":[43.3131564,-11.8362673],"bbox":[43.2931564,-11.8562673,43.3331564,-11.8162673]}
{"name":"Dzahadjou","display_name":"Dzahadjou, Ngazidja القمر الكبرى, Comores Komori جزر القمر","address":{"village":"Dzahadjou","state":"Ngazidja القمر الكبرى","ISO3166-2-lvl4":"KM-G","country":"Comores Komori جزر القمر","country_code":"km"},"osm_type":"node","osm_id":3317523597,"type":"village","location":[43.4540567,-11.911239],"bbox":[43.4340567,-11.931239,43.4740567,-11.891239]}
{"name":"Mitsoudje","display_name":"Mitsoudje, Ngazidja القمر الكبرى, Comores Komori جزر القمر","address":{"village":"Mitsoudje","state":"Ngazidja القمر الكبرى","ISO3166-2-lvl4":"KM-G","country":"Comores Komori جزر القمر","country_code":"km"},"osm_type":"node","osm_id":4198520619,"type":"village","location":[43.2810122,-11.8129215],"bbox":[43.2610122,-11.8329215,43.3010122,-11.7929215]}
{"name":"Ouziouani","display_name":"Ouziouani, Ngazidja القمر الكبرى, Comores Komori جزر القمر","address":{"village":"Ouziouani","state":"Ngazidja القمر الكبرى","ISO3166-2-lvl4":"KM-G","country":"Comores Komori جزر القمر","country_code":"km"},"osm_type":"node","osm_id":4269799425,"type":"village","location":[43.4242587,-11.8923212],"bbox":[43.4042587,-11.9123212,43.4442587,-11.8723212]}
{"name":"Sima Ambouani","display_name":"Sima Ambouani, Ngazidja القمر الكبرى, Comores Komori جزر القمر","address":{"village":"Sima Ambouani","state":"Ngazidja القمر الكبرى","ISO3166-2-lvl4":"KM-G","country":"Comores Komori جزر القمر","country_code":"km"},"osm_type":"node","osm_id":4269799457,"type":"village","location":[43.4701705,-11.9190778],"bbox":[43.4501705,-11.9390778,43.4901705,-11.8990778]}
{"display_name":"Ngazidja القمر الكبرى, Comores Komori جزر القمر","address":{"state":"Ngazidja القمر الكبرى","ISO3166-2-lvl4":"KM-G","country":"Comores Komori جزر القمر","country_code":"km"},"osm_type":"node","osm_id":4269799412,"type":"village","location":[43.4536995,-11.8900801],"bbox":[43.4336995,-11.9100801,43.4736995,-11.8700801]}
{"name":"Dzouadjou","display_name":"Dzouadjou, Ngazidja القمر الكبرى, Comores Komori جزر القمر","address":{"village":"Dzouadjou","state":"Ngazidja القمر الكبرى","ISO3166-2-lvl4":"KM-G","country":"Comores Komori جزر القمر","country_code":"km"},"osm_type":"node","osm_id":4269799615,"type":"village","location":[43.4321459,-11.8808683],"bbox":[43.4121459,-11.9008683,43.4521459,-11.8608683]}
{"name":"Chindini","other_names":{"name:fa":"چیندینی","name:fr":"Chindini"},"display_name":"Chindini, Ngazidja القمر الكبرى, Comores Komori جزر القمر","address":{"village":"Chindini","state":"Ngazidja القمر الكبرى","ISO3166-2-lvl4":"KM-G","country":"Comores Komori جزر القمر","country_code":"km"},"osm_type":"node","osm_id":3317523640,"type":"village","location":[43.490771,-11.9247875],"bbox":[43.470771,-11.9447875,43.510771,-11.9047875]}
{"display_name":"Ngazidja القمر الكبرى, Comores Komori جزر القمر","address":{"state":"Ngazidja القمر الكبرى","ISO3166-2-lvl4":"KM-G","country":"Comores Komori جزر القمر","country_code":"km"},"osm_type":"node","osm_id":4269799439,"type":"village","location":[43.4705912,-11.8964094],"bbox":[43.4505912,-11.9164094,43.4905912,-11.8764094]}
{"display_name":"Ngazidja القمر الكبرى, Comores Komori جزر القمر","address":{"state":"Ngazidja القمر الكبرى","ISO3166-2-lvl4":"KM-G","country":"Comores Komori جزر القمر","country_code":"km"},"osm_type":"node","osm_id":3317523598,"type":"village","location":[43.4979651,-11.9135062],"bbox":[43.4779651,-11.9335062,43.5179651,-11.8935062]}
{"display_name":"Ngazidja القمر الكبرى, Comores Komori جزر القمر","address":{"state":"Ngazidja القمر الكبرى","ISO3166-2-lvl4":"KM-G","country":"Comores Komori جزر القمر","country_code":"km"},"osm_type":"node","osm_id":4269799629,"type":"village","location":[43.4620521,-11.8833369],"bbox":[43.4420521,-11.9033369,43.4820521,-11.8633369]}
{"display_name":"Ngazidja القمر الكبرى, Comores Komori جزر القمر","address":{"state":"Ngazidja القمر الكبرى","ISO3166-2-lvl4":"KM-G","country":"Comores Komori جزر القمر","country_code":"km"},"osm_type":"node","osm_id":4269799419,"type":"village","location":[43.4755418,-11.8910295],"bbox":[43.4555418,-11.9110295,43.4955418,-11.8710295]}
{"name":"Malé مالي","other_names":{"name:ar":"مالي","name:en":"Malé","name:fr":"Malé"},"display_name":"Malé مالي, Ngazidja القمر الكبرى, Comores Komori جزر القمر","address":{"village":"Malé مالي","state":"Ngazidja القمر الكبرى","ISO3166-2-lvl4":"KM-G","country":"Comores Komori جزر القمر","country_code":"km"},"osm_type":"node","osm_id":3317523586,"type":"village","location":[43.5062231,-11.8865711],"bbox":[43.4862231,-11.9065711,43.5262231,-11.8665711]}
{"display_name":"Ngazidja القمر الكبرى, Comores Komori جزر القمر","address":{"state":"Ngazidja القمر الكبرى","ISO3166-2-lvl4":"KM-G","country":"Comores Komori جزر القمر","country_code":"km"},"osm_type":"node","osm_id":3317523571,"type":"village","location":[43.4807388,-11.8800784],"bbox":[43.4607388,-11.9000784,43.5007388,-11.8600784]}
{"display_name":"Ngazidja القمر الكبرى, Comores Komori جزر القمر","address":{"state":"Ngazidja القمر الكبرى","ISO3166-2-lvl4":"KM-G","country":"Comores Komori جزر القمر","country_code":"km"},"osm_type":"node","osm_id":4269799590,"type":"village","location":[43.468004,-11.8697282],"bbox":[43.448004,-11.8897282,43.488004,-11.8497282]}
{"name":"Nioumamilima","display_name":"Nioumamilima, Ngazidja القمر الكبرى, Comores Komori جزر القمر","address":{"village":"Nioumamilima","state":"Ngazidja القمر الكبرى","ISO3166-2-lvl4":"KM-G","country":"Comores Komori جزر القمر","country_code":"km"},"osm_type":"node","osm_id":4138257501,"type":"village","location":[43.4464571,-11.8549783],"bbox":[43.4264571,-11.8749783,43.4664571,-11.8349783]}
{"name":"Dar-Salama دار السلام","other_names":{"name:ar":"دار السلام","name:en":"Dar-Salama","name:fr":"Dar-Salama"},"display_name":"Dar-Salama دار السلام, Ngazidja القمر الكبرى, Comores Komori جزر القمر","address":{"village":"Dar-Salama دار السلام","state":"Ngazidja القمر الكبرى","ISO3166-2-lvl4":"KM-G","country":"Comores Komori جزر القمر","country_code":"km"},"osm_type":"node","osm_id":4269799596,"type":"village","location":[43.4748452,-11.8734286],"bbox":[43.4548452,-11.8934286,43.4948452,-11.8534286]}
{"name":"Zilimadjou","display_name":"Zilimadjou, Ngazidja القمر الكبرى, Comores Komori جزر القمر","address":{"village":"Zilimadjou","state":"Ngazidja القمر الكبرى","ISO3166-2-lvl4":"KM-G","country":"Comores Komori جزر القمر","country_code":"km"},"osm_type":"node","osm_id":4294637745,"type":"village","location":[43.2514089,-11.7145432],"bbox":[43.2314089,-11.7345432,43.2714089,-11.6945432]}
{"name":"Mavingouni مافينقوني","other_names":{"name:ar":"مافينقوني","name:en":"Mavingouni","name:fr":"Mavingouni"},"display_name":"Mavingouni مافينقوني, Ngazidja القمر الكبرى, Comores Komori جزر القمر","address":{"village":"Mavingouni مافينقوني","state":"Ngazidja القمر الكبرى","ISO3166-2-lvl4":"KM-G","country":"Comores Komori جزر القمر","country_code":"km"},"osm_type":"node","osm_id":4198478362,"type":"village","location":[43.2621745,-11.7184486],"bbox":[43.2421745,-11.7384486,43.2821745,-11.6984486]}
{"name":"Mohoro","display_name":"Mohoro, Ngazidja القمر الكبرى, Comores Komori جزر القمر","address":{"village":"Mohoro","state":"Ngazidja القمر الكبرى","ISO3166-2-lvl4":"KM-G","country":"Comores Komori جزر القمر","country_code":"km"},"osm_type":"node","osm_id":4052835215,"type":"village","location":[43.4548201,-11.8278645],"bbox":[43.4348201,-11.8478645,43.4748201,-11.8078645]}
{"name":"Tsinimoipanga","display_name":"Tsinimoipanga, Ngazidja القمر الكبرى, Comores Komori جزر القمر","address":{"village":"Tsinimoipanga","state":"Ngazidja القمر الكبرى","ISO3166-2-lvl4":"KM-G","country":"Comores Komori جزر القمر","country_code":"km"},"population":1000,"osm_type":"node","osm_id":4052711226,"type":"village","location":[43.4349054,-11.7959112],"bbox":[43.4149054,-11.8159112,43.4549054,-11.7759112]}
{"name":"Bandamaji Domba","display_name":"Bandamaji Domba, Ngazidja القمر الكبرى, Comores Komori جزر القمر","address":{"village":"Bandamaji Domba","state":"Ngazidja القمر الكبرى","ISO3166-2-lvl4":"KM-G","country":"Comores Komori جزر القمر","country_code":"km"},"osm_type":"node","osm_id":4052711277,"type":"village","location":[43.4542626,-11.7877563],"bbox":[43.4342626,-11.8077563,43.4742626,-11.7677563]}
{"name":"Mouandzaza Ambouani","display_name":"Mouandzaza Ambouani, Ngazidja القمر الكبرى, Comores Komori جزر القمر","address":{"village":"Mouandzaza Ambouani","state":"Ngazidja القمر الكبرى","ISO3166-2-lvl4":"KM-G","country":"Comores Komori جزر القمر","country_code":"km"},"osm_type":"node","osm_id":4198506188,"type":"village","location":[43.2462882,-11.7747038],"bbox":[43.2262882,-11.7947038,43.2662882,-11.7547038]}
{"name":"Ndroini","display_name":"Ndroini, Ngazidja القمر الكبرى, Comores Komori جزر القمر","address":{"village":"Ndroini","state":"Ngazidja القمر الكبرى","ISO3166-2-lvl4":"KM-G","country":"Comores Komori جزر القمر","country_code":"km"},"osm_type":"node","osm_id":4198496483,"type":"village","location":[43.2523717,-11.7671406],"bbox":[43.2323717,-11.7871406,43.2723717,-11.7471406]}
{"name":"Serehini","display_name":"Serehini, Ngazidja القمر الكبرى, Comores Komori جزر القمر","address":{"village":"Serehini","state":"Ngazidja القمر الكبرى","ISO3166-2-lvl4":"KM-G","country":"Comores Komori جزر القمر","country_code":"km"},"osm_type":"node","osm_id":4198498926,"type":"village","location":[43.2436335,-11.7589678],"bbox":[43.2236335,-11.7789678,43.2636335,-11.7389678]}
{"name":"Daoueni","display_name":"Daoueni, Ngazidja القمر الكبرى, Comores Komori جزر القمر","address":{"village":"Daoueni","state":"Ngazidja القمر الكبرى","ISO3166-2-lvl4":"KM-G","country":"Comores Komori جزر القمر","country_code":"km"},"osm_type":"node","osm_id":4198511649,"type":"village","location":[43.2719588,-11.769172],"bbox":[43.2519588,-11.789172,43.2919588,-11.749172]}
{"name":"Mvouni","display_name":"Mvouni, Ngazidja القمر الكبرى, Comores Komori جزر القمر","address":{"village":"Mvouni","state":"Ngazidja القمر الكبرى","ISO3166-2-lvl4":"KM-G","country":"Comores Komori جزر القمر","country_code":"km"},"osm_type":"node","osm_id":1771379463,"type":"village","location":[43.274666,-11.7199316],"bbox":[43.254666,-11.7399316,43.294666,-11.6999316]}
{"name":"Tsidje","display_name":"Tsidje, Ngazidja القمر الكبرى, Comores Komori جزر القمر","address":{"village":"Tsidje","state":"Ngazidja القمر الكبرى","ISO3166-2-lvl4":"KM-G","country":"Comores Komori جزر القمر","country_code":"km"},"osm_type":"node","osm_id":4198486392,"type":"village","location":[43.2697992,-11.6993776],"bbox":[43.2497992,-11.7193776,43.2897992,-11.6793776]}
{"name":"Samba Mbodoni","display_name":"Samba Mbodoni, Ngazidja القمر الكبرى, Comores Komori جزر القمر","address":{"village":"Samba Mbodoni","state":"Ngazidja القمر الكبرى","ISO3166-2-lvl4":"KM-G","country":"Comores Komori جزر القمر","country_code":"km"},"osm_type":"node","osm_id":4082428697,"type":"village","location":[43.2777104,-11.6759846],"bbox":[43.2577104,-11.6959846,43.2977104,-11.6559846]}
{"name":"Salimani Ya Itsandra","display_name":"Salimani Ya Itsandra, Ngazidja القمر الكبرى, Comores Komori جزر القمر","address":{"village":"Salimani Ya Itsandra","state":"Ngazidja القمر الكبرى","ISO3166-2-lvl4":"KM-G","country":"Comores Komori جزر القمر","country_code":"km"},"osm_type":"node","osm_id":4197785621,"type":"village","location":[43.2748593,-11.685177],"bbox":[43.2548593,-11.705177,43.2948593,-11.665177]}
{"name":"Dzahani","display_name":"Dzahani, Ngazidja القمر الكبرى, Comores Komori جزر القمر","address":{"village":"Dzahani","state":"Ngazidja القمر الكبرى","ISO3166-2-lvl4":"KM-G","country":"Comores Komori جزر القمر","country_code":"km"},"osm_type":"node","osm_id":4198508190,"type":"village","location":[43.2772945,-11.7741939],"bbox":[43.2572945,-11.7941939,43.2972945,-11.7541939]}
{"name":"Ntsudjini","display_name":"Ntsudjini, Ngazidja القمر الكبرى, Comores Komori جزر القمر","address":{"village":"Ntsudjini","state":"Ngazidja القمر الكبرى","ISO3166-2-lvl4":"KM-G","country":"Comores Komori جزر القمر","country_code":"km"},"osm_type":"node","osm_id":1772240217,"type":"village","location":[43.2717536,-11.6633441],"bbox":[43.2517536,-11.6833441,43.2917536,-11.6433441]}
{"name":"Itsandra Mdjini","display_name":"Itsandra Mdjini, Ngazidja القمر الكبرى, 38301, Comores Komori جزر القمر","address":{"village":"Itsandra Mdjini","state":"Ngazidja القمر الكبرى","ISO3166-2-lvl4":"KM-G","postcode":"38301","country":"Comores Komori جزر القمر","country_code":"km"},"osm_type":"node","osm_id":5213765132,"type":"village","location":[43.2641798,-11.6757211],"bbox":[43.2441798,-11.6957211,43.2841798,-11.6557211]}
{"name":"Dzahani 2","display_name":"Dzahani 2, Ngazidja القمر الكبرى, Comores Komori جزر القمر","address":{"village":"Dzahani 2","state":"Ngazidja القمر الكبرى","ISO3166-2-lvl4":"KM-G","country":"Comores Komori جزر القمر","country_code":"km"},"osm_type":"node","osm_id":4198438443,"type":"village","location":[43.285342,-11.6614195],"bbox":[43.265342,-11.6814195,43.305342,-11.6414195]}
{"name":"Mdé ya Bambao","display_name":"Mdé ya Bambao, Ngazidja القمر الكبرى, Comores Komori جزر القمر","address":{"village":"Mdé ya Bambao","state":"Ngazidja القمر الكبرى","ISO3166-2-lvl4":"KM-G","country":"Comores Komori جزر القمر","country_code":"km"},"osm_type":"node","osm_id":4197761553,"type":"village","location":[43.2504262,-11.7390992],"bbox":[43.2304262,-11.7590992,43.2704262,-11.7190992]}
{"name":"Samba-Nkouni","display_name":"Samba-Nkouni, Ngazidja القمر الكبرى, Comores Komori جزر القمر","address":{"village":"Samba-Nkouni","state":"Ngazidja القمر الكبرى","ISO3166-2-lvl4":"KM-G","country":"Comores Komori جزر القمر","country_code":"km"},"osm_type":"node","osm_id":4198438444,"type":"village","location":[43.2845126,-11.6513186],"bbox":[43.2645126,-11.6713186,43.3045126,-11.6313186]}
{"name":"Koimbani كيمبني","other_names":{"name:ar":"كيمبني","name:en":"Koimbani","name:fr":"Koimbani"},"display_name":"Koimbani كيمبني, Ngazidja القمر الكبرى, Comores Komori جزر القمر","address":{"village":"Koimbani كيمبني","state":"Ngazidja القمر الكبرى","ISO3166-2-lvl4":"KM-G","country":"Comores Komori جزر القمر","country_code":"km"},"osm_type":"node","osm_id":4198569606,"type":"village","location":[43.3655926,-11.6222256],"bbox":[43.3455926,-11.6422256,43.3855926,-11.6022256]}
{"name":"Zivandani","display_name":"Zivandani, Ngazidja القمر الكبرى, Comores Komori جزر القمر","address":{"village":"Zivandani","state":"Ngazidja القمر الكبرى","ISO3166-2-lvl4":"KM-G","country":"Comores Komori جزر القمر","country_code":"km"},"osm_type":"node","osm_id":4198466134,"type":"village","location":[43.2755297,-11.648627],"bbox":[43.2555297,-11.668627,43.2955297,-11.628627]}
{"name":"Hambou Ya Oichili","display_name":"Hambou Ya Oichili, Ngazidja القمر الكبرى, Comores Komori جزر القمر","address":{"village":"Hambou Ya Oichili","state":"Ngazidja القمر الكبرى","ISO3166-2-lvl4":"KM-G","country":"Comores Komori جزر القمر","country_code":"km"},"osm_type":"node","osm_id":5933184579,"type":"village","location":[43.3700067,-11.604797],"bbox":[43.3500067,-11.624797,43.3900067,-11.584797]}
{"name":"Batsa Iasandra","display_name":"Batsa Iasandra, Ngazidja القمر الكبرى, Comores Komori جزر القمر","address":{"village":"Batsa Iasandra","state":"Ngazidja القمر الكبرى","ISO3166-2-lvl4":"KM-G","country":"Comores Komori جزر القمر","country_code":"km"},"osm_type":"node","osm_id":9129683966,"type":"village","location":[43.2667926,-11.6307287],"bbox":[43.2467926,-11.6507287,43.2867926,-11.6107287]}
{"name":"Hasendje","display_name":"Hasendje, Ngazidja القمر الكبرى, Comores Komori جزر القمر","address":{"village":"Hasendje","state":"Ngazidja القمر الكبرى","ISO3166-2-lvl4":"KM-G","country":"Comores Komori جزر القمر","country_code":"km"},"osm_type":"node","osm_id":4052811372,"type":"village","location":[43.3918662,-11.6213561],"bbox":[43.3718662,-11.6413561,43.4118662,-11.6013561]}
{"name":"Dzahani Ya Oichili","display_name":"Dzahani Ya Oichili, Ngazidja القمر الكبرى, Comores Komori جزر القمر","address":{"village":"Dzahani Ya Oichili","state":"Ngazidja القمر الكبرى","ISO3166-2-lvl4":"KM-G","country":"Comores Komori جزر القمر","country_code":"km"},"osm_type":"node","osm_id":5933184578,"type":"village","location":[43.3722602,-11.5860109],"bbox":[43.3522602,-11.6060109,43.3922602,-11.5660109]}
{"name":"Dzahadjou Itsandra","display_name":"Dzahadjou Itsandra, Ngazidja القمر الكبرى, Comores Komori جزر القمر","address":{"village":"Dzahadjou Itsandra","state":"Ngazidja القمر الكبرى","ISO3166-2-lvl4":"KM-G","country":"Comores Komori جزر القمر","country_code":"km"},"osm_type":"node","osm_id":9129688049,"type":"village","location":[43.2840254,-11.6310274],"bbox":[43.2640254,-11.6510274,43.3040254,-11.6110274]}
{"name":"Pidjani","display_name":"Pidjani, Ngazidja القمر الكبرى, Comores Komori جزر القمر","address":{"village":"Pidjani","state":"Ngazidja القمر الكبرى","ISO3166-2-lvl4":"KM-G","country":"Comores Komori جزر القمر","country_code":"km"},"osm_type":"node","osm_id":4052811389,"type":"village","location":[43.4515954,-11.7632851],"bbox":[43.4315954,-11.7832851,43.4715954,-11.7432851]}
{"name":"Vanambouani","display_name":"Vanambouani, Ngazidja القمر الكبرى, Comores Komori جزر القمر","address":{"village":"Vanambouani","state":"Ngazidja القمر الكبرى","ISO3166-2-lvl4":"KM-G","country":"Comores Komori جزر القمر","country_code":"km"},"osm_type":"node","osm_id":4198847128,"type":"village","location":[43.2627073,-11.6164244],"bbox":[43.2427073,-11.6364244,43.2827073,-11.5964244]}
{"name":"Oussivo","display_name":"Oussivo, Ngazidja القمر الكبرى, Comores Komori جزر القمر","address":{"village":"Oussivo","state":"Ngazidja القمر الكبرى","ISO3166-2-lvl4":"KM-G","country":"Comores Komori جزر القمر","country_code":"km"},"osm_type":"node","osm_id":4198847129,"type":"village","location":[43.2766194,-11.588576],"bbox":[43.2566194,-11.608576,43.2966194,-11.568576]}
{"name":"Vounimbadani","display_name":"Vounimbadani, Ngazidja القمر الكبرى, Comores Komori جزر القمر","address":{"village":"Vounimbadani","state":"Ngazidja القمر الكبرى","ISO3166-2-lvl4":"KM-G","country":"Comores Komori جزر القمر","country_code":"km"},"osm_type":"node","osm_id":9129680949,"type":"village","location":[43.2713177,-11.6154299],"bbox":[43.2513177,-11.6354299,43.2913177,-11.5954299]}
{"name":"Itsinkoudi Oichili","display_name":"Itsinkoudi Oichili, Ngazidja القمر الكبرى, Comores Komori جزر القمر","address":{"village":"Itsinkoudi Oichili","state":"Ngazidja القمر الكبرى","ISO3166-2-lvl4":"KM-G","country":"Comores Komori جزر القمر","country_code":"km"},"osm_type":"node","osm_id":4082691903,"type":"village","location":[43.3858439,-11.5864172],"bbox":[43.3658439,-11.6064172,43.4058439,-11.5664172]}
{"name":"Mhandani","display_name":"Mhandani, Ngazidja القمر الكبرى, Comores Komori جزر القمر","address":{"village":"Mhandani","state":"Ngazidja القمر الكبرى","ISO3166-2-lvl4":"KM-G","country":"Comores Komori جزر القمر","country_code":"km"},"osm_type":"node","osm_id":9129682379,"type":"village","location":[43.2772769,-11.6146544],"bbox":[43.2572769,-11.6346544,43.2972769,-11.5946544]}
{"name":"Bangahani","display_name":"Bangahani, Ngazidja القمر الكبرى, Comores Komori جزر القمر","address":{"village":"Bangahani","state":"Ngazidja القمر الكبرى","ISO3166-2-lvl4":"KM-G","country":"Comores Komori جزر القمر","country_code":"km"},"osm_type":"node","osm_id":4198847134,"type":"village","location":[43.2881193,-11.5831413],"bbox":[43.2681193,-11.6031413,43.3081193,-11.5631413]}
{"name":"Vanadjou","display_name":"Vanadjou, Ngazidja القمر الكبرى, Comores Komori جزر القمر","address":{"village":"Vanadjou","state":"Ngazidja القمر الكبرى","ISO3166-2-lvl4":"KM-G","country":"Comores Komori جزر القمر","country_code":"km"},"osm_type":"node","osm_id":4198835037,"type":"village","location":[43.2857562,-11.6117233],"bbox":[43.2657562,-11.6317233,43.3057562,-11.5917233]}
{"name":"Bibavou بيبافو","other_names":{"name:ar":"بيبافو","name:en":"Bibavou","name:fr":"Bibavou","name:sv":"Bibavou"},"display_name":"Bibavou بيبافو, Ngazidja القمر الكبرى, Comores Komori جزر القمر","address":{"village":"Bibavou بيبافو","state":"Ngazidja القمر الكبرى","ISO3166-2-lvl4":"KM-G","country":"Comores Komori جزر القمر","country_code":"km"},"osm_type":"node","osm_id":4198862102,"type":"village","location":[43.2873857,-11.5775436],"bbox":[43.2673857,-11.5975436,43.3073857,-11.5575436]}
{"name":"Kuhani","other_names":{"name:en":"Kouhani","name:fr":"Kouhani"},"display_name":"Kuhani, Ngazidja القمر الكبرى, Comores Komori جزر القمر","address":{"village":"Kuhani","state":"Ngazidja القمر الكبرى","ISO3166-2-lvl4":"KM-G","country":"Comores Komori جزر القمر","country_code":"km"},"osm_type":"node","osm_id":7737363622,"type":"village","location":[43.3965099,-11.5718163],"bbox":[43.3765099,-11.5918163,43.4165099,-11.5518163]}
{"name":"Bahani","display_name":"Bahani, Ngazidja القمر الكبرى, Comores Komori جزر القمر","address":{"village":"Bahani","state":"Ngazidja القمر الكبرى","ISO3166-2-lvl4":"KM-G","country":"Comores Komori جزر القمر","country_code":"km"},"osm_type":"node","osm_id":4198440770,"type":"village","location":[43.2945036,-11.6428324],"bbox":[43.2745036,-11.6628324,43.3145036,-11.6228324]}
{"name":"Bouenindi بونيندي","other_names":{"name:ar":"بونيندي","name:en":"Bouenindi Hamanvou","name:fr":"Bouenindi Hamanvou"},"display_name":"Bouenindi بونيندي, Ngazidja القمر الكبرى, Comores Komori جزر القمر","address":{"village":"Bouenindi بونيندي","state":"Ngazidja القمر الكبرى","ISO3166-2-lvl4":"KM-G","country":"Comores Komori جزر القمر","country_code":"km"},"osm_type":"node","osm_id":4198862101,"type":"village","location":[43.2867484,-11.5664557],"bbox":[43.2667484,-11.5864557,43.3067484,-11.5464557]}
{"name":"Samba-Madi","display_name":"Samba-Madi, Ngazidja القمر الكبرى, Comores Komori جزر القمر","address":{"village":"Samba-Madi","state":"Ngazidja القمر الكبرى","ISO3166-2-lvl4":"KM-G","country":"Comores Komori جزر القمر","country_code":"km"},"osm_type":"node","osm_id":7737394227,"type":"village","location":[43.4163905,-11.6756643],"bbox":[43.3963905,-11.6956643,43.4363905,-11.6556643]}
{"name":"Dibouani","display_name":"Dibouani, Ngazidja القمر الكبرى, Comores Komori جزر القمر","address":{"village":"Dibouani","state":"Ngazidja القمر الكبرى","ISO3166-2-lvl4":"KM-G","country":"Comores Komori جزر القمر","country_code":"km"},"osm_type":"node","osm_id":2053408343,"type":"village","location":[43.3220221,-11.5600257],"bbox":[43.3020221,-11.5800257,43.3420221,-11.5400257]}
{"name":"Chomoni شمني","other_names":{"name:ar":"شمني","name:en":"Chomoni","name:fr":"Chomoni"},"display_name":"Chomoni شمني, Ngazidja القمر الكبرى, Comores Komori جزر القمر","address":{"village":"Chomoni شمني","state":"Ngazidja القمر الكبرى","ISO3166-2-lvl4":"KM-G","country":"Comores Komori جزر القمر","country_code":"km"},"osm_type":"node","osm_id":4052811388,"type":"village","location":[43.3956701,-11.6464791],"bbox":[43.3756701,-11.6664791,43.4156701,-11.6264791]}
{"name":"Chamro","display_name":"Chamro, Ngazidja القمر الكبرى, Comores Komori جزر القمر","address":{"village":"Chamro","state":"Ngazidja القمر الكبرى","ISO3166-2-lvl4":"KM-G","country":"Comores Komori جزر القمر","country_code":"km"},"osm_type":"node","osm_id":7737394228,"type":"village","location":[43.4033657,-11.6610384],"bbox":[43.3833657,-11.6810384,43.4233657,-11.6410384]}
{"name":"Mnoungou امنونغو","other_names":{"name:ar":"امنونغو","name:en":"Mnoungou","name:fr":"Mnoungou"},"display_name":"Mnoungou امنونغو, Ngazidja القمر الكبرى, Comores Komori جزر القمر","address":{"village":"Mnoungou امنونغو","state":"Ngazidja القمر الكبرى","ISO3166-2-lvl4":"KM-G","country":"Comores Komori جزر القمر","country_code":"km"},"osm_type":"node","osm_id":4251193749,"type":"village","location":[43.3851737,-11.5234957],"bbox":[43.3651737,-11.5434957,43.4051737,-11.5034957]}
{"name":"Ifoundihé إيفونديهي","other_names":{"name:ar":"إيفونديهي","name:en":"Ifoundihé","name:fr":"Ifoundihé"},"display_name":"Ifoundihé إيفونديهي, Ngazidja القمر الكبرى, Comores Komori جزر القمر","address":{"village":"Ifoundihé إيفونديهي","state":"Ngazidja القمر الكبرى","ISO3166-2-lvl4":"KM-G","country":"Comores Komori جزر القمر","country_code":"km"},"osm_type":"node","osm_id":4251193730,"type":"village","location":[43.3871962,-11.5400807],"bbox":[43.3671962,-11.5600807,43.4071962,-11.5200807]}
{"name":"Heroumbili","display_name":"Heroumbili, Ngazidja القمر الكبرى, Comores Komori جزر القمر","address":{"village":"Heroumbili","state":"Ngazidja القمر الكبرى","ISO3166-2-lvl4":"KM-G","country":"Comores Komori جزر القمر","country_code":"km"},"osm_type":"node","osm_id":4052811355,"type":"village","location":[43.3877436,-11.5455356],"bbox":[43.3677436,-11.5655356,43.4077436,-11.5255356]}
{"name":"دوموني Domoni","other_names":{"name:ar":"دوموني","name:en":"Domoni","name:fr":"Domoni"},"display_name":"دوموني Domoni, Ngazidja القمر الكبرى, Comores Komori جزر القمر","address":{"village":"دوموني Domoni","state":"Ngazidja القمر الكبرى","ISO3166-2-lvl4":"KM-G","country":"Comores Komori جزر القمر","country_code":"km"},"osm_type":"node","osm_id":4052761122,"type":"village","location":[43.2787077,-11.4910236],"bbox":[43.2587077,-11.5110236,43.2987077,-11.4710236]}
{"name":"Ntsaouéni","display_name":"Ntsaouéni, Ngazidja القمر الكبرى, Comores Komori جزر القمر","address":{"village":"Ntsaouéni","state":"Ngazidja القمر الكبرى","ISO3166-2-lvl4":"KM-G","country":"Comores Komori جزر القمر","country_code":"km"},"osm_type":"node","osm_id":4052761160,"type":"village","location":[43.2724769,-11.4690325],"bbox":[43.2524769,-11.4890325,43.2924769,-11.4490325]}
{"name":"Ivémbéni-Bandasamlini","other_names":{"name:en":"Ivémbéni-Bandasamoulini","name:fr":"Ivémbéni-Bandasamoulini","name:ro":"Ivémbéni-Bandasamoulini","alt_name":"Ivembeni-Bandasamoulini"},"display_name":"Ivémbéni-Bandasamlini, Ngazidja القمر الكبرى, Comores Komori جزر القمر","address":{"village":"Ivémbéni-Bandasamlini","state":"Ngazidja القمر الكبرى","ISO3166-2-lvl4":"KM-G","country":"Comores Komori جزر القمر","country_code":"km"},"osm_type":"node","osm_id":4198727103,"type":"village","location":[43.3259914,-11.4796887],"bbox":[43.3059914,-11.4996887,43.3459914,-11.4596887]}
{"name":"Domoni Adjou","display_name":"Domoni Adjou, Ngazidja القمر الكبرى, Comores Komori جزر القمر","address":{"village":"Domoni Adjou","state":"Ngazidja القمر الكبرى","ISO3166-2-lvl4":"KM-G","country":"Comores Komori جزر القمر","country_code":"km"},"osm_type":"node","osm_id":4052761095,"type":"village","location":[43.2872361,-11.4870208],"bbox":[43.2672361,-11.5070208,43.3072361,-11.4670208]}
{"name":"Chamle","display_name":"Chamle, Ngazidja القمر الكبرى, Comores Komori جزر القمر","address":{"village":"Chamle","state":"Ngazidja القمر الكبرى","ISO3166-2-lvl4":"KM-G","country":"Comores Komori جزر القمر","country_code":"km"},"osm_type":"node","osm_id":4052810840,"type":"village","location":[43.276791,-11.44765],"bbox":[43.256791,-11.46765,43.296791,-11.42765]}
{"name":"Salimani Ya Mahamé سليمان يا محمد","other_names":{"name:ar":"سليمان يا محمد","name:en":"Salémani","name:fr":"Salémani"},"display_name":"Salimani Ya Mahamé سليمان يا محمد, Ngazidja القمر الكبرى, Comores Komori جزر القمر","address":{"village":"Salimani Ya Mahamé سليمان يا محمد","state":"Ngazidja القمر الكبرى","ISO3166-2-lvl4":"KM-G","country":"Comores Komori جزر القمر","country_code":"km"},"osm_type":"node","osm_id":4251193750,"type":"village","location":[43.3874836,-11.512427],"bbox":[43.3674836,-11.532427,43.4074836,-11.492427]}
{"name":"Djomani","display_name":"Djomani, Ngazidja القمر الكبرى, Comores Komori جزر القمر","address":{"village":"Djomani","state":"Ngazidja القمر الكبرى","ISO3166-2-lvl4":"KM-G","country":"Comores Komori جزر القمر","country_code":"km"},"osm_type":"node","osm_id":4052810841,"type":"village","location":[43.2690474,-11.4351724],"bbox":[43.2490474,-11.4551724,43.2890474,-11.4151724]}
{"name":"Maouéni","display_name":"Maouéni, Ngazidja القمر الكبرى, Comores Komori جزر القمر","address":{"village":"Maouéni","state":"Ngazidja القمر الكبرى","ISO3166-2-lvl4":"KM-G","country":"Comores Komori جزر القمر","country_code":"km"},"osm_type":"node","osm_id":4198727102,"type":"village","location":[43.3249831,-11.4669826],"bbox":[43.3049831,-11.4869826,43.3449831,-11.4469826]}
{"name":"Bambadjani","display_name":"Bambadjani, Ngazidja القمر الكبرى, Comores Komori جزر القمر","address":{"village":"Bambadjani","state":"Ngazidja القمر الكبرى","ISO3166-2-lvl4":"KM-G","country":"Comores Komori جزر القمر","country_code":"km"},"osm_type":"node","osm_id":4052810880,"type":"village","location":[43.3878083,-11.4811466],"bbox":[43.3678083,-11.5011466,43.4078083,-11.4611466]}
{"name":"Seleani","display_name":"Seleani, Ngazidja القمر الكبرى, Comores Komori جزر القمر","address":{"village":"Seleani","state":"Ngazidja القمر الكبرى","ISO3166-2-lvl4":"KM-G","country":"Comores Komori جزر القمر","country_code":"km"},"population":8000,"osm_type":"node","osm_id":4961324252,"type":"village","location":[43.3984576,-11.5035445],"bbox":[43.3784576,-11.5235445,43.4184576,-11.4835445]}
{"name":"Gnadomboeni","display_name":"Gnadomboeni, Ngazidja القمر الكبرى, Comores Komori جزر القمر","address":{"village":"Gnadomboeni","state":"Ngazidja القمر الكبرى","ISO3166-2-lvl4":"KM-G","country":"Comores Komori جزر القمر","country_code":"km"},"osm_type":"node","osm_id":4052810879,"type":"village","location":[43.387745,-11.470978],"bbox":[43.367745,-11.490978,43.407745,-11.450978]}
{"name":"Mbéni","other_names":{"name:en":"Mbéni","name:fr":"Mbéni","name:id":"Mbeni","name:pl":"Mbeni"},"display_name":"Mbéni, Ngazidja القمر الكبرى, Comores Komori جزر القمر","address":{"village":"Mbéni","state":"Ngazidja القمر الكبرى","ISO3166-2-lvl4":"KM-G","country":"Comores Komori جزر القمر","country_code":"km"},"osm_type":"node","osm_id":4052811354,"type":"village","location":[43.3868104,-11.5059996],"bbox":[43.3668104,-11.5259996,43.4068104,-11.4859996]}
{"name":"Mouadja","display_name":"Mouadja, Ngazidja القمر الكبرى, Comores Komori جزر القمر","address":{"village":"Mouadja","state":"Ngazidja القمر الكبرى","ISO3166-2-lvl4":"KM-G","country":"Comores Komori جزر القمر","country_code":"km"},"osm_type":"node","osm_id":4052810878,"type":"village","location":[43.3878065,-11.4667285],"bbox":[43.3678065,-11.4867285,43.4078065,-11.4467285]}
{"name":"Itsandzéni","display_name":"Itsandzéni, Ngazidja القمر الكبرى, Comores Komori جزر القمر","address":{"village":"Itsandzéni","state":"Ngazidja القمر الكبرى","ISO3166-2-lvl4":"KM-G","country":"Comores Komori جزر القمر","country_code":"km"},"osm_type":"node","osm_id":4066839315,"type":"village","location":[43.393797,-11.4754035],"bbox":[43.373797,-11.4954035,43.413797,-11.4554035]}
{"name":"Buuni","display_name":"Buuni, Ngazidja القمر الكبرى, Comores Komori جزر القمر","address":{"village":"Buuni","state":"Ngazidja القمر الكبرى","ISO3166-2-lvl4":"KM-G","country":"Comores Komori جزر القمر","country_code":"km"},"osm_type":"node","osm_id":5907756715,"type":"village","location":[43.3976859,-11.4895819],"bbox":[43.3776859,-11.5095819,43.4176859,-11.4695819]}
{"name":"Nioumamilani","display_name":"Nioumamilani, Ngazidja القمر الكبرى, Comores Komori جزر القمر","address":{"village":"Nioumamilani","state":"Ngazidja القمر الكبرى","ISO3166-2-lvl4":"KM-G","country":"Comores Komori جزر القمر","country_code":"km"},"osm_type":"node","osm_id":4052810877,"type":"village","location":[43.4056931,-11.4424736],"bbox":[43.3856931,-11.4624736,43.4256931,-11.4224736]}
{"name":"Douniani","display_name":"Douniani, Ngazidja القمر الكبرى, Comores Komori جزر القمر","address":{"village":"Douniani","state":"Ngazidja القمر الكبرى","ISO3166-2-lvl4":"KM-G","country":"Comores Komori جزر القمر","country_code":"km"},"osm_type":"node","osm_id":4198727101,"type":"village","location":[43.2983679,-11.4242569],"bbox":[43.2783679,-11.4442569,43.3183679,-11.4042569]}
{"name":"Chézani","display_name":"Chézani, Ngazidja القمر الكبرى, Comores Komori جزر القمر","address":{"village":"Chézani","state":"Ngazidja القمر الكبرى","ISO3166-2-lvl4":"KM-G","country":"Comores Komori جزر القمر","country_code":"km"},"osm_type":"node","osm_id":4052810859,"type":"village","location":[43.3960288,-11.4314198],"bbox":[43.3760288,-11.4514198,43.4160288,-11.4114198]}
{"name":"Hadjambou","display_name":"Hadjambou, Ngazidja القمر الكبرى, Comores Komori جزر القمر","address":{"village":"Hadjambou","state":"Ngazidja القمر الكبرى","ISO3166-2-lvl4":"KM-G","country":"Comores Komori جزر القمر","country_code":"km"},"osm_type":"node","osm_id":4052811353,"type":"village","location":[43.4013507,-11.4596896],"bbox":[43.3813507,-11.4796896,43.4213507,-11.4396896]}
{"name":"Bangoi Mafsankoa","display_name":"Bangoi Mafsankoa, Ngazidja القمر الكبرى, Comores Komori جزر القمر","address":{"village":"Bangoi Mafsankoa","state":"Ngazidja القمر الكبرى","ISO3166-2-lvl4":"KM-G","country":"Comores Komori جزر القمر","country_code":"km"},"osm_type":"node","osm_id":4198667189,"type":"village","location":[43.3022349,-11.4001499],"bbox":[43.2822349,-11.4201499,43.3222349,-11.3801499]}
{"name":"Mandza","display_name":"Mandza, Ngazidja القمر الكبرى, Comores Komori جزر القمر","address":{"village":"Mandza","state":"Ngazidja القمر الكبرى","ISO3166-2-lvl4":"KM-G","country":"Comores Komori جزر القمر","country_code":"km"},"osm_type":"node","osm_id":4198727100,"type":"village","location":[43.3050624,-11.4212636],"bbox":[43.2850624,-11.4412636,43.3250624,-11.4012636]}
{"name":"Ouhozi","display_name":"Ouhozi, Ngazidja القمر الكبرى, Comores Komori جزر القمر","address":{"village":"Ouhozi","state":"Ngazidja القمر الكبرى","ISO3166-2-lvl4":"KM-G","country":"Comores Komori جزر القمر","country_code":"km"},"osm_type":"node","osm_id":4198667190,"type":"village","location":[43.2941378,-11.4020466],"bbox":[43.2741378,-11.4220466,43.3141378,-11.3820466]}
{"name":"Mitsamiouli ميتساميولي","other_names":{"name:ar":"ميتساميولي","name:en":"Mitsamiouli","name:fr":"Mitsamiouli"},"display_name":"Mitsamiouli ميتساميولي, Ngazidja القمر الكبرى, Comores Komori جزر القمر","address":{"village":"Mitsamiouli ميتساميولي","state":"Ngazidja القمر الكبرى","ISO3166-2-lvl4":"KM-G","country":"Comores Komori جزر القمر","country_code":"km"},"osm_type":"node","osm_id":2716274536,"type":"village","location":[43.2930126,-11.3888547],"bbox":[43.2730126,-11.4088547,43.3130126,-11.3688547]}
{"name":"Bangoua Kouni","display_name":"Bangoua Kouni, Ngazidja القمر الكبرى, Comores Komori جزر القمر","address":{"village":"Bangoua Kouni","state":"Ngazidja القمر الكبرى","ISO3166-2-lvl4":"KM-G","country":"Comores Komori جزر القمر","country_code":"km"},"osm_type":"node","osm_id":4052810842,"type":"village","location":[43.3618274,-11.3715503],"bbox":[43.3418274,-11.3915503,43.3818274,-11.3515503]}
{"name":"Ivoini","display_name":"Ivoini, Ngazidja القمر الكبرى, Comores Komori جزر القمر","address":{"village":"Ivoini","state":"Ngazidja القمر الكبرى","ISO3166-2-lvl4":"KM-G","country":"Comores Komori جزر القمر","country_code":"km"},"osm_type":"node","osm_id":4052810858,"type":"village","location":[43.3934696,-11.3902679],"bbox":[43.3734696,-11.4102679,43.4134696,-11.3702679]}
{"name":"Mwemboiboini","display_name":"Mwemboiboini, Ngazidja القمر الكبرى, Comores Komori جزر القمر","address":{"village":"Mwemboiboini","state":"Ngazidja القمر الكبرى","ISO3166-2-lvl4":"KM-G","country":"Comores Komori جزر القمر","country_code":"km"},"osm_type":"node","osm_id":4251197534,"type":"village","location":[43.3141286,-11.3840893],"bbox":[43.2941286,-11.4040893,43.3341286,-11.3640893]}
{"display_name":"Moimbassa, موهيلي Mohéli, Comores Komori جزر القمر","address":{"city":"Moimbassa","state":"موهيلي Mohéli","ISO3166-2-lvl4":"KM-M","country":"Comores Komori جزر القمر","country_code":"km"},"osm_type":"node","osm_id":2854406796,"type":"village","location":[43.674034,-12.2680605],"bbox":[43.654034,-12.2880605,43.694034,-12.2480605]}
{"name":"Bimbini بمبيني","other_names":{"name:ar":"بمبيني","name:de":"Bimbini","name:en":"Bimbini","name:fa":"بیمبینی","name:fr":"Bimbini","name:sv":"Bimbini"},"display_name":"Bimbini بمبيني, Nzwani أنجوان, Comores Komori جزر القمر","address":{"village":"Bimbini بمبيني","state":"Nzwani أنجوان","ISO3166-2-lvl4":"KM-A","country":"Comores Komori جزر القمر","country_code":"km"},"osm_type":"node","osm_id":4921355772,"type":"village","location":[44.2346362,-12.1916668],"bbox":[44.2146362,-12.2116668,44.2546362,-12.1716668]}
{"name":"Mirongani ميرنكني","other_names":{"name:ar":"ميرنكني","name:en":"Mirongani","name:fr":"Mirongani","name:sv":"Mirongani"},"display_name":"Mirongani ميرنكني, Nzwani أنجوان, Comores Komori جزر القمر","address":{"village":"Mirongani ميرنكني","state":"Nzwani أنجوان","ISO3166-2-lvl4":"KM-A","country":"Comores Komori جزر القمر","country_code":"km"},"osm_type":"node","osm_id":4921355773,"type":"village","location":[44.2513425,-12.1938521],"bbox":[44.2313425,-12.2138521,44.2713425,-12.1738521]}
{"name":"Hamavouna همفونا","other_names":{"name:ar":"همفونا","name:en":"Hamavouna","name:fr":"Hamavouna"},"display_name":"Hamavouna همفونا, Djando, موهيلي Mohéli, Comores Komori جزر القمر","address":{"village":"Hamavouna همفونا","city":"Djando","state":"موهيلي Mohéli","ISO3166-2-lvl4":"KM-M","country":"Comores Komori جزر القمر","country_code":"km"},"osm_type":"node","osm_id":4921355770,"type":"village","location":[43.8390083,-12.3782942],"bbox":[43.8190083,-12.3982942,43.8590083,-12.3582942]}
{"name":"Milémbéni ميلمبني","other_names":{"name:ar":"ميلمبني","name:en":"Milémbéni","name:fr":"Milémbéni","name:sv":"Milembéni"},"display_name":"Milémbéni ميلمبني, Nzwani أنجوان, Comores Komori جزر القمر","address":{"village":"Milémbéni ميلمبني","state":"Nzwani أنجوان","ISO3166-2-lvl4":"KM-A","country":"Comores Komori جزر القمر","country_code":"km"},"osm_type":"node","osm_id":4921355774,"type":"village","location":[44.2631736,-12.2021585],"bbox":[44.2431736,-12.2221585,44.2831736,-12.1821585]}
{"name":"كانكني Kangani","other_names":{"name:ar":"كانكني","name:en":"Kangani","name:fr":"Kangani"},"display_name":"كانكني Kangani, Djando, موهيلي Mohéli, Comores Komori جزر القمر","address":{"village":"كانكني Kangani","city":"Djando","state":"موهيلي Mohéli","ISO3166-2-lvl4":"KM-M","country":"Comores Komori جزر القمر","country_code":"km"},"osm_type":"node","osm_id":4921355771,"type":"village","location":[43.8222246,-12.3491749],"bbox":[43.8022246,-12.3691749,43.8422246,-12.3291749]}
{"name":"مبتسي Mbatsé","other_names":{"name:ar":"مبتسي","name:en":"Mbatsé","name:fr":"Mbatsé"},"display_name":"مبتسي Mbatsé, Moimbassa, موهيلي Mohéli, Comores Komori جزر القمر","address":{"village":"مبتسي Mbatsé","city":"Moimbassa","state":"موهيلي Mohéli","ISO3166-2-lvl4":"KM-M","country":"Comores Komori جزر القمر","country_code":"km"},"osm_type":"node","osm_id":2854406799,"type":"village","location":[43.7064096,-12.268939],"bbox":[43.6864096,-12.288939,43.7264096,-12.248939]}
{"name":"Kavani كفني","other_names":{"name:ar":"كفني","name:en":"Kavani","name:fr":"Kavani","name:sv":"Kavani"},"display_name":"Kavani كفني, Nzwani أنجوان, Comores Komori جزر القمر","address":{"village":"Kavani كفني","state":"Nzwani أنجوان","ISO3166-2-lvl4":"KM-A","country":"Comores Komori جزر القمر","country_code":"km"},"osm_type":"node","osm_id":4921355775,"type":"village","location":[44.2708162,-12.1979978],"bbox":[44.2508162,-12.2179978,44.2908162,-12.1779978]}
{"name":"زيروداني Ziroudani","other_names":{"name:ar":"زيروداني","name:en":"Ziroudani","name:fr":"Ziroudani","name:sv":"Ziroudani"},"display_name":"زيروداني Ziroudani, Djando, موهيلي Mohéli, Comores Komori جزر القمر","address":{"village":"زيروداني Ziroudani","city":"Djando","state":"موهيلي Mohéli","ISO3166-2-lvl4":"KM-M","country":"Comores Komori جزر القمر","country_code":"km"},"osm_type":"node","osm_id":4269799560,"type":"village","location":[43.7808704,-12.3392087],"bbox":[43.7608704,-12.3592087,43.8008704,-12.3192087]}
{"name":"واناني Wanani","other_names":{"name:ar":"واناني","name:de":"Wanani","name:en":"Wanani","name:fr":"Wanani","name:id":"Wanani","name:nl":"Wanani","name:pl":"Wanani","name:sv":"Wanani","alt_name":"Ouanani","alt_name:fr":"Ouanani"},"display_name":"واناني Wanani, Djando, موهيلي Mohéli, Comores Komori جزر القمر","address":{"village":"واناني Wanani","city":"Djando","state":"موهيلي Mohéli","ISO3166-2-lvl4":"KM-M","country":"Comores Komori جزر القمر","country_code":"km"},"osm_type":"node","osm_id":4269799559,"type":"village","location":[43.8004382,-12.345524],"bbox":[43.7804382,-12.365524,43.8204382,-12.325524]}
{"name":"Moya مويا","other_names":{"name:ar":"مويا","name:en":"Moya","name:fr":"Moya"},"display_name":"Moya مويا, Nzwani أنجوان, Comores Komori جزر القمر","address":{"village":"Moya مويا","state":"Nzwani أنجوان","ISO3166-2-lvl4":"KM-A","country":"Comores Komori جزر القمر","country_code":"km"},"osm_type":"node","osm_id":2318289091,"type":"village","location":[44.4371606,-12.3098998],"bbox":[44.4171606,-12.3298998,44.4571606,-12.2898998]}
{"name":"Itsamia إيتساميا","other_names":{"name:ar":"إبتسامة","name:en":"Itsamia","name:fr":"Itsamia"},"display_name":"Itsamia إيتساميا, Djando, موهيلي Mohéli, Comores Komori جزر القمر","address":{"village":"Itsamia إيتساميا","city":"Djando","state":"موهيلي Mohéli","ISO3166-2-lvl4":"KM-M","country":"Comores Komori جزر القمر","country_code":"km"},"osm_type":"node","osm_id":4921355765,"type":"village","location":[43.8678999,-12.3699484],"bbox":[43.8478999,-12.3899484,43.8878999,-12.3499484]}
{"display_name":"Moimbao, موهيلي Mohéli, Comores Komori جزر القمر","address":{"city":"Moimbao","state":"موهيلي Mohéli","ISO3166-2-lvl4":"KM-M","country":"Comores Komori جزر القمر","country_code":"km"},"osm_type":"node","osm_id":2854406966,"type":"village","location":[43.6328045,-12.2908374],"bbox":[43.6128045,-12.3108374,43.6528045,-12.2708374]}
{"display_name":"Moimbao, موهيلي Mohéli, Comores Komori جزر القمر","address":{"city":"Moimbao","state":"موهيلي Mohéli","ISO3166-2-lvl4":"KM-M","country":"Comores Komori جزر القمر","country_code":"km"},"osm_type":"node","osm_id":2854406948,"type":"village","location":[43.6330827,-12.280605],"bbox":[43.6130827,-12.300605,43.6530827,-12.260605]}
{"name":"Patsy","other_names":{"name:ar":"باتسي","name:de":"Patsy","name:fr":"Patsy"},"display_name":"Patsy, Nzwani أنجوان, Comores Komori جزر القمر","address":{"village":"Patsy","state":"Nzwani أنجوان","ISO3166-2-lvl4":"KM-A","country":"Comores Komori جزر القمر","country_code":"km"},"osm_type":"node","osm_id":3293318914,"type":"village","location":[44.4357152,-12.1599178],"bbox":[44.4157152,-12.1799178,44.4557152,-12.1399178]}
{"display_name":"Nzwani أنجوان, Comores Komori جزر القمر","address":{"state":"Nzwani أنجوان","ISO3166-2-lvl4":"KM-A","country":"Comores Komori جزر القمر","country_code":"km"},"osm_type":"node","osm_id":2995360481,"type":"village","location":[44.5263641,-12.2753593],"bbox":[44.5063641,-12.2953593,44.5463641,-12.2553593]}
{"name":"Chiroroni شيررني","other_names":{"name:ar":"شيررني","name:en":"Chiroroni","name:fr":"Chiroroni"},"display_name":"Chiroroni شيررني, Nzwani أنجوان, Comores Komori جزر القمر","address":{"village":"Chiroroni شيررني","state":"Nzwani أنجوان","ISO3166-2-lvl4":"KM-A","country":"Comores Komori جزر القمر","country_code":"km"},"osm_type":"node","osm_id":2318289092,"type":"village","location":[44.5063393,-12.3764349],"bbox":[44.4863393,-12.3964349,44.5263393,-12.3564349]}
{"name":"Antsahé","other_names":{"name:de":"Antsahé","name:en":"Antsahé","name:fr":"Antsahé"},"display_name":"Antsahé, Nzwani أنجوان, Comores Komori جزر القمر","address":{"village":"Antsahé","state":"Nzwani أنجوان","ISO3166-2-lvl4":"KM-A","country":"Comores Komori جزر القمر","country_code":"km"},"osm_type":"node","osm_id":8518557018,"type":"village","location":[44.5219767,-12.3609786],"bbox":[44.5019767,-12.3809786,44.5419767,-12.3409786]}
{"name":"Bada Kouni","other_names":{"name:en":"Bada Kouni","name:fr":"Bada Kouni"},"display_name":"Bada Kouni, Nzwani أنجوان, Comores Komori جزر القمر","address":{"village":"Bada Kouni","state":"Nzwani أنجوان","ISO3166-2-lvl4":"KM-A","country":"Comores Komori جزر القمر","country_code":"km"},"osm_type":"node","osm_id":8518618030,"type":"village","location":[44.4970965,-12.3177236],"bbox":[44.4770965,-12.3377236,44.5170965,-12.2977236]}
{"name":"Mrémani","other_names":{"name:de":"Mrémani","name:en":"Mrémani","name:fr":"Mrémani"},"display_name":"Mrémani, Nzwani أنجوان, Comores Komori جزر القمر","address":{"village":"Mrémani","state":"Nzwani أنجوان","ISO3166-2-lvl4":"KM-A","country":"Comores Komori جزر القمر","country_code":"km"},"osm_type":"node","osm_id":8518618029,"type":"village","location":[44.4975847,-12.3133159],"bbox":[44.4775847,-12.3333159,44.5175847,-12.2933159]}
{"name":"Mrémani مرمني","other_names":{"name:ar":"مرمني","name:de":"Mrémani","name:en":"Mrémani","name:fa":"مرمانی","name:fr":"Mrémani","name:hr":"Mrémani","name:pl":"Mrémani","name:ro":"Mrémani","name:sv":"Mrémani"},"display_name":"Mrémani مرمني, Nzwani أنجوان, Comores Komori جزر القمر","address":{"village":"Mrémani مرمني","state":"Nzwani أنجوان","ISO3166-2-lvl4":"KM-A","country":"Comores Komori جزر القمر","country_code":"km"},"osm_type":"node","osm_id":4962370714,"type":"village","location":[44.4994958,-12.3121605],"bbox":[44.4794958,-12.3321605,44.5194958,-12.2921605]}
{"name":"Mrémani","other_names":{"name:de":"Mrémani","name:en":"Mrémani","name:fr":"Mrémani"},"display_name":"Mrémani, Nzwani أنجوان, Comores Komori جزر القمر","address":{"village":"Mrémani","state":"Nzwani أنجوان","ISO3166-2-lvl4":"KM-A","country":"Comores Komori جزر القمر","country_code":"km"},"osm_type":"node","osm_id":8518489200,"type":"village","location":[44.5045437,-12.3115576],"bbox":[44.4845437,-12.3315576,44.5245437,-12.2915576]}
{"name":"Ongojou","other_names":{"name:de":"Ongojou","name:en":"Ongojou","name:fr":"Ongojou"},"display_name":"Ongojou, Nzwani أنجوان, Comores Komori جزر القمر","address":{"village":"Ongojou","state":"Nzwani أنجوان","ISO3166-2-lvl4":"KM-A","country":"Comores Komori جزر القمر","country_code":"km"},"osm_type":"node","osm_id":8518632265,"type":"village","location":[44.5095313,-12.3128993],"bbox":[44.4895313,-12.3328993,44.5295313,-12.2928993]}
{"name":"Assimpao","other_names":{"name:de":"Assimpao","name:en":"Assimpao","name:fr":"Assimpao","name:sv":"Assimpao"},"display_name":"Assimpao, Nzwani أنجوان, Comores Komori جزر القمر","address":{"village":"Assimpao","state":"Nzwani أنجوان","ISO3166-2-lvl4":"KM-A","country":"Comores Komori جزر القمر","country_code":"km"},"osm_type":"node","osm_id":8518570262,"type":"village","location":[44.3192292,-12.2368286],"bbox":[44.2992292,-12.2568286,44.3392292,-12.2168286]}
{"display_name":"Nzwani أنجوان, Comores Komori جزر القمر","address":{"state":"Nzwani أنجوان","ISO3166-2-lvl4":"KM-A","country":"Comores Komori جزر القمر","country_code":"km"},"osm_type":"node","osm_id":2995353608,"type":"village","location":[44.3665058,-12.2427614],"bbox":[44.3465058,-12.2627614,44.3865058,-12.2227614]}
{"display_name":"Nzwani أنجوان, Comores Komori جزر القمر","address":{"state":"Nzwani أنجوان","ISO3166-2-lvl4":"KM-A","country":"Comores Komori جزر القمر","country_code":"km"},"osm_type":"node","osm_id":2995360445,"type":"village","location":[44.3738095,-12.2481055],"bbox":[44.3538095,-12.2681055,44.3938095,-12.2281055]}
{"name":"Koué كوي","other_names":{"name:ar":"كوي","name:de":"Koué","name:en":"Koué","name:fr":"Koué"},"display_name":"Koué كوي, Nzwani أنجوان, Comores Komori جزر القمر","address":{"village":"Koué كوي","state":"Nzwani أنجوان","ISO3166-2-lvl4":"KM-A","country":"Comores Komori جزر القمر","country_code":"km"},"osm_type":"node","osm_id":2995360513,"type":"village","location":[44.4195781,-12.2865703],"bbox":[44.3995781,-12.3065703,44.4395781,-12.2665703]}
{"display_name":"Nzwani أنجوان, Comores Komori جزر القمر","address":{"state":"Nzwani أنجوان","ISO3166-2-lvl4":"KM-A","country":"Comores Komori جزر القمر","country_code":"km"},"osm_type":"node","osm_id":6528709830,"type":"village","location":[44.396975,-12.2696363],"bbox":[44.376975,-12.2896363,44.416975,-12.2496363]}
{"name":"Magnassini-Nindri مكنسيني نيندري","other_names":{"name:ar":"مكنسيني نيندري","name:de":"Magnassini-Nindri","name:en":"Magnassini-Nindri","name:fr":"Magnassini-Nindri","name:sv":"Magnassini-Nindri"},"display_name":"Magnassini-Nindri مكنسيني نيندري, Nzwani أنجوان, Comores Komori جزر القمر","address":{"village":"Magnassini-Nindri مكنسيني نيندري","state":"Nzwani أنجوان","ISO3166-2-lvl4":"KM-A","country":"Comores Komori جزر القمر","country_code":"km"},"osm_type":"node","osm_id":4962318410,"type":"village","location":[44.4135321,-12.2820255],"bbox":[44.3935321,-12.3020255,44.4335321,-12.2620255]}
{"name":"Lingoni لينكني","other_names":{"name:ar":"لينكني","name:de":"Lingoni","name:en":"Lingoni","name:fa":"لینگونی","name:fr":"Lingoni","name:ro":"Lingoni","name:sv":"Lingoni","name:azb":"لینقونی"},"display_name":"Lingoni لينكني, Nzwani أنجوان, Comores Komori جزر القمر","address":{"village":"Lingoni لينكني","state":"Nzwani أنجوان","ISO3166-2-lvl4":"KM-A","country":"Comores Komori جزر القمر","country_code":"km"},"osm_type":"node","osm_id":4962318415,"type":"village","location":[44.4106854,-12.2659801],"bbox":[44.3906854,-12.2859801,44.4306854,-12.2459801]}
{"display_name":"Nzwani أنجوان, Comores Komori جزر القمر","address":{"state":"Nzwani أنجوان","ISO3166-2-lvl4":"KM-A","country":"Comores Komori جزر القمر","country_code":"km"},"osm_type":"node","osm_id":2995360462,"type":"village","location":[44.3868488,-12.2542262],"bbox":[44.3668488,-12.2742262,44.4068488,-12.2342262]}
{"name":"Didjoni ديجني","other_names":{"name:ar":"ديجني","name:en":"Didjoni","name:fr":"Didjoni"},"display_name":"Didjoni ديجني, Ngazidja القمر الكبرى, Comores Komori جزر القمر","address":{"hamlet":"Didjoni ديجني","state":"Ngazidja القمر الكبرى","ISO3166-2-lvl4":"KM-G","country":"Comores Komori جزر القمر","country_code":"km"},"osm_type":"node","osm_id":5033710274,"type":"hamlet","location":[43.49088,-11.8839889],"bbox":[43.47088,-11.9039889,43.51088,-11.8639889]}
{"name":"Kouambani كوامباني","other_names":{"name:ar":"كوامباني","name:en":"Kouambani","name:fr":"Kouambani"},"display_name":"Kouambani كوامباني, Ngazidja القمر الكبرى, Comores Komori جزر القمر","address":{"hamlet":"Kouambani كوامباني","state":"Ngazidja القمر الكبرى","ISO3166-2-lvl4":"KM-G","country":"Comores Komori جزر القمر","country_code":"km"},"osm_type":"node","osm_id":5033710272,"type":"hamlet","location":[43.4853514,-11.8601053],"bbox":[43.4653514,-11.8801053,43.5053514,-11.8401053]}
{"name":"سامبيا Sambia","other_names":{"name:ar":"سامبيا","name:en":"Sambia","name:fr":"Sambia"},"display_name":"سامبيا Sambia, Djando, موهيلي Mohéli, Comores Komori جزر القمر","address":{"hamlet":"سامبيا Sambia","city":"Djando","state":"موهيلي Mohéli","ISO3166-2-lvl4":"KM-M","country":"Comores Komori جزر القمر","country_code":"km"},"osm_type":"node","osm_id":4269799558,"type":"hamlet","location":[43.797336,-12.3695826],"bbox":[43.777336,-12.3895826,43.817336,-12.3495826]}
