{"name":"شمال غرب الصليبخات","other_names":{"name:ar":"شمال غرب الصليبخات","name:en":"Northwest Sulaibikhat","official_name:en":"North West Sulaibikhat","official_name":"شمال غرب الصليبيخات","alt:en":"North West Sulaibikhat"},"display_name":"شمال غرب الصليبخات, العاصمة, الكويت","address":{"city":"شمال غرب الصليبخات","state":"العاصمة","ISO3166-2-lvl4":"KW-KU","country":"الكويت","country_code":"kw"},"population":10608,"osm_type":"way","osm_id":453841186,"type":"city","location":[47.8068916,29.328167],"bbox":[47.7994399,29.3198462,47.8240485,29.3354292]}
{"name":"الجهراء","other_names":{"name:ar":"الجهراء","name:cs":"al-Džahra","name:en":"Jahra","name:de":"al-Dschahra","name:es":"Jahra","name:et":"Al-Jahrā’","name:fr":"Al Jahra","name:ja":"ジャハラー","name:ml":"അൽ-ജഹറ","name:ru":"Эль-Джахра","int_name":"Jahra","alt:en":"Al Jahra"},"display_name":"الجهراء, الكويت","address":{"city":"الجهراء","state":"الجهراء","ISO3166-2-lvl4":"KW-JA","country":"الكويت","country_code":"kw"},"population":393432,"osm_type":"way","osm_id":463527529,"type":"city","location":[47.6722054,29.3474636],"bbox":[47.6598047,29.335352,47.6867491,29.3609486]}
{"name":"Qairawan","other_names":{"name:ar":"القيروان","name:en":"Qairawan","alt_name:en":"Kairawan"},"display_name":"Qairawan, الجهراء, الكويت","address":{"city":"Qairawan","state":"الجهراء","ISO3166-2-lvl4":"KW-JA","country":"الكويت","country_code":"kw"},"osm_type":"way","osm_id":462896719,"type":"city","location":[47.79724828385589,29.302891799999998],"bbox":[47.7854739,29.2967557,47.8181906,29.3110688]}
{"name":"جابر الأحمد","other_names":{"name:ar":"جابر الأحمد","name:en":"Jaber Al-Ahmad","name:de":"Jaber Al-Ahmad","name:es":"Jaber Al-Ahmad","name:fr":"Jaber Al-Ahmad","name:ml":"ജാബിർ അൽ-അഹമ്മദ്"},"display_name":"جابر الأحمد, الجهراء, 91712, الكويت","address":{"city":"جابر الأحمد","state":"الجهراء","ISO3166-2-lvl4":"KW-JA","postcode":"91712","country":"الكويت","country_code":"kw"},"osm_type":"way","osm_id":462897335,"type":"city","location":[47.7669156,29.3417082],"bbox":[47.7315759,29.3177502,47.7919563,29.3621917]}
{"name":"صباح الأحمد","other_names":{"name:ar":"صباح الأحمد","name:en":"Sabah Al-Ahmad","alt_name:en":"Sabah Al-Ahmed","name:fr":"Sabah Al-Ahmad"},"display_name":"صباح الأحمد, الاحمدي, الكويت","address":{"town":"صباح الأحمد","state":"الاحمدي","ISO3166-2-lvl4":"KW-AH","country":"الكويت","country_code":"kw"},"osm_type":"way","osm_id":463547773,"type":"city","location":[48.0636544,28.7823563],"bbox":[48.0207158,28.7413228,48.1089998,28.8127159]}
{"name":"جنوب الصباحية","display_name":"جنوب الصباحية, الاحمدي, الكويت","address":{"city":"جنوب الصباحية","state":"الاحمدي","ISO3166-2-lvl4":"KW-AH","country":"الكويت","country_code":"kw"},"osm_type":"way","osm_id":1037897782,"type":"city","location":[48.105740983164175,29.07617995],"bbox":[48.0982197,29.0617772,48.1152125,29.093192]}
{"name":"علي صباح السالم","other_names":{"name:ar":"أم الهيمان","name:en":"Ali Subah Al Salem","name:ml":"അലി സുബഹ് അൽ സാലേം","alt:ar":"علي صباح السالم"},"display_name":"علي صباح السالم, الاحمدي, الكويت","address":{"town":"علي صباح السالم","state":"الاحمدي","ISO3166-2-lvl4":"KW-AH","country":"الكويت","country_code":"kw"},"osm_type":"way","osm_id":462835078,"type":"city","location":[48.1507963,28.9555874],"bbox":[48.1364372,28.9405018,48.1717746,28.9733372]}
{"name":"الصليبخات","other_names":{"name:ar":"الصليبخات","name:en":"Sulaibikhat","official_name":"الصليبيخات"},"display_name":"الصليبخات, الجهراء, الكويت","address":{"city":"الصليبخات","state":"الجهراء","ISO3166-2-lvl4":"KW-JA","country":"الكويت","country_code":"kw"},"population":34794,"osm_type":"way","osm_id":462896552,"type":"city","location":[47.8286833168753,29.308723049999998],"bbox":[47.8032205,29.2953124,47.8627936,29.32125]}
{"name":"الأندلس","other_names":{"name:ar":"الأندلس","name:en":"Andalus","alt_name:en":"Andalous","alt_name_2:en":"Andalusia"},"display_name":"الأندلس, الفروانية, الكويت","address":{"city":"الأندلس","state":"الفروانية","ISO3166-2-lvl4":"KW-FA","country":"الكويت","country_code":"kw"},"osm_type":"way","osm_id":395277502,"type":"city","location":[47.885289015198694,29.3029223],"bbox":[47.8650085,29.2958068,47.9055259,29.3102618]}
{"name":"القرين","other_names":{"name:ar":"القرين","name:en":"Qurain"},"display_name":"القرين, مبارك الكبير, الكويت","address":{"city":"القرين","state":"مبارك الكبير","ISO3166-2-lvl4":"KW-MU","country":"الكويت","country_code":"kw"},"osm_type":"way","osm_id":461171618,"type":"city","location":[48.077396309533235,29.199743849999997],"bbox":[48.0601037,29.1919943,48.0930363,29.2092675]}
{"name":"بيان","other_names":{"name:ar":"بيان","name:en":"Bayan","name:ja":"バヤン","name:ml":"ബയാൻ"},"display_name":"بيان, حولي, 32001, الكويت","address":{"suburb":"بيان","state":"حولي","ISO3166-2-lvl4":"KW-HA","postcode":"32001","country":"الكويت","country_code":"kw"},"population":47734,"osm_type":"way","osm_id":461032168,"type":"city","location":[48.0478482,29.2975129],"bbox":[48.0226107,29.2839435,48.0689555,29.3136396]}
{"name":"الرميثية - قطعة 2","other_names":{"ref":"RUM 2","name:ar":"الرميثية - قطعة 2","name:en":"Rumaithiya - Block 2"},"display_name":"الرميثية - قطعة 2, حولي, الكويت","address":{"city":"الرميثية - قطعة 2","state":"حولي","ISO3166-2-lvl4":"KW-HA","country":"الكويت","country_code":"kw"},"osm_type":"relation","osm_id":5432509,"type":"administrative","location":[48.06671069009734,29.311223400000003],"bbox":[48.0623076,29.3072474,48.0705966,29.3153756]}
{"name":"الدوحة","other_names":{"name:ar":"الدوحة","name:en":"Doha"},"display_name":"الدوحة, العاصمة, الكويت","address":{"city":"الدوحة","state":"العاصمة","ISO3166-2-lvl4":"KW-KU","country":"الكويت","country_code":"kw"},"population":31832,"osm_type":"way","osm_id":462897062,"type":"city","location":[47.81752162305778,29.315494],"bbox":[47.8041642,29.3121946,47.8293252,29.3198502]}
{"name":"غرناطة","other_names":{"name:ar":"غرناطة","name:en":"Granada"},"display_name":"غرناطة, العاصمة, الكويت","address":{"city":"غرناطة","state":"العاصمة","ISO3166-2-lvl4":"KW-KU","country":"الكويت","country_code":"kw"},"population":10572,"osm_type":"way","osm_id":462895405,"type":"city","location":[47.872283577532954,29.3184519],"bbox":[47.8622233,29.3099031,47.8847318,29.3253423]}
{"name":"الري","other_names":{"name:ar":"الري","name:en":"Rai"},"display_name":"الري, الفروانية, الكويت","address":{"city":"الري","state":"الفروانية","ISO3166-2-lvl4":"KW-FA","country":"الكويت","country_code":"kw"},"population":2616,"osm_type":"way","osm_id":395534518,"type":"city","location":[47.94458144437142,29.308865949999998],"bbox":[47.9268347,29.3011281,47.9628085,29.3164336]}
{"name":"صباح السالم","other_names":{"name:ar":"صباح السالم","name:en":"Sabah Al Salem"},"display_name":"صباح السالم, مبارك الكبير, 00965, الكويت","address":{"city":"صباح السالم","state":"مبارك الكبير","ISO3166-2-lvl4":"KW-MU","postcode":"00965","country":"الكويت","country_code":"kw"},"population":92818,"osm_type":"way","osm_id":431616579,"type":"city","location":[48.0674383509956,29.2545839],"bbox":[48.0447543,29.2397933,48.0906523,29.2678748]}
{"name":"الرميثية - قطعة 3","other_names":{"ref":"RUM 3","name:ar":"الرميثية - قطعة 3","name:en":"Rumaithiya - Block 3"},"display_name":"الرميثية - قطعة 3, حولي, الكويت","address":{"city":"الرميثية - قطعة 3","state":"حولي","ISO3166-2-lvl4":"KW-HA","country":"الكويت","country_code":"kw"},"osm_type":"relation","osm_id":5432510,"type":"administrative","location":[48.07205701142797,29.312645250000003],"bbox":[48.068391,29.309222,48.0750938,29.316111]}
{"name":"حولي","other_names":{"name:ar":"حولي","name:en":"Hawally","name:fr":"Hawalli","name:ja":"ハワリ","name:uk":"Хаваллі","alt_name":"Hawalli","name:ml":"ഹവല്ലി"},"display_name":"حولي, 30000, الكويت","address":{"suburb":"حولي","state":"حولي","ISO3166-2-lvl4":"KW-HA","postcode":"30000","country":"الكويت","country_code":"kw"},"osm_type":"way","osm_id":431352452,"type":"city","location":[48.0199351,29.3362942],"bbox":[48.0015338,29.3237005,48.0378293,29.3491966]}
{"name":"الرميثية - قطعة 6","other_names":{"ref":"RUM 6","name:ar":"الرميثية - قطعة 6","name:en":"Rumaithiya - Block 6"},"display_name":"الرميثية - قطعة 6, حولي, الكويت","address":{"city":"الرميثية - قطعة 6","state":"حولي","ISO3166-2-lvl4":"KW-HA","country":"الكويت","country_code":"kw"},"osm_type":"relation","osm_id":5432512,"type":"administrative","location":[48.08351779278894,29.3118741],"bbox":[48.0801717,29.3084055,48.0868083,29.3154291]}
{"name":"الرميثية-قطعة 7","other_names":{"ref":"RUM 7","name:ar":"الرميثية-قطعة 7","name:en":"Rumaithiya-Block 7"},"display_name":"الرميثية-قطعة 7, حولي, 25409, الكويت","address":{"city":"الرميثية-قطعة 7","state":"حولي","ISO3166-2-lvl4":"KW-HA","postcode":"25409","country":"الكويت","country_code":"kw"},"osm_type":"relation","osm_id":5432598,"type":"administrative","location":[48.079698059685356,29.32074515],"bbox":[48.0763467,29.3156208,48.0829553,29.3256057]}
{"name":"الرميثية - قطعة 5","other_names":{"ref":"RUM 5","name:ar":"الرميثية - قطعة 5","name:en":"Rumaithiya - Block 5"},"display_name":"الرميثية - قطعة 5, حولي, الكويت","address":{"city":"الرميثية - قطعة 5","state":"حولي","ISO3166-2-lvl4":"KW-HA","country":"الكويت","country_code":"kw"},"osm_type":"relation","osm_id":5432511,"type":"administrative","location":[48.0777042973786,29.3124818],"bbox":[48.074566,29.3090915,48.0811382,29.3160839]}
{"name":"المنصورية","other_names":{"name:ar":"المنصورية","name:en":"Mansouriya","alt_name:en":"Mansuriya","alt_name_2:en":"Manṣūrīya"},"display_name":"المنصورية, العاصمة, 25501, الكويت","address":{"city":"المنصورية","state":"العاصمة","ISO3166-2-lvl4":"KW-KU","postcode":"25501","country":"الكويت","country_code":"kw"},"osm_type":"way","osm_id":431508362,"type":"city","location":[47.99591774427749,29.35735105],"bbox":[47.9877079,29.3512081,48.0025572,29.3641261]}
{"name":"مدينة المطلاع","other_names":{"name:ar":"مدينة المطلاع","name:en":"Al Mutla City","alt_name:en":"Al Mutla City"},"display_name":"مدينة المطلاع, الجهراء, الكويت","address":{"city":"مدينة المطلاع","state":"الجهراء","ISO3166-2-lvl4":"KW-JA","country":"الكويت","country_code":"kw"},"osm_type":"node","osm_id":9570866696,"type":"city","location":[47.6226757,29.5132249],"bbox":[47.4626757,29.3532249,47.7826757,29.6732249]}
{"name":"الجهراء","other_names":{"name:ar":"الجهراء","name:de":"al-Dschahra","name:en":"Al Jahra","name:es":"Jahra","name:et":"Al-Jahrā’","name:fr":"Al Jahra","name:ja":"ジャハラー","name:ml":"അൽ-ജഹറ","name:ru":"Эль-Джахра","int_name":"Jahra"},"display_name":"الجهراء, 03200, الكويت","address":{"city":"الجهراء","state":"الجهراء","ISO3166-2-lvl4":"KW-JA","postcode":"03200","country":"الكويت","country_code":"kw"},"population":393432,"osm_type":"node","osm_id":1278188834,"type":"city","location":[47.6722054,29.3474636],"bbox":[47.5122054,29.1874636,47.8322054,29.5074636]}
{"name":"مدينة المطلاع","other_names":{"name:ar":"مدينة المطلاع","name:en":"Al Mutla City","alt_name:en":"Al Mutla City"},"display_name":"مدينة المطلاع, الجهراء, الكويت","address":{"city":"مدينة المطلاع","state":"الجهراء","ISO3166-2-lvl4":"KW-JA","country":"الكويت","country_code":"kw"},"osm_type":"node","osm_id":9570866695,"type":"city","location":[47.5865791,29.4223256],"bbox":[47.4265791,29.2623256,47.7465791,29.5823256]}
{"name":"جابر الأحمد","other_names":{"name:ar":"جابر الأحمد","name:de":"Jaber Al-Ahmad","name:en":"Jaber Al-Ahmad","name:es":"Jaber Al-Ahmad","name:fr":"Jaber Al-Ahmad","name:ml":"ജാബിർ അൽ-അഹമ്മദ്"},"display_name":"جابر الأحمد, الجهراء, 91712, الكويت","address":{"city":"جابر الأحمد","state":"الجهراء","ISO3166-2-lvl4":"KW-JA","postcode":"91712","country":"الكويت","country_code":"kw"},"osm_type":"node","osm_id":4602123782,"type":"city","location":[47.7669156,29.3417082],"bbox":[47.6069156,29.1817082,47.9269156,29.5017082]}
{"name":"شمال غرب الصليبخات","other_names":{"name:ar":"شمال غرب الصليبخات","name:en":"North West Sulaibikhat","official_name":"شمال غرب الصليبيخات"},"display_name":"شمال غرب الصليبخات, العاصمة, 91712, الكويت","address":{"city":"شمال غرب الصليبخات","state":"العاصمة","ISO3166-2-lvl4":"KW-KU","postcode":"91712","country":"الكويت","country_code":"kw"},"population":10608,"osm_type":"node","osm_id":10840179098,"type":"city","location":[47.8068916,29.328167],"bbox":[47.6468916,29.168167,47.9668916,29.488167]}
{"name":"الصبية","other_names":{"name:ar":"الصبية","name:en":"Subiya"},"display_name":"الصبية, الجهراء, الكويت","address":{"city":"الصبية","state":"الجهراء","ISO3166-2-lvl4":"KW-JA","country":"الكويت","country_code":"kw"},"population":6,"osm_type":"node","osm_id":10707750005,"type":"city","location":[47.7436464,29.4488272],"bbox":[47.5836464,29.2888272,47.9036464,29.6088272]}
{"name":"الأحمدي","other_names":{"name:ar":"الأحمدي","name:de":"Al Ahmadi","name:en":"Ahmadi","name:es":"Al Ahmadi","name:fr":"Al Ahmadi","name:ja":"アハマディ","name:ml":"അൽ-അഹമ്മദി","name:ru":"Эль-Ахмади"},"display_name":"الأحمدي, الاحمدي, 60012, الكويت","address":{"city":"الأحمدي","state":"الاحمدي","ISO3166-2-lvl4":"KW-AH","postcode":"60012","country":"الكويت","country_code":"kw"},"population":31422,"osm_type":"node","osm_id":1760623214,"type":"city","location":[48.0610236,29.0890687],"bbox":[47.9010236,28.9290687,48.2210236,29.2490687]}
{"name":"مدينة الكويت","other_names":{"name:af":"Koeweit","name:am":"ኩዌት ከተማ","name:ar":"مدينة الكويت","name:az":"Küveyt","name:be":"Кувейт","name:bg":"Кувейт","name:bn":"কুয়েত সিটি","name:bo":"ཁུ་ཝི་ཐི།","name:br":"Koweit","name:bs":"Kuvajt","name:ca":"Al-Kuwait","name:cs":"Kuvajt","name:cy":"Dinas Kuwait","name:da":"Kuwait City","name:de":"Kuwait-Stadt","name:el":"Πόλη του Κουβέιτ","name:en":"Kuwait City","name:eo":"Kuvajturbo","name:es":"Kuwait","name:et":"Al-Kuwayt","name:eu":"Kuwait","name:fa":"کویت","name:fi":"Kuwait","name:fr":"Koweït","name:fy":"Koeweit","name:gd":"Cubhait","name:gl":"Kuwait","name:he":"העיר כווית","name:hi":"कुवैत नगर","name:hr":"Kuvait","name:ht":"Kowèt","name:hu":"Kuvaitváros","name:hy":"Էլ Քուվեյթ","name:id":"Kuwait City","name:io":"Kuwait-Urbo","name:it":"Città del Kuwait","name:ja":"クウェート市","name:ka":"ელ-ქუვეითი","name:kl":"Kuwait Illoqarfik","name:ko":"쿠웨이트시티","name:lt":"Kuveitas","name:lv":"Kuveita","name:mk":"Кувајт","name:ml":"കുവൈറ്റ് സിറ്റി","name:mn":"Кувейт хот","name:mr":"कुवेत शहर","name:ms":"Bandar Kuwait","name:nl":"Koeweit","name:nn":"Kuwait by","name:no":"Kuwait","name:oc":"Kowait","name:os":"Эль-Кувейт","name:pl":"Kuwejt","name:pt":"Kuwait","name:ro":"Kuweit","name:ru":"Эль-Кувейт","name:sk":"Kuvajt","name:sr":"Кувајт","name:sv":"Kuwait City","name:sw":"Jiji la Kuwait","name:ta":"குவைத் நகரம்","name:te":"కువైట్ సిటీ","name:tg":"Ал-Кувейт","name:th":"คูเวตซิตี","name:tl":"Lungsod ng Kuwait","name:tr":"Kuveyt","name:ug":"كۇۋائىت شەھىرى","name:uk":"Ель-Кувейт","name:ur":"کویت شہر","name:vi":"Thành phố Kuwait","name:vo":"Kuväyt","name:yo":"Ìlú Kuwaiti","name:zh":"科威特市","int_name":"Kuwait City","name:ace":"Al-Kuwait","name:arc":"ܟܘܘܝܬ","name:ckb":"کووەیت","name:frp":"Koveyit","name:hif":"Kuwait City","name:lmo":"Cità del Kuwait","name:nah":"Āltepētl Cuhuait","name:nan":"Kuwait Chhī","name:nov":"Kuwayt Urbe","name:pms":"Sità dël Kuwait","name:sco":"Kuwait Ceety","name:vro":"Al-Kuwayt","name:war":"Syudad han Kuwait","name:simple":"Kuwait City","name:be-tarask":"Кувэйт"},"display_name":"مدينة الكويت, العاصمة, 15005, الكويت","address":{"city":"مدينة الكويت","state":"العاصمة","ISO3166-2-lvl4":"KW-KU","postcode":"15005","country":"الكويت","country_code":"kw"},"population":637411,"osm_type":"node","osm_id":544060405,"type":"city","location":[47.9734174,29.3796532],"bbox":[47.8134174,29.2196532,48.1334174,29.5396532]}
{"name":"صباح الأحمد","other_names":{"name:ar":"صباح الأحمد","name:en":"Sabah Al-Ahmad","name:fr":"Sabah Al-Ahmad"},"display_name":"صباح الأحمد, الاحمدي, الكويت","address":{"town":"صباح الأحمد","state":"الاحمدي","ISO3166-2-lvl4":"KW-AH","country":"الكويت","country_code":"kw"},"osm_type":"node","osm_id":4588169807,"type":"town","location":[48.0636544,28.7823563],"bbox":[48.0236544,28.7423563,48.1036544,28.8223563]}
{"name":"علي صباح السالم","other_names":{"name:ar":"علي صباح السالم","name:en":"Ali Subah Al Salem","name:ml":"അലി സുബഹ് അൽ സാലേം"},"display_name":"علي صباح السالم, الاحمدي, 44001, الكويت","address":{"town":"علي صباح السالم","state":"الاحمدي","ISO3166-2-lvl4":"KW-AH","postcode":"44001","country":"الكويت","country_code":"kw"},"osm_type":"node","osm_id":4600587315,"type":"town","location":[48.1507963,28.9555874],"bbox":[48.1107963,28.9155874,48.1907963,28.9955874]}
{"name":"الأبرق","other_names":{"name:ar":"الأبرق","name:en":"Al Abraq"},"display_name":"الأبرق, الجهراء, الكويت","address":{"village":"الأبرق","state":"الجهراء","ISO3166-2-lvl4":"KW-JA","country":"الكويت","country_code":"kw"},"osm_type":"node","osm_id":1441184269,"type":"village","location":[46.9578629,29.372725],"bbox":[46.9378629,29.352725,46.9778629,29.392725]}
{"name":"السالمي","other_names":{"name:ar":"السالمي","name:en":"Al Salmi"},"display_name":"السالمي, الجهراء, الكويت","address":{"village":"السالمي","state":"الجهراء","ISO3166-2-lvl4":"KW-JA","country":"الكويت","country_code":"kw"},"osm_type":"node","osm_id":9876599816,"type":"village","location":[46.6787785,29.0986411],"bbox":[46.6587785,29.0786411,46.6987785,29.1186411]}
{"name":"العبدلي","other_names":{"name:ar":"العبدلي","name:en":"Abdali","name:ml":"അബ്ദലി"},"display_name":"العبدلي, الجهراء, الكويت","address":{"village":"العبدلي","state":"الجهراء","ISO3166-2-lvl4":"KW-JA","country":"الكويت","country_code":"kw"},"osm_type":"node","osm_id":3621660962,"type":"village","location":[47.7201363,30.023185],"bbox":[47.7001363,30.003185,47.7401363,30.043185]}
{"name":"Al Wafrah","other_names":{"name:ar":"Al Wafrah","name:en":"Al Wafrah"},"display_name":"Al Wafrah, الاحمدي, الكويت","address":{"village":"Al Wafrah","state":"الاحمدي","ISO3166-2-lvl4":"KW-AH","country":"الكويت","country_code":"kw"},"osm_type":"node","osm_id":1441184271,"type":"village","location":[47.9312374,28.6395852],"bbox":[47.9112374,28.6195852,47.9512374,28.6595852]}
{"name":"Az Zawr","other_names":{"name:ar":"Az Zawr","name:en":"Az Zawr","alt_name":"Mina' Sa'ud"},"display_name":"Az Zawr, الاحمدي, الكويت","address":{"village":"Az Zawr","state":"الاحمدي","ISO3166-2-lvl4":"KW-AH","country":"الكويت","country_code":"kw"},"osm_type":"node","osm_id":1441184272,"type":"village","location":[48.3822449,28.7354344],"bbox":[48.3622449,28.7154344,48.4022449,28.7554344]}
{"name":"Al Khiran","other_names":{"name:ar":"Al Khiran","name:en":"Al Khiran"},"display_name":"Al Khiran, الاحمدي, الكويت","address":{"village":"Al Khiran","state":"الاحمدي","ISO3166-2-lvl4":"KW-AH","country":"الكويت","country_code":"kw"},"osm_type":"node","osm_id":1441184270,"type":"village","location":[48.3890963,28.6614324],"bbox":[48.3690963,28.6414324,48.4090963,28.6814324]}
{"display_name":"الجهراء, الكويت","address":{"state":"الجهراء","ISO3166-2-lvl4":"KW-JA","country":"الكويت","country_code":"kw"},"osm_type":"node","osm_id":1440254592,"type":"village","location":[48.0942504,29.7403522],"bbox":[48.0742504,29.7203522,48.1142504,29.7603522]}
{"display_name":"العاصمة, الكويت","address":{"state":"العاصمة","ISO3166-2-lvl4":"KW-KU","country":"الكويت","country_code":"kw"},"osm_type":"node","osm_id":2988967397,"type":"village","location":[48.2481829,29.4880598],"bbox":[48.2281829,29.4680598,48.2681829,29.5080598]}
