{"name":"Vaduz","other_names":{"name:am":"ፋዱጽ","name:ar":"فادوز","name:az":"Vaduts","name:be":"Вадуц","name:bg":"Вадуц","name:bn":"ফাডুৎস","name:bo":"བ་དུ་ཛི།","name:cv":"Вадуц","name:de":"Vaduz","name:el":"Βαντούζ","name:en":"Vaduz","name:eo":"Vaduzo","name:es":"Vaduz","name:fa":"فادوتس","name:fr":"Vaduz","name:he":"ואדוץ","name:ht":"Vadouz","name:hu":"Vaduz","name:hy":"Վադուց","name:ja":"ファドゥーツ","name:ka":"ვადუცი","name:ko":"파두츠","name:ky":"Вадуц","name:la":"Dulcis Vallis","name:lt":"Vaducas","name:lv":"Vaduca","name:mk":"Вадуц","name:mr":"फाडुट्स","name:no":"Vaduz","name:os":"Вадуц","name:pl":"Vaduz","name:ru":"Вадуц","name:sr":"Вадуц","name:ta":"வாதூசு","name:tg":"Вадутс","name:th":"วาดุซ","name:ug":"ۋادۇز","name:uk":"Вадуц","name:wo":"Wadus","name:zh":"瓦杜茲","name:ckb":"ڤادوز","name:lij":"Vadus","name:nds":"Vaduz","name:pnb":"وادوس","name:sah":"Вадуц","name:udm":"Вадуц","name:vep":"Vaduc","name:be-tarask":"Вадуц"},"display_name":"Vaduz, 9490, Liechtenstein","address":{"town":"Vaduz","ISO3166-2-lvl8":"LI-11","postcode":"9490","country":"Liechtenstein","country_code":"li"},"population":5229,"osm_type":"node","osm_id":1932181216,"type":"town","location":[9.5225926,47.1393131],"bbox":[9.4825926,47.0993131,9.5625926,47.1793131]}
{"name":"Schaan","other_names":{"name:de":"Schaan","name:mk":"Шан","name:ru":"Шан (Лихтенштейн)","name:uk":"Шан","name:zh":"沙恩","loc_name":"Schaa","loc_name:de":"Schaa"},"display_name":"Schaan, 9494, Liechtenstein","address":{"town":"Schaan","ISO3166-2-lvl8":"LI-07","postcode":"9494","country":"Liechtenstein","country_code":"li"},"population":6002,"osm_type":"node","osm_id":240079149,"type":"town","location":[9.510312,47.1663397],"bbox":[9.470312,47.1263397,9.550312,47.2063397]}
{"name":"Mäls","display_name":"Mäls, Balzers, 9496, Liechtenstein","address":{"village":"Mäls","postcode":"9496","country":"Liechtenstein","country_code":"li"},"population":1532,"osm_type":"node","osm_id":6388202794,"type":"village","location":[9.4945105,47.0622171],"bbox":[9.4745105,47.0422171,9.5145105,47.0822171]}
{"name":"Balzers","other_names":{"name:de":"Balzers","name:mk":"Балцерс","name:ru":"Бальцерс","name:uk":"Бальцерс","name:zh":"巴尔采斯","loc_name":"Baltsers","loc_name:de":"Baltsers"},"display_name":"Balzers, 9496, Liechtenstein","address":{"village":"Balzers","ISO3166-2-lvl8":"LI-01","postcode":"9496","country":"Liechtenstein","country_code":"li"},"population":4608,"osm_type":"node","osm_id":240100249,"type":"village","location":[9.5002393,47.0664595],"bbox":[9.4802393,47.0464595,9.5202393,47.0864595]}
{"name":"Triesen","other_names":{"name:de":"Triesen","name:mk":"Тризен","name:ru":"Тризен","name:uk":"Трізен","name:zh":"特里森","loc_name":"Tresa","loc_name:de":"Tresa"},"display_name":"Triesen, 9495, Liechtenstein","address":{"village":"Triesen","ISO3166-2-lvl8":"LI-09","postcode":"9495","country":"Liechtenstein","country_code":"li"},"population":5050,"osm_type":"node","osm_id":240092661,"type":"village","location":[9.5274876,47.106994],"bbox":[9.5074876,47.086994,9.5474876,47.126994]}
{"name":"Malbun","other_names":{"name:de":"Malbun","name:uk":"Мальбун","name:zh":"马尔邦"},"display_name":"Malbun, Triesenberg, Liechtenstein","address":{"village":"Malbun","country":"Liechtenstein","country_code":"li"},"osm_type":"node","osm_id":347290636,"type":"village","location":[9.6083069,47.102619],"bbox":[9.5883069,47.082619,9.6283069,47.122619]}
{"name":"Triesenberg","other_names":{"name:de":"Triesenberg","name:mk":"Тризенберг","name:ru":"Тризенберг","name:uk":"Трізенберг","name:zh":"特里森贝格","loc_name":"Trisabäärg","loc_name:de":"Trisabäärg"},"display_name":"Triesenberg, 9497, Liechtenstein","address":{"village":"Triesenberg","ISO3166-2-lvl8":"LI-10","postcode":"9497","country":"Liechtenstein","country_code":"li"},"population":2634,"osm_type":"node","osm_id":240106262,"type":"village","location":[9.5433663,47.1186181],"bbox":[9.5233663,47.0986181,9.5633663,47.1386181]}
{"name":"Ebenholz","display_name":"Ebenholz, Vaduz, 9490, Liechtenstein","address":{"village":"Ebenholz","town":"Vaduz","ISO3166-2-lvl8":"LI-11","postcode":"9490","country":"Liechtenstein","country_code":"li"},"osm_type":"node","osm_id":3577169505,"type":"village","location":[9.5137953,47.1499909],"bbox":[9.4937953,47.1299909,9.5337953,47.1699909]}
{"name":"Rotenboden","other_names":{"name:de":"Rotenboden","name:ru":"Ротенбоден"},"display_name":"Rotenboden, Triesenberg, 9495, Liechtenstein","address":{"village":"Rotenboden","postcode":"9495","country":"Liechtenstein","country_code":"li"},"osm_type":"node","osm_id":935278226,"type":"village","location":[9.5387175,47.1275781],"bbox":[9.5187175,47.1075781,9.5587175,47.1475781]}
{"name":"Masescha","display_name":"Masescha, Triesenberg, 9497, Liechtenstein","address":{"village":"Masescha","postcode":"9497","country":"Liechtenstein","country_code":"li"},"osm_type":"node","osm_id":4458494629,"type":"village","location":[9.5434979,47.132505],"bbox":[9.5234979,47.112505,9.5634979,47.152505]}
{"name":"Steg","other_names":{"name:de":"Steg","name:ru":"Штег"},"display_name":"Steg, Triesenberg, 9497, Liechtenstein","address":{"village":"Steg","postcode":"9497","country":"Liechtenstein","country_code":"li"},"osm_type":"node","osm_id":1796218506,"type":"village","location":[9.5765712,47.11176],"bbox":[9.5565712,47.09176,9.5965712,47.13176]}
{"name":"Mühleholz","display_name":"Mühleholz, Vaduz, 9494, Liechtenstein","address":{"village":"Mühleholz","town":"Vaduz","ISO3166-2-lvl8":"LI-11","postcode":"9494","country":"Liechtenstein","country_code":"li"},"osm_type":"node","osm_id":4740289308,"type":"village","location":[9.5115769,47.155566],"bbox":[9.4915769,47.135566,9.5315769,47.175566]}
{"name":"Planken","other_names":{"name:de":"Planken","name:mk":"Планкен","name:ru":"Планкен","name:uk":"Планкен","name:zh":"普兰肯","loc_name":"Planka","loc_name:de":"Planka"},"display_name":"Planken, 9498, Liechtenstein","address":{"village":"Planken","ISO3166-2-lvl8":"LI-05","postcode":"9498","country":"Liechtenstein","country_code":"li"},"population":445,"osm_type":"node","osm_id":32011242,"type":"village","location":[9.5452211,47.1858848],"bbox":[9.5252211,47.1658848,9.5652211,47.2058848]}
{"name":"Gamprin","other_names":{"name:de":"Gamprin","name:mk":"Гамприн","name:ru":"Гамприн","name:uk":"Гампрін","name:zh":"甘普林","loc_name":"Gamprii","loc_name:de":"Gamprii"},"display_name":"Gamprin, 9487, Liechtenstein","address":{"village":"Gamprin","ISO3166-2-lvl8":"LI-03","postcode":"9487","country":"Liechtenstein","country_code":"li"},"population":1654,"osm_type":"node","osm_id":240080206,"type":"village","location":[9.5102476,47.2190937],"bbox":[9.4902476,47.1990937,9.5302476,47.2390937]}
{"name":"Bendern","other_names":{"name:de":"Bendern","name:ru":"Бендерн","name:uk":"Бендерн"},"display_name":"Bendern, Gamprin, 9487, Liechtenstein","address":{"village":"Bendern","postcode":"9487","country":"Liechtenstein","country_code":"li"},"osm_type":"node","osm_id":240070712,"type":"village","location":[9.5062136,47.2122144],"bbox":[9.4862136,47.1922144,9.5262136,47.2322144]}
{"name":"Ruggell","other_names":{"name:de":"Ruggell","name:mk":"Ругел","name:ru":"Руггелль","name:uk":"Руґґель","name:zh":"儒格尔","loc_name":"Ruggäll"},"display_name":"Ruggell, 9491, Liechtenstein","address":{"village":"Ruggell","ISO3166-2-lvl8":"LI-06","postcode":"9491","country":"Liechtenstein","country_code":"li"},"population":2065,"osm_type":"node","osm_id":240120066,"type":"village","location":[9.5262871,47.2397575],"bbox":[9.5062871,47.2197575,9.5462871,47.2597575]}
{"name":"Eschen","other_names":{"name:de":"Eschen","name:mk":"Ешен","name:ru":"Э́шен","name:uk":"Ешен","name:zh":"埃申","loc_name":"Escha","loc_name:de":"Escha"},"display_name":"Eschen, 9492, Liechtenstein","address":{"village":"Eschen","ISO3166-2-lvl8":"LI-02","postcode":"9492","country":"Liechtenstein","country_code":"li"},"population":4407,"osm_type":"node","osm_id":3022807519,"type":"village","location":[9.5233202,47.2126274],"bbox":[9.5033202,47.1926274,9.5433202,47.2326274]}
{"name":"Nendeln","other_names":{"name:de":"Nendeln","name:ru":"Нендельн","name:uk":"Не́ндельн"},"display_name":"Nendeln, Eschen, 9485, Liechtenstein","address":{"village":"Nendeln","postcode":"9485","country":"Liechtenstein","country_code":"li"},"population":1357,"osm_type":"node","osm_id":240046176,"type":"village","location":[9.5430689,47.1973842],"bbox":[9.5230689,47.1773842,9.5630689,47.2173842]}
{"name":"Mauren","other_names":{"name:de":"Mauren","name:mk":"Маурен","name:ru":"Маурен (Лихтенштейн)","name:uk":"Маурен","name:zh":"毛伦","loc_name":"Mura","loc_name:de":"Mura"},"display_name":"Mauren, 9493, Liechtenstein","address":{"village":"Mauren","ISO3166-2-lvl8":"LI-04","postcode":"9493","country":"Liechtenstein","country_code":"li"},"population":4138,"osm_type":"node","osm_id":3022807520,"type":"village","location":[9.5418065,47.2196512],"bbox":[9.5218065,47.1996512,9.5618065,47.2396512]}
{"name":"Schellenberg","other_names":{"name:de":"Schellenberg","name:mk":"Шеленберг","name:ru":"Шелленберг","name:uk":"Шеллєнберг","name:zh":"施伦贝格","loc_name":"Schällabärg","loc_name:de":"Schällabärg"},"display_name":"Schellenberg, 9488, Liechtenstein","address":{"village":"Schellenberg","ISO3166-2-lvl8":"LI-08","postcode":"9488","country":"Liechtenstein","country_code":"li"},"population":1037,"osm_type":"node","osm_id":240077147,"type":"village","location":[9.5458021,47.2312022],"bbox":[9.5258021,47.2112022,9.5658021,47.2512022]}
{"name":"Schaanwald","other_names":{"name:de":"Schaanwald","name:ru":"Шанвальд"},"display_name":"Schaanwald, Mauren, 9486, Liechtenstein","address":{"village":"Schaanwald","postcode":"9486","country":"Liechtenstein","country_code":"li"},"osm_type":"node","osm_id":240060684,"type":"village","location":[9.5700026,47.2165446],"bbox":[9.5500026,47.1965446,9.5900026,47.2365446]}
{"name":"Wangerberg","other_names":{"name:de":"Wangerberg","name:ru":"Вангерберг"},"display_name":"Wangerberg, Triesenberg, 9497, Liechtenstein","address":{"hamlet":"Wangerberg","village":"Triesenberg","ISO3166-2-lvl8":"LI-10","postcode":"9497","country":"Liechtenstein","country_code":"li"},"osm_type":"node","osm_id":4523759060,"type":"hamlet","location":[9.5445401,47.1066307],"bbox":[9.5245401,47.0866307,9.5645401,47.1266307]}
{"name":"Lawena","display_name":"Lawena, Triesen, 9497, Liechtenstein","address":{"hamlet":"Lawena","village":"Triesen","ISO3166-2-lvl8":"LI-09","postcode":"9497","country":"Liechtenstein","country_code":"li"},"osm_type":"node","osm_id":4514418890,"type":"hamlet","location":[9.5586406,47.0666011],"bbox":[9.5386406,47.0466011,9.5786406,47.0866011]}
{"name":"Grosssteg","display_name":"Grosssteg, Steg, Triesenberg, 9497, Liechtenstein","address":{"hamlet":"Grosssteg","village":"Steg","postcode":"9497","country":"Liechtenstein","country_code":"li"},"osm_type":"node","osm_id":3028180342,"type":"hamlet","location":[9.5732624,47.1148336],"bbox":[9.5532624,47.0948336,9.5932624,47.1348336]}
{"name":"Silum","display_name":"Silum, Masescha, Triesenberg, 9497, Liechtenstein","address":{"hamlet":"Silum","village":"Masescha","postcode":"9497","country":"Liechtenstein","country_code":"li"},"osm_type":"node","osm_id":4458494628,"type":"hamlet","location":[9.5545642,47.1313164],"bbox":[9.5345642,47.1113164,9.5745642,47.1513164]}
{"name":"Steinort","other_names":{"name:de":"Steinort","name:ru":"Штайнорт"},"display_name":"Steinort, Triesenberg, 9497, Liechtenstein","address":{"hamlet":"Steinort","village":"Triesenberg","ISO3166-2-lvl8":"LI-10","postcode":"9497","country":"Liechtenstein","country_code":"li"},"osm_type":"node","osm_id":4463520780,"type":"hamlet","location":[9.5499291,47.1132699],"bbox":[9.5299291,47.0932699,9.5699291,47.1332699]}
{"name":"Lavadina","display_name":"Lavadina, Triesenberg, 9497, Liechtenstein","address":{"hamlet":"Lavadina","village":"Triesenberg","ISO3166-2-lvl8":"LI-10","postcode":"9497","country":"Liechtenstein","country_code":"li"},"osm_type":"node","osm_id":9707610598,"type":"hamlet","location":[9.5541388,47.113905],"bbox":[9.5341388,47.093905,9.5741388,47.133905]}
{"name":"Kleinsteg","display_name":"Kleinsteg, Steg, Triesenberg, 9497, Liechtenstein","address":{"hamlet":"Kleinsteg","village":"Steg","postcode":"9497","country":"Liechtenstein","country_code":"li"},"osm_type":"node","osm_id":3028180343,"type":"hamlet","location":[9.5779005,47.1104744],"bbox":[9.5579005,47.0904744,9.5979005,47.1304744]}
{"name":"Vorder Prufatscheng","display_name":"Vorder Prufatscheng, Masescha, Triesenberg, 9490, Liechtenstein","address":{"hamlet":"Vorder Prufatscheng","village":"Masescha","postcode":"9490","country":"Liechtenstein","country_code":"li"},"osm_type":"node","osm_id":4461976332,"type":"hamlet","location":[9.5393186,47.1377096],"bbox":[9.5193186,47.1177096,9.5593186,47.1577096]}
{"name":"Gaflei","display_name":"Gaflei, Masescha, Triesenberg, 9490, Liechtenstein","address":{"hamlet":"Gaflei","village":"Masescha","postcode":"9490","country":"Liechtenstein","country_code":"li"},"osm_type":"node","osm_id":4744756149,"type":"hamlet","location":[9.5447613,47.1422814],"bbox":[9.5247613,47.1222814,9.5647613,47.1622814]}
{"name":"Bärg","display_name":"Bärg, Masescha, Triesenberg, 9497, Liechtenstein","address":{"hamlet":"Bärg","village":"Masescha","postcode":"9497","country":"Liechtenstein","country_code":"li"},"osm_type":"node","osm_id":6397222988,"type":"hamlet","location":[9.5451683,47.1388506],"bbox":[9.5251683,47.1188506,9.5651683,47.1588506]}
{"name":"Oberplanken","display_name":"Oberplanken, Planken, 9498, Liechtenstein","address":{"hamlet":"Oberplanken","village":"Planken","ISO3166-2-lvl8":"LI-05","postcode":"9498","country":"Liechtenstein","country_code":"li"},"osm_type":"node","osm_id":32011241,"type":"hamlet","location":[9.5450182,47.178495],"bbox":[9.5250182,47.158495,9.5650182,47.198495]}
{"name":"Hinterschellenberg","other_names":{"name:de":"Hinterschellenberg","alt_name":"Hinterer Schellenberg"},"display_name":"Hinterschellenberg, Schellenberg, 9488, Liechtenstein","address":{"hamlet":"Hinterschellenberg","village":"Schellenberg","ISO3166-2-lvl8":"LI-08","postcode":"9488","country":"Liechtenstein","country_code":"li"},"osm_type":"node","osm_id":4515846077,"type":"hamlet","location":[9.5599727,47.2408099],"bbox":[9.5399727,47.2208099,9.5799727,47.2608099]}
