{"name":"Mājro","other_names":{"name:af":"Majuro","name:am":"ማጁሮ","name:ar":"ماجورو","name:az":"Macuro","name:ba":"Маджуро","name:be":"Маджура","name:bg":"Маджуро","name:bn":"মাজুরো","name:bo":"མ་ཇུ་རོ།","name:br":"Majuro","name:bs":"Majuro","name:ca":"Majuro","name:cs":"Majuro","name:cy":"Majuro","name:da":"Majuro","name:de":"Majuro","name:el":"Ματζούρο","name:en":"Majuro","name:eo":"Majuro","name:es":"Majuro","name:et":"Majuro atoll","name:eu":"Majuro","name:fa":"ماجورو","name:fi":"Majuro","name:fr":"Majuro","name:fy":"Majuro","name:gd":"Majuro","name:gl":"Majuro","name:gn":"Majuro","name:he":"מג'ורו","name:hi":"माजुरो","name:hr":"Majuro","name:ht":"Majouro","name:hu":"Majuro","name:hy":"Մաջուրո","name:id":"Majuro","name:ie":"Majuro","name:io":"Majuro","name:is":"Majúró","name:it":"Majuro","name:ja":"マジュロ","name:ka":"მაჯურო","name:kk":"Маджуро","name:ko":"마주로","name:ky":"Мажeро","name:la":"Madzurum","name:lb":"Majuro","name:lt":"Madžūras","name:lv":"Madžuro","name:mh":"Mājro","name:mk":"Маџуро","name:ml":"മാജുറോ","name:mr":"माजुरो","name:ms":"Majuro","name:nl":"Majuro","name:nn":"Majuro","name:no":"Majuro","name:ny":"Majuro","name:oc":"Majuro","name:os":"Маджуро","name:pa":"ਮਾਜੁਰੋ","name:pl":"Majuro","name:ps":"ماجورو","name:pt":"Majuro","name:ro":"Majuro","name:ru":"Маджуро","name:rw":"Majuro","name:sc":"Majuro","name:sh":"Majuro","name:sk":"Dalap-Uliga-Darrit","name:sl":"Majuro","name:sn":"Majuro","name:sq":"Majuro","name:sr":"Маџуро","name:sv":"Majuro","name:sw":"Majuro","name:ta":"மாசூரோ","name:tg":"Маҷуро","name:th":"มาจูโร","name:tl":"Majuro","name:tr":"Majuro","name:ty":"Majuro","name:uk":"Маджуро","name:ur":"ماجورو","name:uz":"Majuro","name:vi":"Majuro","name:zh":"马朱罗","int_name":"Majuro","name:ast":"Mayuru","name:ceb":"Majuro","name:hak":"Majuro","name:hif":"Majuro","name:lij":"Majuro","name:nah":"Majuro","name:nds":"Majuro-Atoll","name:sah":"Мадьуро","name:sat":"ᱢᱟᱡᱩᱨᱚ","name:sco":"Majuro","name:szl":"Majuro","name:vep":"Madžuro","name:war":"Majuro","name:wuu":"马朱罗","name:xmf":"მაჯურო","name:zh-Hans":"马朱罗","name:zh-Hant":"馬朱羅","name:be-tarask":"Маджура"},"display_name":"Mājro, Ṃajeḷ","address":{"city":"Mājro","ISO3166-2-lvl4":"MH-MAJ","country":"Ṃajeḷ","country_code":"mh"},"population":26000,"osm_type":"node","osm_id":385761740,"type":"city","location":[171.3816354,7.0909924],"bbox":[171.2216354,6.9309924,171.5416354,7.2509924]}
{"name":"Epjā","other_names":{"name:en":"Ebeye","name:mh":"Epjā"},"display_name":"Epjā, Kuwajleen, Ṃajeḷ","address":{"town":"Epjā","island":"Kuwajleen","ISO3166-2-lvl4":"MH-KWA","country":"Ṃajeḷ","country_code":"mh"},"population":13000,"osm_type":"node","osm_id":2683511029,"type":"town","location":[167.7369226,8.7841317],"bbox":[167.6969226,8.7441317,167.7769226,8.8241317]}
{"name":"Delap-Uliga-Darrit","display_name":"Delap-Uliga-Darrit, Mājro, 96060, Ṃajeḷ","address":{"town":"Delap-Uliga-Darrit","city":"Mājro","ISO3166-2-lvl4":"MH-MAJ","postcode":"96060","country":"Ṃajeḷ","country_code":"mh"},"osm_type":"node","osm_id":8144337005,"type":"town","location":[171.3810131,7.0907346],"bbox":[171.3410131,7.0507346,171.4210131,7.1307346]}
{"name":"Woja","display_name":"Woja, Aelōñḷapḷap, Ṃajeḷ","address":{"village":"Woja","island":"Aelōñḷapḷap","ISO3166-2-lvl4":"MH-ALL","country":"Ṃajeḷ","country_code":"mh"},"osm_type":"way","osm_id":262690094,"type":"village","location":[168.5501624,7.441886],"bbox":[168.5489476,7.4263102,168.5565329,7.455215]}
{"name":"Toka","display_name":"Toka, Epoon, Ṃajeḷ","address":{"village":"Toka","island":"Epoon","ISO3166-2-lvl4":"MH-EBO","country":"Ṃajeḷ","country_code":"mh"},"osm_type":"node","osm_id":8144323512,"type":"village","location":[168.6531476,4.6344372],"bbox":[168.6331476,4.6144372,168.6731476,4.6544372]}
{"display_name":"Epoon, Ṃajeḷ","address":{"island":"Epoon","ISO3166-2-lvl4":"MH-EBO","country":"Ṃajeḷ","country_code":"mh"},"osm_type":"node","osm_id":8144323513,"type":"village","location":[168.6981524,4.5808006],"bbox":[168.6781524,4.5608006,168.7181524,4.6008006]}
{"name":"Namorik","display_name":"Namorik, Naṃdik, Ṃajeḷ","address":{"village":"Namorik","island":"Naṃdik","ISO3166-2-lvl4":"MH-NMK","country":"Ṃajeḷ","country_code":"mh"},"osm_type":"node","osm_id":8144323511,"type":"village","location":[168.1041552,5.5980639],"bbox":[168.0841552,5.5780639,168.1241552,5.6180639]}
{"name":"Ebadon","display_name":"Ebadon, Kuwajleen, Ṃajeḷ","address":{"village":"Ebadon","island":"Kuwajleen","ISO3166-2-lvl4":"MH-KWA","country":"Ṃajeḷ","country_code":"mh"},"osm_type":"node","osm_id":8144323497,"type":"village","location":[166.8306947,9.3259452],"bbox":[166.8106947,9.3059452,166.8506947,9.3459452]}
{"name":"Woja","display_name":"Woja, Aelōñḷapḷap, Ṃajeḷ","address":{"village":"Woja","island":"Aelōñḷapḷap","ISO3166-2-lvl4":"MH-ALL","country":"Ṃajeḷ","country_code":"mh"},"osm_type":"node","osm_id":8144323504,"type":"village","location":[168.5501624,7.441886],"bbox":[168.5301624,7.421886,168.5701624,7.461886]}
{"name":"Lib","display_name":"Lib, Ellep, Ṃajeḷ","address":{"village":"Lib","state":"Ellep","ISO3166-2-lvl4":"MH-LIB","country":"Ṃajeḷ","country_code":"mh"},"osm_type":"node","osm_id":8144323501,"type":"village","location":[167.3751471,8.3137405],"bbox":[167.3551471,8.2937405,167.3951471,8.3337405]}
{"name":"Majkin","display_name":"Majkin, Naṃo, Ṃajeḷ","address":{"village":"Majkin","island":"Naṃo","ISO3166-2-lvl4":"MH-NMU","country":"Ṃajeḷ","country_code":"mh"},"osm_type":"node","osm_id":9917110078,"type":"village","location":[168.1762227,8.161901],"bbox":[168.1562227,8.141901,168.1962227,8.181901]}
{"name":"Kanigen","display_name":"Kanigen, Naṃo, Ṃajeḷ","address":{"village":"Kanigen","island":"Naṃo","ISO3166-2-lvl4":"MH-NMU","country":"Ṃajeḷ","country_code":"mh"},"osm_type":"node","osm_id":8144323502,"type":"village","location":[168.180402,8.1585716],"bbox":[168.160402,8.1385716,168.200402,8.1785716]}
{"name":"Ujae","display_name":"Ujae, Ṃajeḷ","address":{"village":"Ujae","island":"Ujae","ISO3166-2-lvl4":"MH-UJA","country":"Ṃajeḷ","country_code":"mh"},"osm_type":"node","osm_id":8144323495,"type":"village","location":[165.760054,8.9319982],"bbox":[165.740054,8.9119982,165.780054,8.9519982]}
{"name":"Lae","display_name":"Lae, Ṃajeḷ","address":{"village":"Lae","island":"Lae","ISO3166-2-lvl4":"MH-LAE","country":"Ṃajeḷ","country_code":"mh"},"osm_type":"node","osm_id":8144323496,"type":"village","location":[166.2638754,8.9227087],"bbox":[166.2438754,8.9027087,166.2838754,8.9427087]}
{"name":"Wotho","display_name":"Wotho, Wōtto, Ṃajeḷ","address":{"village":"Wotho","island":"Wōtto","ISO3166-2-lvl4":"MH-WTH","country":"Ṃajeḷ","country_code":"mh"},"osm_type":"node","osm_id":8144323492,"type":"village","location":[166.0078003,10.1672915],"bbox":[165.9878003,10.1472915,166.0278003,10.1872915]}
{"name":"Rongelap","display_name":"Rongelap, Roñḷap, Ṃajeḷ","address":{"village":"Rongelap","state":"Roñḷap","ISO3166-2-lvl4":"MH-RON","country":"Ṃajeḷ","country_code":"mh"},"osm_type":"node","osm_id":4971337662,"type":"village","location":[166.8925703,11.1620714],"bbox":[166.8725703,11.1420714,166.9125703,11.1820714]}
{"name":"Jabor","other_names":{"name:mh":"Jebwad"},"display_name":"Jabor, Jālwōj, Ṃajeḷ","address":{"village":"Jabor","island":"Jālwōj","ISO3166-2-lvl4":"MH-JAL","country":"Ṃajeḷ","country_code":"mh"},"population":1200,"osm_type":"node","osm_id":2683664685,"type":"village","location":[169.6431445,5.921535],"bbox":[169.6231445,5.901535,169.6631445,5.941535]}
{"name":"Airok","display_name":"Airok, Aelōñḷapḷap, Ṃajeḷ","address":{"village":"Airok","island":"Aelōñḷapḷap","ISO3166-2-lvl4":"MH-ALL","country":"Ṃajeḷ","country_code":"mh"},"osm_type":"node","osm_id":8144323505,"type":"village","location":[168.820906,7.2788932],"bbox":[168.800906,7.2588932,168.840906,7.2988932]}
{"name":"Jelter","display_name":"Jelter, Mājro, Ṃajeḷ","address":{"village":"Jelter","city":"Mājro","ISO3166-2-lvl4":"MH-MAJ","country":"Ṃajeḷ","country_code":"mh"},"osm_type":"node","osm_id":3506092515,"type":"village","location":[171.0613916,7.2189889],"bbox":[171.0413916,7.1989889,171.0813916,7.2389889]}
{"name":"Jeh","display_name":"Jeh, Aelōñḷapḷap, Ṃajeḷ","address":{"village":"Jeh","island":"Aelōñḷapḷap","ISO3166-2-lvl4":"MH-ALL","country":"Ṃajeḷ","country_code":"mh"},"osm_type":"node","osm_id":8144323506,"type":"village","location":[168.9615528,7.5933896],"bbox":[168.9415528,7.5733896,168.9815528,7.6133896]}
{"name":"Jabat","display_name":"Jabat, Jebat, Ṃajeḷ","address":{"village":"Jabat","island":"Jebat","ISO3166-2-lvl4":"MH-JAB","country":"Ṃajeḷ","country_code":"mh"},"osm_type":"node","osm_id":8144323503,"type":"village","location":[168.9750937,7.7520897],"bbox":[168.9550937,7.7320897,168.9950937,7.7720897]}
{"name":"Ḷora","other_names":{"name:en":"Laura","name:mh":"Ḷora"},"display_name":"Ḷora, Mājro, Ṃajeḷ","address":{"village":"Ḷora","city":"Mājro","ISO3166-2-lvl4":"MH-MAJ","country":"Ṃajeḷ","country_code":"mh"},"osm_type":"node","osm_id":2683532519,"type":"village","location":[171.0347816,7.1459467],"bbox":[171.0147816,7.1259467,171.0547816,7.1659467]}
{"name":"Ājej","other_names":{"name:en":"Ejit","name:mh":"Ājej"},"display_name":"Ājej, Mājro, 96960, Ṃajeḷ","address":{"village":"Ājej","city":"Mājro","ISO3166-2-lvl4":"MH-MAJ","postcode":"96960","country":"Ṃajeḷ","country_code":"mh"},"osm_type":"node","osm_id":5203312757,"type":"village","location":[171.3507727,7.1238465],"bbox":[171.3307727,7.1038465,171.3707727,7.1438465]}
{"name":"Arno","display_name":"Arno, Arṇo, Ṃajeḷ","address":{"village":"Arno","island":"Arṇo","ISO3166-2-lvl4":"MH-ARN","country":"Ṃajeḷ","country_code":"mh"},"osm_type":"node","osm_id":8144323507,"type":"village","location":[171.5553478,7.0630059],"bbox":[171.5353478,7.0430059,171.5753478,7.0830059]}
{"name":"Aur","display_name":"Aur, Ṃajeḷ","address":{"village":"Aur","island":"Aur","ISO3166-2-lvl4":"MH-AUR","country":"Ṃajeḷ","country_code":"mh"},"osm_type":"node","osm_id":2683743008,"type":"village","location":[171.1697882,8.1492829],"bbox":[171.1497882,8.1292829,171.1897882,8.1692829]}
{"name":"Kili","display_name":"Kili, Kōle, Ṃajeḷ","address":{"village":"Kili","island":"Kōle","ISO3166-2-lvl4":"MH-KIL","country":"Ṃajeḷ","country_code":"mh"},"osm_type":"node","osm_id":8144323510,"type":"village","location":[169.1195618,5.643323],"bbox":[169.0995618,5.623323,169.1395618,5.663323]}
{"name":"Ine","display_name":"Ine, Arṇo, Ṃajeḷ","address":{"village":"Ine","island":"Arṇo","ISO3166-2-lvl4":"MH-ARN","country":"Ṃajeḷ","country_code":"mh"},"osm_type":"node","osm_id":2685212352,"type":"village","location":[171.6980128,6.9846149],"bbox":[171.6780128,6.9646149,171.7180128,7.0046149]}
{"name":"Mili","display_name":"Mili, Mile, Ṃajeḷ","address":{"village":"Mili","island":"Mile","ISO3166-2-lvl4":"MH-MIL","country":"Ṃajeḷ","country_code":"mh"},"osm_type":"node","osm_id":8144323508,"type":"village","location":[171.7387735,6.0831525],"bbox":[171.7187735,6.0631525,171.7587735,6.1031525]}
{"name":"Enejet","display_name":"Enejet, Mile, Ṃajeḷ","address":{"village":"Enejet","island":"Mile","ISO3166-2-lvl4":"MH-MIL","country":"Ṃajeḷ","country_code":"mh"},"osm_type":"node","osm_id":8144323509,"type":"village","location":[171.9458025,6.0372179],"bbox":[171.9258025,6.0172179,171.9658025,6.0572179]}
{"name":"Kaben","display_name":"Kaben, Ṃaḷoeḷap, Ṃajeḷ","address":{"village":"Kaben","island":"Ṃaḷoeḷap","ISO3166-2-lvl4":"MH-MAL","country":"Ṃajeḷ","country_code":"mh"},"osm_type":"node","osm_id":8144323500,"type":"village","location":[170.8437024,8.892432],"bbox":[170.8237024,8.872432,170.8637024,8.912432]}
{"name":"Airik","display_name":"Airik, Ṃaḷoeḷap, Ṃajeḷ","address":{"village":"Airik","island":"Ṃaḷoeḷap","ISO3166-2-lvl4":"MH-MAL","country":"Ṃajeḷ","country_code":"mh"},"osm_type":"node","osm_id":2684241552,"type":"village","location":[171.1884217,8.4964225],"bbox":[171.1684217,8.4764225,171.2084217,8.5164225]}
{"name":"Taroa","display_name":"Taroa, Ṃaḷoeḷap, Ṃajeḷ","address":{"village":"Taroa","island":"Ṃaḷoeḷap","ISO3166-2-lvl4":"MH-MAL","country":"Ṃajeḷ","country_code":"mh"},"osm_type":"node","osm_id":8144323499,"type":"village","location":[171.2255796,8.7044037],"bbox":[171.2055796,8.6844037,171.2455796,8.7244037]}
{"name":"Likiep","display_name":"Likiep, Ṃajeḷ","address":{"village":"Likiep","state":"Likiep","ISO3166-2-lvl4":"MH-LIK","country":"Ṃajeḷ","country_code":"mh"},"osm_type":"node","osm_id":4971262035,"type":"village","location":[169.3074274,9.8269176],"bbox":[169.2874274,9.8069176,169.3274274,9.8469176]}
{"name":"Kirenmaru","display_name":"Kirenmaru, Likiep, Ṃajeḷ","address":{"village":"Kirenmaru","state":"Likiep","ISO3166-2-lvl4":"MH-LIK","country":"Ṃajeḷ","country_code":"mh"},"osm_type":"node","osm_id":4971292085,"type":"village","location":[169.2616743,9.8959523],"bbox":[169.2416743,9.8759523,169.2816743,9.9159523]}
{"name":"Wotje","display_name":"Wotje, Wōjjā, Ṃajeḷ","address":{"village":"Wotje","island":"Wōjjā","ISO3166-2-lvl4":"MH-WTJ","country":"Ṃajeḷ","country_code":"mh"},"osm_type":"node","osm_id":8144323498,"type":"village","location":[170.2362928,9.4576971],"bbox":[170.2162928,9.4376971,170.2562928,9.4776971]}
{"name":"Meron Island","display_name":"Meron Island, Likiep, Ṃajeḷ","address":{"village":"Meron Island","state":"Likiep","ISO3166-2-lvl4":"MH-LIK","country":"Ṃajeḷ","country_code":"mh"},"osm_type":"node","osm_id":4971292461,"type":"village","location":[169.2708903,9.8912543],"bbox":[169.2508903,9.8712543,169.2908903,9.9112543]}
{"name":"Enewetak","display_name":"Enewetak, Ānewetak, Ṃajeḷ","address":{"village":"Enewetak","islet":"Ānewetak","ISO3166-2-lvl4":"MH-ENI","country":"Ṃajeḷ","country_code":"mh"},"osm_type":"node","osm_id":8144323489,"type":"village","location":[162.3245486,11.3408906],"bbox":[162.3045486,11.3208906,162.3445486,11.3608906]}
{"name":"Ailuk","display_name":"Ailuk, Aelok, Ṃajeḷ","address":{"village":"Ailuk","island":"Aelok","ISO3166-2-lvl4":"MH-ALK","country":"Ṃajeḷ","country_code":"mh"},"osm_type":"node","osm_id":8144323493,"type":"village","location":[169.9801888,10.2212095],"bbox":[169.9601888,10.2012095,170.0001888,10.2412095]}
{"name":"Utirik","display_name":"Utirik, Utrōk, Ṃajeḷ","address":{"village":"Utirik","island":"Utrōk","ISO3166-2-lvl4":"MH-UTI","country":"Ṃajeḷ","country_code":"mh"},"osm_type":"node","osm_id":8144323491,"type":"village","location":[169.8460624,11.2253019],"bbox":[169.8260624,11.2053019,169.8660624,11.2453019]}
{"name":"Mejit","display_name":"Mejit, Mājej, Ṃajeḷ","address":{"village":"Mejit","state":"Mājej","ISO3166-2-lvl4":"MH-MEJ","country":"Ṃajeḷ","country_code":"mh"},"osm_type":"node","osm_id":8144323494,"type":"village","location":[170.8645216,10.2763097],"bbox":[170.8445216,10.2563097,170.8845216,10.2963097]}
{"name":"Bikini","display_name":"Bikini, Kōle, Ṃajeḷ","address":{"village":"Bikini","island":"Kōle","ISO3166-2-lvl4":"MH-KIL","country":"Ṃajeḷ","country_code":"mh"},"osm_type":"node","osm_id":8144323490,"type":"village","location":[165.5457335,11.6263499],"bbox":[165.5257335,11.6063499,165.5657335,11.6463499]}
{"display_name":"Mājro, Ṃajeḷ","address":{"city":"Mājro","ISO3166-2-lvl4":"MH-MAJ","country":"Ṃajeḷ","country_code":"mh"},"osm_type":"node","osm_id":2845371290,"type":"hamlet","location":[171.0784897,7.2167192],"bbox":[171.0584897,7.1967192,171.0984897,7.2367192]}
{"name":"jemo","display_name":"jemo, Likiep, Ṃajeḷ","address":{"hamlet":"jemo","state":"Likiep","ISO3166-2-lvl4":"MH-LIK","country":"Ṃajeḷ","country_code":"mh"},"osm_type":"node","osm_id":243970963,"type":"hamlet","location":[169.5245314,10.0799099],"bbox":[169.5045314,10.0599099,169.5445314,10.0999099]}
