{"name":"Ir-Rabat","other_names":{"name:ar":"الرباط","name:en":"Victoria","name:fr":"Rabat (Victoria)","name:it":"Rabat","name:ru":"Виктория","alt_name":"Rabat;Il-Belt Victoria","nat_name":"Rabat","alt_name:ar":"الرابات","old_name:ar":"فكتوريا","old_name:it":"Rabato del Castello"},"display_name":"Ir-Rabat, Għawdex, Malta","address":{"city":"Ir-Rabat","ISO3166-2-lvl8":"MT-45","state":"Għawdex","country":"Malta","country_code":"mt"},"population":6901,"osm_type":"node","osm_id":129953609,"type":"city","location":[14.2398479,36.0428907],"bbox":[14.0798479,35.8828907,14.3998479,36.2028907]}
{"name":"Valletta","other_names":{"name:am":"ቫሌታ","name:ar":"فاليتا","name:be":"Валета","name:bg":"Валета","name:bn":"ভাল্লেত্তা","name:bo":"ཝ་ལེ་ཐ།","name:br":"Valletta","name:ca":"La Valletta","name:cv":"Валлетта","name:de":"Valletta","name:el":"Βαλέτα","name:en":"Valletta","name:eo":"La-Valeto","name:es":"La Valeta","name:eu":"Valleta","name:fa":"والتا","name:fr":"La Valette","name:ga":"Vaileite","name:gl":"A Valeta","name:he":"ולטה","name:ht":"La Valèt","name:hu":"Valetta","name:hy":"Վալետա","name:is":"Valletta","name:it":"La Valletta","name:ja":"バレッタ","name:ka":"ვალეტა","name:kn":"ವಲೆಟ್ಟ","name:ko":"발레타","name:lt":"Valeta","name:lv":"Valleta","name:mk":"Валета","name:mr":"व्हॅलेटा","name:no":"Valletta","name:oc":"La Valeta","name:os":"Валлеттæ","name:pl":"Valletta","name:pt":"Valeta","name:ru":"Валлетта","name:sk":"Valletta","name:sq":"Valeta","name:sr":"Валета","name:sv":"Valletta","name:ta":"வல்லெட்டா","name:tg":"Валлетта","name:th":"วัลเลตตา","name:tt":"Валлетта","name:uk":"Валлетта","name:wo":"Waleta","name:zh":"瓦萊塔","alt_name":"Il-Belt","name:arz":"فاليتا","name:ckb":"واڵێتا","name:gag":"Valetta","name:gcf":"Valèt","name:lij":"A Valletta","name:lmo":"La Valeta","name:pms":"La Valëtta","name:pnb":"ولیٹا","name:udm":"Валлетта","name:vep":"Vallett","name:yue":"華列他","old_name":"Humilissima Civitas Valletta","alt_name:ar":"فالتة;لا فاليتا","old_name:it":"Città Umilissima","name:sr-Latn":"Valeta","name:zh-Hans":"瓦莱塔","name:be-tarask":"Валета"},"display_name":"Valletta, Xlokk, Malta","address":{"city":"Valletta","ISO3166-2-lvl8":"MT-60","state":"Xlokk","country":"Malta","country_code":"mt"},"population":5721,"osm_type":"node","osm_id":1501909943,"type":"city","location":[14.5136759,35.8989818],"bbox":[14.3536759,35.7389818,14.6736759,36.0589818]}
{"name":"Iż-Żurrieq","other_names":{"name:ar":"الزرياق","name:en":"Żurrieq","name:it":"Zurrico","name:ru":"Зуррик","alt_name:ar":"زرياق","alt_name:en":"Zurrieq"},"display_name":"Iż-Żurrieq, Nofsinhar, Malta","address":{"town":"Iż-Żurrieq","ISO3166-2-lvl8":"MT-68","state":"Nofsinhar","country":"Malta","country_code":"mt"},"population":11823,"osm_type":"node","osm_id":130888701,"type":"town","location":[14.4745172,35.8294676],"bbox":[14.4345172,35.7894676,14.5145172,35.8694676]}
{"name":"Birżebbuġa","other_names":{"name:en":"Birzebbugia","name:it":"Birzebbugia","name:mt":"Birżebbuġa"},"display_name":"Birżebbuġa, Nofsinhar, Malta","address":{"town":"Birżebbuġa","ISO3166-2-lvl8":"MT-05","state":"Nofsinhar","country":"Malta","country_code":"mt"},"population":9736,"osm_type":"node","osm_id":130891133,"type":"town","location":[14.5274189,35.8269478],"bbox":[14.4874189,35.7869478,14.5674189,35.8669478]}
{"name":"Iż-Żejtun","other_names":{"name:ar":"الزيتون","name:en":"Żejtun","name:it":"Zeitun","alt_name:en":"Zejtun"},"display_name":"Iż-Żejtun, Xlokk, Malta","address":{"town":"Iż-Żejtun","ISO3166-2-lvl8":"MT-67","state":"Xlokk","country":"Malta","country_code":"mt"},"population":11508,"osm_type":"node","osm_id":130892778,"type":"town","location":[14.5315311,35.8537008],"bbox":[14.4915311,35.8137008,14.5715311,35.8937008]}
{"name":"Ir-Rabat","other_names":{"name:ar":"الرباط","name:de":"Rabat","name:el":"Ραμπάτ","name:en":"Rabat","name:es":"Rabat","name:it":"Rabat","name:mt":"Ir-Rabat","name:sr":"Рабат","name:ur":"ربط","alt_name:ar":"الرابات","alt_name:it":"Rabato della Notabile"},"display_name":"Ir-Rabat, Tramuntana, Malta","address":{"town":"Ir-Rabat","ISO3166-2-lvl8":"MT-46","state":"Tramuntana","country":"Malta","country_code":"mt"},"population":11497,"osm_type":"node","osm_id":130908825,"type":"town","location":[14.3988213,35.8818906],"bbox":[14.3588213,35.8418906,14.4388213,35.9218906]}
{"name":"L-Imdina","other_names":{"name:ar":"المدينة","name:en":"Mdina","name:it":"Medina","alt_name:ar":"مدينة","alt_name:en":"Città Notabile;Città Vecchia Maleth;Melite;Melita","alt_name:it":"Città Vecchia;Città Notabile"},"display_name":"L-Imdina, Tramuntana, Malta","address":{"town":"L-Imdina","ISO3166-2-lvl8":"MT-29","state":"Tramuntana","country":"Malta","country_code":"mt"},"population":292,"osm_type":"node","osm_id":4224194638,"type":"town","location":[14.4025684,35.8859549],"bbox":[14.3625684,35.8459549,14.4425684,35.9259549]}
{"name":"San Pawl il-Baħar","other_names":{"name:ar":"البحر القديس بولس","name:cs":"Záliv Sv. Pavla","name:en":"Saint Paul's Bay","name:es":"Bahía de San Pablo","name:it":"Baia di San Paolo","name:mt":"San Pawl il-Baħar","name:ru":"Сент-Полс-Бэй"},"display_name":"San Pawl il-Baħar, Tramuntana, Malta","address":{"town":"San Pawl il-Baħar","ISO3166-2-lvl8":"MT-51","state":"Tramuntana","country":"Malta","country_code":"mt"},"population":21046,"osm_type":"node","osm_id":1501825792,"type":"town","location":[14.3973929,35.9480742],"bbox":[14.3573929,35.9080742,14.4373929,35.9880742]}
{"name":"Ħaż-Żebbuġ","other_names":{"alt_name:ar":"زيباغ","alt_name:it":"Casal Zebbugi","old_name:it":"Città Rohan"},"display_name":"Haż-Żebbuġ, Nofsinhar, Malta","address":{"town":"Haż-Żebbuġ","ISO3166-2-lvl8":"MT-66","state":"Nofsinhar","country":"Malta","country_code":"mt"},"population":11903,"osm_type":"node","osm_id":130885854,"type":"town","location":[14.4398593,35.8725956],"bbox":[14.3998593,35.8325956,14.4798593,35.9125956]}
{"name":"Ħ'Attard","other_names":{"name:ar":"عطارد","name:en":"Attard","name:it":"Attard","name:mt":"Ħ'Attard","alt_name:ar":"عطار;أتارد","alt_name:it":"Casal Attard"},"display_name":"Ħ'Attard, Ċentrali, Malta","address":{"town":"Ħ'Attard","ISO3166-2-lvl8":"MT-01","state":"Ċentrali","country":"Malta","country_code":"mt"},"population":10650,"osm_type":"node","osm_id":130910723,"type":"town","location":[14.4430093,35.8909172],"bbox":[14.4030093,35.8509172,14.4830093,35.9309172]}
{"name":"Birkirkara","other_names":{"name:ar":"بئر كيركرة","name:en":"Birkirkara","name:it":"Birchircara","alt_name:ar":"بيركيركارا","alt_name:en":"B'Kara"},"display_name":"Birkirkara, Ċentrali, Malta","address":{"town":"Birkirkara","ISO3166-2-lvl8":"MT-04","state":"Ċentrali","country":"Malta","country_code":"mt"},"population":22247,"osm_type":"node","osm_id":130878486,"type":"town","location":[14.4649578,35.8994547],"bbox":[14.4249578,35.8594547,14.5049578,35.9394547]}
{"name":"Ħal Qormi","other_names":{"name:el":"Όρμι","name:en":"Qormi","name:it":"Curmi","name:lt":"Kormis","name:mt":"Ħal Qormi","name:ru":"Корми"},"display_name":"Ħal Qormi, Nofsinhar, Malta","address":{"town":"Ħal Qormi","ISO3166-2-lvl8":"MT-43","state":"Nofsinhar","country":"Malta","country_code":"mt"},"population":16779,"osm_type":"node","osm_id":130883184,"type":"town","location":[14.4739598,35.877464],"bbox":[14.4339598,35.837464,14.5139598,35.917464]}
{"name":"Il-Ħamrun","other_names":{"name:en":"Hamrun","name:it":"Ħamrun","alt_name:it":"Hamrun","old_name:it":"Casale San Giuseppe"},"display_name":"Il-Ħamrun, Nofsinhar, Malta","address":{"town":"Il-Ħamrun","ISO3166-2-lvl8":"MT-18","state":"Nofsinhar","country":"Malta","country_code":"mt"},"population":9513,"osm_type":"node","osm_id":130881508,"type":"town","location":[14.4854096,35.8867896],"bbox":[14.4454096,35.8467896,14.5254096,35.9267896]}
{"name":"Ta' Xbiex","display_name":"Ta' Xbiex, Ċentrali, Malta","address":{"town":"Ta' Xbiex","ISO3166-2-lvl8":"MT-58","state":"Ċentrali","country":"Malta","country_code":"mt"},"population":1846,"osm_type":"node","osm_id":130864306,"type":"town","location":[14.4948986,35.8991087],"bbox":[14.4548986,35.8591087,14.5348986,35.9391087]}
{"name":"L-Imsida","other_names":{"name:en":"Msida","name:it":"Misida"},"display_name":"L-Imsida, Ċentrali, Malta","address":{"town":"L-Imsida","ISO3166-2-lvl8":"MT-34","state":"Ċentrali","country":"Malta","country_code":"mt"},"population":7623,"osm_type":"node","osm_id":130880844,"type":"town","location":[14.4891829,35.8956943],"bbox":[14.4491829,35.8556943,14.5291829,35.9356943]}
{"name":"Il-Mosta","other_names":{"name:ar":"موستا","name:en":"Mosta","name:it":"Musta","alt_name":"Mosta","alt_name:it":"Casal Musta"},"display_name":"Il-Mosta, Tramuntana, Malta","address":{"town":"Il-Mosta","ISO3166-2-lvl8":"MT-32","state":"Tramuntana","country":"Malta","country_code":"mt"},"population":20241,"osm_type":"node","osm_id":130878149,"type":"town","location":[14.4241508,35.9079178],"bbox":[14.3841508,35.8679178,14.4641508,35.9479178]}
{"name":"In-Naxxar","other_names":{"name:ar":"الناشار","name:en":"Naxxar","name:it":"Nasciaro","name:lt":"Našaras","alt_name:ar":"ناكسار"},"display_name":"In-Naxxar, Tramuntana, Malta","address":{"town":"In-Naxxar","ISO3166-2-lvl8":"MT-38","state":"Tramuntana","country":"Malta","country_code":"mt"},"population":13443,"osm_type":"node","osm_id":130877808,"type":"town","location":[14.4432851,35.9133396],"bbox":[14.4032851,35.8733396,14.4832851,35.9533396]}
{"name":"San Ġwann","other_names":{"name:it":"San Giovanni"},"display_name":"San Ġwann, Ċentrali, Malta","address":{"town":"San Ġwann","ISO3166-2-lvl8":"MT-49","state":"Ċentrali","country":"Malta","country_code":"mt"},"population":12523,"osm_type":"node","osm_id":130869315,"type":"town","location":[14.4788042,35.9093052],"bbox":[14.4388042,35.8693052,14.5188042,35.9493052]}
{"name":"Is-Swieqi","other_names":{"name:en":"Swieqi","name:it":"Suiechi","name:ru":"Свийи"},"display_name":"Is-Swieqi, Tramuntana, Malta","address":{"town":"Is-Swieqi","ISO3166-2-lvl8":"MT-57","state":"Tramuntana","country":"Malta","country_code":"mt"},"population":7749,"osm_type":"node","osm_id":130875582,"type":"town","location":[14.469548,35.9236256],"bbox":[14.429548,35.8836256,14.509548,35.9636256]}
{"name":"Il-Gżira","other_names":{"name:en":"Gżira","name:it":"Gezira","alt_name:en":"Gzira"},"display_name":"Il-Gżira, Ċentrali, Malta","address":{"town":"Il-Gżira","ISO3166-2-lvl8":"MT-12","state":"Ċentrali","country":"Malta","country_code":"mt"},"population":8029,"osm_type":"node","osm_id":130868022,"type":"town","location":[14.4961247,35.9077803],"bbox":[14.4561247,35.8677803,14.5361247,35.9477803]}
{"name":"San Ġiljan","other_names":{"name:en":"Saint Julian's","name:es":"San Julián","name:it":"San Giuliano","name:mt":"San Ġiljan","name:ru":"Сан Джулианс","name:gcf":"Sen Jilyàn"},"display_name":"San Ġiljan, Ċentrali, Malta","address":{"town":"San Ġiljan","ISO3166-2-lvl8":"MT-48","state":"Ċentrali","country":"Malta","country_code":"mt"},"population":10232,"osm_type":"node","osm_id":130871200,"type":"town","location":[14.4877119,35.9199225],"bbox":[14.4477119,35.8799225,14.5277119,35.9599225]}
{"name":"Raħal Ġdid","other_names":{"name:en":"Paola","name:it":"Paola","name:mt":"Raħal Ġdid","alt_name":"Pawla;Paola","alt_name:it":"Casal Paola;Casal Nuovo"},"display_name":"Raħal Ġdid, Xlokk, Malta","address":{"town":"Raħal Ġdid","ISO3166-2-lvl8":"MT-39","state":"Xlokk","country":"Malta","country_code":"mt"},"population":7864,"osm_type":"node","osm_id":130898763,"type":"town","location":[14.5073748,35.8717994],"bbox":[14.4673748,35.8317994,14.5473748,35.9117994]}
{"name":"Pembroke","other_names":{"name:ar":"بيمبروك","name:it":"Pembroke"},"display_name":"Pembroke, Tramuntana, Malta","address":{"town":"Pembroke","ISO3166-2-lvl8":"MT-40","state":"Tramuntana","country":"Malta","country_code":"mt"},"population":3645,"osm_type":"node","osm_id":130913962,"type":"town","location":[14.4795722,35.9281313],"bbox":[14.4395722,35.8881313,14.5195722,35.9681313]}
{"name":"Il-Fgura","other_names":{"name:it":"Figura","alt_name":"Fgura"},"display_name":"Il-Fgura, Xlokk, FGR, Malta","address":{"town":"Il-Fgura","ISO3166-2-lvl8":"MT-08","state":"Xlokk","postcode":"FGR","country":"Malta","country_code":"mt"},"population":11670,"osm_type":"node","osm_id":129953073,"type":"town","location":[14.520799,35.8728325],"bbox":[14.480799,35.8328325,14.560799,35.9128325]}
{"name":"Il-Birgu","other_names":{"name:en":"Birgu","name:it":"Vittoriosa","alt_name":"Vittoriosa;Città Vittoriosa"},"display_name":"Il-Birgu, Xlokk, Malta","address":{"town":"Il-Birgu","ISO3166-2-lvl8":"MT-03","state":"Xlokk","country":"Malta","country_code":"mt"},"population":2629,"osm_type":"node","osm_id":2522930881,"type":"town","location":[14.5238445,35.8881119],"bbox":[14.4838445,35.8481119,14.5638445,35.9281119]}
{"name":"Ħaż-Żabbar","other_names":{"name:ar":"الصبار","name:en":"Zabbar","name:it":"Zabbar","name:mt":"Ħaż-Żabbar","alt_name":"Città Hompesch;Casal Zabbar","alt_name:ar":"جبار","old_name:it":"Zabbaria"},"display_name":"Ħaż-Żabbar, Xlokk, Malta","address":{"town":"Ħaż-Żabbar","ISO3166-2-lvl8":"MT-64","state":"Xlokk","country":"Malta","country_code":"mt"},"population":15404,"osm_type":"node","osm_id":129953030,"type":"town","location":[14.5374788,35.8753368],"bbox":[14.4974788,35.8353368,14.5774788,35.9153368]}
{"name":"L-Isla","other_names":{"name:en":"Senglea","alt_name":"Isla;Città Invicta","int_name":"Senglea","alt_name:en":"Città Invicta;Civitas Invicta","alt_name:it":"Città Senglea"},"display_name":"L-Isla, Xlokk, Malta","address":{"town":"L-Isla","ISO3166-2-lvl8":"MT-20","state":"Xlokk","country":"Malta","country_code":"mt"},"osm_type":"node","osm_id":130931427,"type":"town","location":[14.517307,35.887175],"bbox":[14.477307,35.847175,14.557307,35.927175]}
{"name":"Bormla","other_names":{"name:en":"Cospicua","name:it":"Cospicua","alt_name:en":"Bir Mula;Burmola;Bormola;Città Cospicua;Città Cottonera;Civitas Cottonera","alt_name:it":"Burmola"},"display_name":"Bormla, Xlokk, Malta","address":{"town":"Bormla","ISO3166-2-lvl8":"MT-06","state":"Xlokk","country":"Malta","country_code":"mt"},"population":5395,"osm_type":"node","osm_id":130931433,"type":"town","location":[14.522721,35.8825817],"bbox":[14.482721,35.8425817,14.562721,35.9225817]}
{"name":"Il-Furjana","other_names":{"name:en":"Floriana","name:it":"Floriana","name:mt":"Il-Furjana","alt_name":"Il-Floriana;Borgo Vilhena"},"display_name":"Il-Furjana, Xlokk, Malta","address":{"town":"Il-Furjana","ISO3166-2-lvl8":"MT-09","state":"Xlokk","country":"Malta","country_code":"mt"},"population":2205,"osm_type":"node","osm_id":129953376,"type":"town","location":[14.5052716,35.8929838],"bbox":[14.4652716,35.8529838,14.5452716,35.9329838]}
{"name":"Wied il-Għajn","other_names":{"name:ar":"وادي العين","name:en":"Marsascala","name:it":"Marsascala","name:mt":"Wied il-Għajn","alt_name":"Marsaskala","short_name":"M'Skala","alt_name:ar":"مارساسكالا"},"display_name":"Wied il-Għajn, Xlokk, Malta","address":{"town":"Wied il-Għajn","ISO3166-2-lvl8":"MT-27","state":"Xlokk","country":"Malta","country_code":"mt"},"population":12134,"osm_type":"node","osm_id":130932631,"type":"town","location":[14.5591879,35.8629162],"bbox":[14.5191879,35.8229162,14.5991879,35.9029162]}
{"name":"Tas-Sliema","other_names":{"name:ar":"سليمة","name:en":"Sliema","name:it":"Sliema","name:ru":"Слима","name:zh":"斯利馬"},"display_name":"Tas-Sliema, Ċentrali, Malta","address":{"town":"Tas-Sliema","ISO3166-2-lvl8":"MT-56","state":"Ċentrali","country":"Malta","country_code":"mt"},"population":16854,"osm_type":"node","osm_id":1501849405,"type":"town","location":[14.5020708,35.9127609],"bbox":[14.4620708,35.8727609,14.5420708,35.9527609]}
{"display_name":"Ir-Ramla tal-Mixquqa, Il-Manikata, Il-Mellieħa, Tramuntana, Malta","address":{"natural":"Ir-Ramla tal-Mixquqa","hamlet":"Ir-Ramla tal-Mixquqa","village":"Il-Manikata","state":"Tramuntana","country":"Malta","country_code":"mt"},"osm_type":"way","osm_id":23613923,"type":"beach","location":[14.344614201811318,35.933740349999994],"bbox":[14.343562,35.9327751,14.3453193,35.9346917]}
{"name":"San Blas","display_name":"San Blas, In-Nadur, Għawdex, Malta","address":{"natural":"San Blas","hamlet":"San Blas","village":"In-Nadur","ISO3166-2-lvl8":"MT-37","state":"Għawdex","country":"Malta","country_code":"mt"},"osm_type":"way","osm_id":23863699,"type":"beach","location":[14.300446357316055,36.0570233],"bbox":[14.2999091,36.0567486,14.3011023,36.0573554]}
{"name":"Is-Siġġiewi","other_names":{"name:en":"Siġġiewi","name:it":"Suggeui","alt_name:en":"Siggiewi;Città Ferdinand"},"display_name":"Is-Siġġiewi, Nofsinhar, Malta","address":{"village":"Is-Siġġiewi","ISO3166-2-lvl8":"MT-55","state":"Nofsinhar","country":"Malta","country_code":"mt"},"population":8367,"osm_type":"node","osm_id":130887108,"type":"village","location":[14.438063,35.8539354],"bbox":[14.418063,35.8339354,14.458063,35.8739354]}
{"name":"Il-Qrendi","other_names":{"name:en":"Qrendi","name:it":"Crendi"},"display_name":"Il-Qrendi, Nofsinhar, Malta","address":{"village":"Il-Qrendi","ISO3166-2-lvl8":"MT-44","state":"Nofsinhar","country":"Malta","country_code":"mt"},"population":2752,"osm_type":"node","osm_id":130887975,"type":"village","location":[14.4578698,35.8343586],"bbox":[14.4378698,35.8143586,14.4778698,35.8543586]}
{"name":"L-Imqabba","other_names":{"name:en":"Mqabba","name:it":"Micabba","alt_name:en":"Micabbiba","alt_name:it":"Casal Micabiba"},"display_name":"L-Imqabba, Nofsinhar, Malta","address":{"village":"L-Imqabba","ISO3166-2-lvl8":"MT-33","state":"Nofsinhar","country":"Malta","country_code":"mt"},"population":3315,"osm_type":"node","osm_id":130887770,"type":"village","location":[14.4666263,35.8456802],"bbox":[14.4466263,35.8256802,14.4866263,35.8656802]}
{"name":"Ħal Kirkop","other_names":{"name:it":"Chircop","int_name":"Kirkop"},"display_name":"Ħal Kirkop, Nofsinhar, Malta","address":{"village":"Ħal Kirkop","ISO3166-2-lvl8":"MT-23","state":"Nofsinhar","country":"Malta","country_code":"mt"},"osm_type":"node","osm_id":147767871,"type":"village","location":[14.4844481,35.8419845],"bbox":[14.4644481,35.8219845,14.5044481,35.8619845]}
{"name":"Ħal Safi","other_names":{"name:en":"Safi","name:it":"Safi","name:mt":"Ħal-Safi"},"display_name":"Ħal Safi, Nofsinhar, Malta","address":{"village":"Ħal Safi","ISO3166-2-lvl8":"MT-47","state":"Nofsinhar","country":"Malta","country_code":"mt"},"population":2126,"osm_type":"node","osm_id":130889468,"type":"village","location":[14.4843078,35.8324496],"bbox":[14.4643078,35.8124496,14.5043078,35.8524496]}
{"name":"Il-Gudja","other_names":{"name:en":"Gudja","name:it":"Gudia","alt_name:it":"Casal Gudia"},"display_name":"Il-Gudja, Nofsinhar, Malta","address":{"village":"Il-Gudja","ISO3166-2-lvl8":"MT-11","state":"Nofsinhar","country":"Malta","country_code":"mt"},"population":2997,"osm_type":"node","osm_id":130897442,"type":"village","location":[14.5030882,35.8483258],"bbox":[14.4830882,35.8283258,14.5230882,35.8683258]}
{"name":"Il-Qajjenza","display_name":"Il-Qajjenza, Birżebbuġa, Nofsinhar, BBG 1651, Malta","address":{"village":"Il-Qajjenza","town":"Birżebbuġa","ISO3166-2-lvl8":"MT-05","state":"Nofsinhar","postcode":"BBG 1651","country":"Malta","country_code":"mt"},"osm_type":"node","osm_id":130891753,"type":"village","location":[14.534088,35.8336352],"bbox":[14.514088,35.8136352,14.554088,35.8536352]}
{"name":"Ħal Għaxaq","other_names":{"name:en":"Għaxaq","name:it":"Asciach","name:mt":"Ħal Għaxaq","alt_name:it":"Casal Asciach"},"display_name":"Ħal Għaxaq, Nofsinhar, Malta","address":{"village":"Ħal Għaxaq","ISO3166-2-lvl8":"MT-17","state":"Nofsinhar","country":"Malta","country_code":"mt"},"population":4722,"osm_type":"node","osm_id":130894154,"type":"village","location":[14.5173587,35.8484527],"bbox":[14.4973587,35.8284527,14.5373587,35.8684527]}
{"name":"Marsaxlokk","other_names":{"name:it":"Marsa Scirocco","alt_name:it":"Marsaslocca"},"display_name":"Marsaxlokk, Xlokk, Malta","address":{"village":"Marsaxlokk","ISO3166-2-lvl8":"MT-28","state":"Xlokk","country":"Malta","country_code":"mt"},"population":3534,"osm_type":"node","osm_id":265695880,"type":"village","location":[14.5448353,35.8417662],"bbox":[14.5248353,35.8217662,14.5648353,35.8617662]}
{"name":"Ix-Xlendi","other_names":{"name:en":"Xlendi","name:it":"Xlendi"},"display_name":"Ix-Xlendi, Il-Munxar, Għawdex, SNT 9020, Malta","address":{"village":"Ix-Xlendi","state":"Għawdex","postcode":"SNT 9020","country":"Malta","country_code":"mt"},"osm_type":"node","osm_id":60796220,"type":"village","location":[14.2182656,36.0311977],"bbox":[14.1982656,36.0111977,14.2382656,36.0511977]}
{"name":"Il-Munxar","other_names":{"name:en":"Munxar","name:it":"Monsciar","name:mt":"Il-Munxar","alt_name":"Munxar"},"display_name":"Il-Munxar, Għawdex, Malta","address":{"village":"Il-Munxar","ISO3166-2-lvl8":"MT-36","state":"Għawdex","country":"Malta","country_code":"mt"},"population":1454,"osm_type":"node","osm_id":3898922157,"type":"village","location":[14.2347898,36.0306654],"bbox":[14.2147898,36.0106654,14.2547898,36.0506654]}
{"name":"L-Imtarfa","other_names":{"name:ar":"المطرفة","name:en":"Mtarfa","name:it":"Marfa","alt_name:ar":"مطرفة"},"display_name":"L-Imtarfa, Tramuntana, Malta","address":{"village":"L-Imtarfa","ISO3166-2-lvl8":"MT-35","state":"Tramuntana","country":"Malta","country_code":"mt"},"population":2572,"osm_type":"node","osm_id":130908195,"type":"village","location":[14.3978902,35.8915754],"bbox":[14.3778902,35.8715754,14.4178902,35.9115754]}
{"name":"Ħad-Dingli","other_names":{"name:el":"Ντίνγκλι","name:en":"Dingli","name:it":"Dingli","name:zh":"丁利"},"display_name":"Ħad-Dingli, Tramuntana, Malta","address":{"village":"Ħad-Dingli","ISO3166-2-lvl8":"MT-07","state":"Tramuntana","country":"Malta","country_code":"mt"},"population":3608,"osm_type":"node","osm_id":585147802,"type":"village","location":[14.3816818,35.8604202],"bbox":[14.3616818,35.8404202,14.4016818,35.8804202]}
{"name":"L-Imġarr","other_names":{"name:it":"Mugiarro","name:ru":"Мджарр","alt_name":"Mġarr","old_name":"Mgiarro"},"display_name":"L-Imġarr, Tramuntana, Malta","address":{"village":"L-Imġarr","ISO3166-2-lvl8":"MT-31","state":"Tramuntana","country":"Malta","country_code":"mt"},"population":3629,"osm_type":"node","osm_id":3762432570,"type":"village","location":[14.3665109,35.9194409],"bbox":[14.3465109,35.8994409,14.3865109,35.9394409]}
{"name":"Il-Manikata","other_names":{"name:en":"Manikata","alt_name":"Manikata"},"display_name":"Il-Manikata, Il-Mellieħa, Tramuntana, MLH 5530, Malta","address":{"village":"Il-Manikata","state":"Tramuntana","postcode":"MLH 5530","country":"Malta","country_code":"mt"},"population":539,"osm_type":"node","osm_id":130924028,"type":"village","location":[14.3537646,35.9407206],"bbox":[14.3337646,35.9207206,14.3737646,35.9607206]}
{"name":"Ta' Sannat","other_names":{"name:en":"Sannat","name:it":"Sannat","alt_name:it":"Casal Sannat"},"display_name":"Ta' Sannat, Għawdex, Malta","address":{"village":"Ta' Sannat","ISO3166-2-lvl8":"MT-52","state":"Għawdex","country":"Malta","country_code":"mt"},"population":2117,"osm_type":"node","osm_id":131727357,"type":"village","location":[14.2429017,36.0273022],"bbox":[14.2229017,36.0073022,14.2629017,36.0473022]}
{"name":"L-Imġarr","other_names":{"name:en":"Mġarr","name:it":"Mugiarro","alt_name":"Mġarr"},"display_name":"L-Imġarr, Għajnsielem, Għawdex, NDR 1011, Malta","address":{"village":"L-Imġarr","state":"Għawdex","postcode":"NDR 1011","country":"Malta","country_code":"mt"},"osm_type":"node","osm_id":131729697,"type":"village","location":[14.2964033,36.0245447],"bbox":[14.2764033,36.0045447,14.3164033,36.0445447]}
{"name":"Għajnsielem","other_names":{"name:ar":"عين السلام","name:en":"Għajnsielem","name:it":"Ghain Sielem","alt_name:ar":"غاينسييليم","alt_name:it":"Casale Ghain Sielem"},"display_name":"Għajnsielem, Għawdex, Malta","address":{"village":"Għajnsielem","ISO3166-2-lvl8":"MT-13","state":"Għawdex","country":"Malta","country_code":"mt"},"population":3200,"osm_type":"node","osm_id":131729018,"type":"village","location":[14.2871759,36.0288642],"bbox":[14.2671759,36.0088642,14.3071759,36.0488642]}
{"name":"Ix-Xewkija","other_names":{"name:en":"Xewkija","name:it":"Xeuchia","name:mt":"Ix-Xewkija","alt_name:it":"Casal Xeuchia"},"display_name":"Ix-Xewkija, Għawdex, Malta","address":{"village":"Ix-Xewkija","ISO3166-2-lvl8":"MT-62","state":"Għawdex","country":"Malta","country_code":"mt"},"population":3300,"osm_type":"node","osm_id":131726606,"type":"village","location":[14.2609952,36.0323529],"bbox":[14.2409952,36.0123529,14.2809952,36.0523529]}
{"name":"Ix-Xemxija","other_names":{"int_name":"Xemxija"},"display_name":"Ix-Xemxija, San Pawl il-Baħar, Tramuntana, SPB 3418, Malta","address":{"village":"Ix-Xemxija","town":"San Pawl il-Baħar","ISO3166-2-lvl8":"MT-51","state":"Tramuntana","postcode":"SPB 3418","country":"Malta","country_code":"mt"},"osm_type":"node","osm_id":383483008,"type":"village","location":[14.3838712,35.9490125],"bbox":[14.3638712,35.9290125,14.4038712,35.9690125]}
{"name":"Il-Mellieħa","other_names":{"name:en":"Mellieha","name:it":"Mellea","name:ru":"Меллиха","alt_name":"Mellieħa","alt_name:it":"Casal Melleha"},"display_name":"Il-Mellieħa, Tramuntana, Malta","address":{"village":"Il-Mellieħa","ISO3166-2-lvl8":"MT-30","state":"Tramuntana","country":"Malta","country_code":"mt"},"population":10087,"osm_type":"node","osm_id":130923717,"type":"village","location":[14.368367,35.9599618],"bbox":[14.348367,35.9399618,14.388367,35.9799618]}
{"name":"San Lawrenz","other_names":{"name:en":"Saint Lawrence","name:it":"San Lorenzo","name:ru":"Сан Лоренц"},"display_name":"San Lawrenz, Għawdex, Malta","address":{"village":"San Lawrenz","ISO3166-2-lvl8":"MT-50","state":"Għawdex","country":"Malta","country_code":"mt"},"population":748,"osm_type":"node","osm_id":131745085,"type":"village","location":[14.2039503,36.0553005],"bbox":[14.1839503,36.0353005,14.2239503,36.0753005]}
{"name":"Buġibba","other_names":{"name:ru":"Буджибба"},"display_name":"Buġibba, San Pawl il-Baħar, Tramuntana, SPB 3015, Malta","address":{"village":"Buġibba","town":"San Pawl il-Baħar","ISO3166-2-lvl8":"MT-51","state":"Tramuntana","postcode":"SPB 3015","country":"Malta","country_code":"mt"},"osm_type":"node","osm_id":291986788,"type":"village","location":[14.4105059,35.9483211],"bbox":[14.3905059,35.9283211,14.4305059,35.9683211]}
{"name":"Il-Fontana","other_names":{"name:en":"Fontana","name:it":"Fontana","alt_name":"Fontana;It-Triq Tal-Għajn","alt_name:it":"La via della sorgente"},"display_name":"Il-Fontana, Għawdex, Malta","address":{"village":"Il-Fontana","ISO3166-2-lvl8":"MT-10","state":"Għawdex","country":"Malta","country_code":"mt"},"population":985,"osm_type":"node","osm_id":131756121,"type":"village","location":[14.2370014,36.038744],"bbox":[14.2170014,36.018744,14.2570014,36.058744]}
{"name":"Ta' Kerċem","other_names":{"name:en":"Kerċem","name:it":"Chercem","alt_name:en":"Kercem"},"display_name":"Ta' Kerċem, Għawdex, Malta","address":{"village":"Ta' Kerċem","ISO3166-2-lvl8":"MT-22","state":"Għawdex","country":"Malta","country_code":"mt"},"population":1938,"osm_type":"node","osm_id":131748932,"type":"village","location":[14.228056,36.0416854],"bbox":[14.208056,36.0216854,14.248056,36.0616854]}
{"name":"L-Għarb","other_names":{"name:ar":"الغرب","name:en":"Għarb","name:it":"Garbo","alt_name:en":"Gharb","alt_name:it":"Casal Garbo"},"display_name":"L-Għarb, Għawdex, Malta","address":{"village":"L-Għarb","ISO3166-2-lvl8":"MT-14","state":"Għawdex","country":"Malta","country_code":"mt"},"population":1539,"osm_type":"node","osm_id":131745512,"type":"village","location":[14.209081,36.0598182],"bbox":[14.189081,36.0398182,14.229081,36.0798182]}
{"name":"L-Għasri","other_names":{"name:en":"Għasri","name:it":"Ghasri"},"display_name":"L-Għasri, Għawdex, Malta","address":{"village":"L-Għasri","ISO3166-2-lvl8":"MT-16","state":"Għawdex","country":"Malta","country_code":"mt"},"population":525,"osm_type":"node","osm_id":131747333,"type":"village","location":[14.22173,36.0655404],"bbox":[14.20173,36.0455404,14.24173,36.0855404]}
{"name":"Iż-Żebbuġ","other_names":{"name:en":"Żebbuġ","name:it":"Zebbug","alt_name:it":"Casal Zebbug"},"display_name":"Iż-Żebbuġ, Għawdex, Malta","address":{"village":"Iż-Żebbuġ","ISO3166-2-lvl8":"MT-65","state":"Għawdex","country":"Malta","country_code":"mt"},"osm_type":"node","osm_id":131744241,"type":"village","location":[14.2370559,36.0732721],"bbox":[14.2170559,36.0532721,14.2570559,36.0932721]}
{"name":"Marsalforn","other_names":{"name:it":"Marsalforn","alt_name":"Marsa el-Forn","short_name":"M'Forn","old_name:it":"Marsalfora"},"display_name":"Marsalforn, Iż-Żebbuġ, Għawdex, MFN 1211, Malta","address":{"village":"Marsalforn","state":"Għawdex","postcode":"MFN 1211","country":"Malta","country_code":"mt"},"osm_type":"node","osm_id":131740645,"type":"village","location":[14.2598063,36.0708915],"bbox":[14.2398063,36.0508915,14.2798063,36.0908915]}
{"name":"Ix-Xagħra","other_names":{"name:en":"Xaghra","name:it":"Caccia","alt_name":"Xagħra","alt_name:it":"Casal Caccia"},"display_name":"Ix-Xagħra, Għawdex, Malta","address":{"village":"Ix-Xagħra","ISO3166-2-lvl8":"MT-61","state":"Għawdex","country":"Malta","country_code":"mt"},"population":4886,"osm_type":"node","osm_id":131739777,"type":"village","location":[14.2648446,36.0502996],"bbox":[14.2448446,36.0302996,14.2848446,36.0702996]}
{"name":"In-Nadur","other_names":{"name:ar":"المنظر","name:en":"Nadur","name:it":"Nadur"},"display_name":"In-Nadur, Għawdex, Malta","address":{"village":"In-Nadur","ISO3166-2-lvl8":"MT-37","state":"Għawdex","country":"Malta","country_code":"mt"},"population":4509,"osm_type":"node","osm_id":131731120,"type":"village","location":[14.2934514,36.0389956],"bbox":[14.2734514,36.0189956,14.3134514,36.0589956]}
{"name":"Il-Qala","other_names":{"name:en":"Qala","name:it":"La Cala"},"display_name":"Il-Qala, Għawdex, Malta","address":{"village":"Il-Qala","ISO3166-2-lvl8":"MT-42","state":"Għawdex","country":"Malta","country_code":"mt"},"population":2294,"osm_type":"node","osm_id":131731405,"type":"village","location":[14.3103502,36.036291],"bbox":[14.2903502,36.016291,14.3303502,36.056291]}
{"name":"Ħal Balzan","other_names":{"name:en":"Balzan","name:it":"Balzan","alt_name:it":"Casal Balzan"},"display_name":"Ħal Balzan, Ċentrali, Malta","address":{"village":"Ħal Balzan","ISO3166-2-lvl8":"MT-02","state":"Ċentrali","country":"Malta","country_code":"mt"},"population":3869,"osm_type":"node","osm_id":804649276,"type":"village","location":[14.4510172,35.8986113],"bbox":[14.4310172,35.8786113,14.4710172,35.9186113]}
{"name":"Ħal Lija","other_names":{"name:en":"Lija","name:it":"Lia","alt_name:it":"Casal Lia"},"display_name":"Ħal Lija, Ċentrali, Malta","address":{"village":"Ħal Lija","ISO3166-2-lvl8":"MT-24","state":"Ċentrali","country":"Malta","country_code":"mt"},"population":3070,"osm_type":"node","osm_id":3678514908,"type":"village","location":[14.4476136,35.901766],"bbox":[14.4276136,35.881766,14.4676136,35.921766]}
{"name":"Ħal Luqa","other_names":{"name:en":"Luqa","name:it":"Luca","name:mt":"Ħal-Luqa"},"display_name":"Ħal Luqa, Nofsinhar, Malta","address":{"village":"Ħal Luqa","ISO3166-2-lvl8":"MT-25","state":"Nofsinhar","country":"Malta","country_code":"mt"},"population":6162,"osm_type":"node","osm_id":130903626,"type":"village","location":[14.4892913,35.859653],"bbox":[14.4692913,35.839653,14.5092913,35.879653]}
{"name":"Tal-Pietà","other_names":{"name:en":"Pietà","name:it":"Pietà"},"display_name":"Tal-Pietà, Ċentrali, Malta","address":{"village":"Tal-Pietà","ISO3166-2-lvl8":"MT-41","state":"Ċentrali","country":"Malta","country_code":"mt"},"population":4020,"osm_type":"node","osm_id":5060274942,"type":"village","location":[14.4934881,35.892353],"bbox":[14.4734881,35.872353,14.5134881,35.912353]}
{"name":"Il-Marsa","other_names":{"name:ar":"المرسى","name:en":"Marsa","name:it":"Marsa","name:ru":"Марса","alt_name:ar":"مرسى"},"display_name":"Il-Marsa, Xlokk, Malta","address":{"village":"Il-Marsa","ISO3166-2-lvl8":"MT-26","state":"Xlokk","country":"Malta","country_code":"mt"},"population":4401,"osm_type":"node","osm_id":3776530606,"type":"village","location":[14.4944898,35.882892],"bbox":[14.4744898,35.862892,14.5144898,35.902892]}
{"name":"Santa Venera","display_name":"Santa Venera, Ċentrali, Malta","address":{"village":"Santa Venera","ISO3166-2-lvl8":"MT-54","state":"Ċentrali","country":"Malta","country_code":"mt"},"osm_type":"node","osm_id":1313975722,"type":"village","location":[14.4802386,35.8897878],"bbox":[14.4602386,35.8697878,14.5002386,35.9097878]}
{"name":"L-Iklin","other_names":{"name:en":"Iklin","name:it":"L'Iclin"},"display_name":"L-Iklin, Ċentrali, Malta","address":{"village":"L-Iklin","ISO3166-2-lvl8":"MT-19","state":"Ċentrali","country":"Malta","country_code":"mt"},"population":3130,"osm_type":"node","osm_id":130915119,"type":"village","location":[14.4521273,35.911112],"bbox":[14.4321273,35.891112,14.4721273,35.931112]}
{"name":"Baħar iċ-Ċagħaq","display_name":"Baħar iċ-Ċagħaq, In-Naxxar, Tramuntana, NXR 9038, Malta","address":{"village":"Baħar iċ-Ċagħaq","town":"In-Naxxar","ISO3166-2-lvl8":"MT-38","state":"Tramuntana","postcode":"NXR 9038","country":"Malta","country_code":"mt"},"osm_type":"node","osm_id":263889918,"type":"village","location":[14.4547751,35.9384582],"bbox":[14.4347751,35.9184582,14.4747751,35.9584582]}
{"name":"Ħal Għargħur","other_names":{"name:en":"Gharghur","name:it":"Gargur","alt_name":"Għargħur","name:gcf":"Gagouy","alt_name:it":"Casal Gargur"},"display_name":"Ħal Għargħur, Tramuntana, Malta","address":{"village":"Ħal Għargħur","ISO3166-2-lvl8":"MT-15","state":"Tramuntana","country":"Malta","country_code":"mt"},"population":2768,"osm_type":"node","osm_id":130913009,"type":"village","location":[14.4531676,35.9240307],"bbox":[14.4331676,35.9040307,14.4731676,35.9440307]}
{"name":"Ħal Tarxien","other_names":{"name:en":"Tarxien","name:it":"Tarscen","alt_name:it":"Tarxen;Casal Tarxen"},"display_name":"Ħal Tarxien, Xlokk, Malta","address":{"village":"Ħal Tarxien","ISO3166-2-lvl8":"MT-59","state":"Xlokk","country":"Malta","country_code":"mt"},"population":8583,"osm_type":"node","osm_id":599173875,"type":"village","location":[14.5114877,35.8648857],"bbox":[14.4914877,35.8448857,14.5314877,35.8848857]}
{"name":"Santa Luċija","other_names":{"name:it":"Santa Lucia","name:ru":"Санта-Лучия"},"display_name":"Santa Luċija, Nofsinhar, Malta","address":{"village":"Santa Luċija","ISO3166-2-lvl8":"MT-53","state":"Nofsinhar","country":"Malta","country_code":"mt"},"population":2997,"osm_type":"node","osm_id":130898149,"type":"village","location":[14.5047695,35.8627784],"bbox":[14.4847695,35.8427784,14.5247695,35.8827784]}
{"name":"Il-Kalkara","other_names":{"name:en":"Kalkara","name:it":"Calcara","name:mt":"Il-Kalkara"},"display_name":"Il-Kalkara, Xlokk, Malta","address":{"village":"Il-Kalkara","ISO3166-2-lvl8":"MT-21","state":"Xlokk","country":"Malta","country_code":"mt"},"population":3014,"osm_type":"node","osm_id":130930586,"type":"village","location":[14.5290867,35.8898771],"bbox":[14.5090867,35.8698771,14.5490867,35.9098771]}
{"name":"Ix-Xgħajra","other_names":{"name:en":"Xgħajra","name:it":"Sciaira","name:lt":"Šgaira"},"display_name":"Ix-Xgħajra, Xlokk, Malta","address":{"village":"Ix-Xgħajra","ISO3166-2-lvl8":"MT-63","state":"Xlokk","country":"Malta","country_code":"mt"},"population":1732,"osm_type":"node","osm_id":130930250,"type":"village","location":[14.5478673,35.8880709],"bbox":[14.5278673,35.8680709,14.5678673,35.9080709]}
{"name":"Il-Qawra","other_names":{"name:en":"Qawra","name:it":"Qawra","name:mt":"Il-Qawra","old_name:it":"Casal Caura"},"display_name":"Il-Qawra, San Pawl il-Baħar, Tramuntana, SPB 1772, Malta","address":{"village":"Il-Qawra","town":"San Pawl il-Baħar","ISO3166-2-lvl8":"MT-51","state":"Tramuntana","postcode":"SPB 1772","country":"Malta","country_code":"mt"},"osm_type":"node","osm_id":5044930113,"type":"village","location":[14.4198078,35.9541286],"bbox":[14.3998078,35.9341286,14.4398078,35.9741286]}
{"name":"Komunita San Blas","display_name":"Komunita San Blas, Haż-Żebbuġ, Nofsinhar, Malta","address":{"hamlet":"Komunita San Blas","town":"Haż-Żebbuġ","ISO3166-2-lvl8":"MT-66","state":"Nofsinhar","country":"Malta","country_code":"mt"},"osm_type":"way","osm_id":222914228,"type":"hamlet","location":[14.425855865643156,35.87085675],"bbox":[14.4250032,35.8702865,14.4267117,35.8714273]}
{"name":"Wied iż-Żurrieq","other_names":{"name:ar":"وادي الزرياق"},"display_name":"Wied iż-Żurrieq, Il-Qrendi, Nofsinhar, QRD 3043, Malta","address":{"hamlet":"Wied iż-Żurrieq","village":"Il-Qrendi","ISO3166-2-lvl8":"MT-44","state":"Nofsinhar","postcode":"QRD 3043","country":"Malta","country_code":"mt"},"osm_type":"node","osm_id":146670300,"type":"hamlet","location":[14.4529936,35.819672],"bbox":[14.4329936,35.799672,14.4729936,35.839672]}
{"name":"Għar Lapsi","other_names":{"name:ar":"غار لابسي"},"display_name":"Għar Lapsi, Is-Siġġiewi, Nofsinhar, QRD 3043, Malta","address":{"hamlet":"Għar Lapsi","village":"Is-Siġġiewi","ISO3166-2-lvl8":"MT-55","state":"Nofsinhar","postcode":"QRD 3043","country":"Malta","country_code":"mt"},"osm_type":"node","osm_id":149137491,"type":"hamlet","location":[14.4231859,35.8270964],"bbox":[14.4031859,35.8070964,14.4431859,35.8470964]}
{"name":"Landrijiet","display_name":"Landrijiet, Ir-Rabat, Tramuntana, RBT 4017, Malta","address":{"hamlet":"Landrijiet","town":"Ir-Rabat","ISO3166-2-lvl8":"MT-46","state":"Tramuntana","postcode":"RBT 4017","country":"Malta","country_code":"mt"},"osm_type":"node","osm_id":1421803481,"type":"hamlet","location":[14.3648857,35.8862454],"bbox":[14.3448857,35.8662454,14.3848857,35.9062454]}
{"display_name":"Ir-Rabat, Tramuntana, MGR 1502, Malta","address":{"town":"Ir-Rabat","ISO3166-2-lvl8":"MT-46","state":"Tramuntana","postcode":"MGR 1502","country":"Malta","country_code":"mt"},"osm_type":"node","osm_id":1276538951,"type":"hamlet","location":[14.3629783,35.8925246],"bbox":[14.3429783,35.8725246,14.3829783,35.9125246]}
{"display_name":"Ir-Rabat, Tramuntana, RBT 4017, Malta","address":{"town":"Ir-Rabat","ISO3166-2-lvl8":"MT-46","state":"Tramuntana","postcode":"RBT 4017","country":"Malta","country_code":"mt"},"osm_type":"node","osm_id":1276539095,"type":"hamlet","location":[14.3683771,35.8891859],"bbox":[14.3483771,35.8691859,14.3883771,35.9091859]}
{"name":"Burmarrad","other_names":{"name:en":"Burmarrad"},"display_name":"Burmarrad, San Pawl il-Baħar, Tramuntana, SPB 6101, Malta","address":{"hamlet":"Burmarrad","town":"San Pawl il-Baħar","ISO3166-2-lvl8":"MT-51","state":"Tramuntana","postcode":"SPB 6101","country":"Malta","country_code":"mt"},"osm_type":"node","osm_id":130921179,"type":"hamlet","location":[14.4132571,35.9352218],"bbox":[14.3932571,35.9152218,14.4332571,35.9552218]}
{"name":"Wardija","display_name":"Wardija, Ix-Xemxija, San Pawl il-Baħar, Tramuntana, SPB 3418, Malta","address":{"hamlet":"Wardija","village":"Ix-Xemxija","town":"San Pawl il-Baħar","ISO3166-2-lvl8":"MT-51","state":"Tramuntana","postcode":"SPB 3418","country":"Malta","country_code":"mt"},"osm_type":"node","osm_id":4615889140,"type":"hamlet","location":[14.3929768,35.9374111],"bbox":[14.3729768,35.9174111,14.4129768,35.9574111]}
{"name":"Iż-Żebbiegħ","other_names":{"int_name":"Zebbiegh"},"display_name":"Iż-Żebbiegħ, L-Imġarr, Tramuntana, MGR 1502, Malta","address":{"hamlet":"Iż-Żebbiegħ","village":"L-Imġarr","ISO3166-2-lvl8":"MT-31","state":"Tramuntana","postcode":"MGR 1502","country":"Malta","country_code":"mt"},"osm_type":"node","osm_id":130925344,"type":"hamlet","location":[14.3763807,35.919825],"bbox":[14.3563807,35.899825,14.3963807,35.939825]}
{"name":"Santa Luċija","display_name":"Santa Luċija, Ta' Kerċem, Għawdex, SLZ 1040, Malta","address":{"hamlet":"Santa Luċija","village":"Ta' Kerċem","ISO3166-2-lvl8":"MT-22","state":"Għawdex","postcode":"SLZ 1040","country":"Malta","country_code":"mt"},"osm_type":"node","osm_id":131787043,"type":"hamlet","location":[14.217684,36.0432761],"bbox":[14.197684,36.0232761,14.237684,36.0632761]}
{"name":"Ghammar","display_name":"Ghammar, L-Għasri, Għawdex, GSR 1250, Malta","address":{"hamlet":"Ghammar","village":"L-Għasri","ISO3166-2-lvl8":"MT-16","state":"Għawdex","postcode":"GSR 1250","country":"Malta","country_code":"mt"},"osm_type":"node","osm_id":3956325372,"type":"hamlet","location":[14.2183259,36.0660159],"bbox":[14.1983259,36.0460159,14.2383259,36.0860159]}
{"name":"Il-Qbajjar","display_name":"Il-Qbajjar, Marsalforn, Iż-Żebbuġ, Għawdex, MFN 1211, Malta","address":{"hamlet":"Il-Qbajjar","village":"Marsalforn","state":"Għawdex","postcode":"MFN 1211","country":"Malta","country_code":"mt"},"osm_type":"node","osm_id":131742941,"type":"hamlet","location":[14.2555954,36.0761164],"bbox":[14.2355954,36.0561164,14.2755954,36.0961164]}
{"name":"Daħlet Qorrot","display_name":"Daħlet Qorrot, In-Nadur, Għawdex, QLA 1930, Malta","address":{"hamlet":"Daħlet Qorrot","village":"In-Nadur","ISO3166-2-lvl8":"MT-37","state":"Għawdex","postcode":"QLA 1930","country":"Malta","country_code":"mt"},"osm_type":"node","osm_id":156270985,"type":"hamlet","location":[14.3166335,36.0487838],"bbox":[14.2966335,36.0287838,14.3366335,36.0687838]}
{"name":"Ta' Qali","display_name":"Ta' Qali, Ħ'Attard, Ċentrali, MST 4128, Malta","address":{"hamlet":"Ta' Qali","town":"Ħ'Attard","ISO3166-2-lvl8":"MT-01","state":"Ċentrali","postcode":"MST 4128","country":"Malta","country_code":"mt"},"osm_type":"node","osm_id":130910013,"type":"hamlet","location":[14.4196785,35.8923492],"bbox":[14.3996785,35.8723492,14.4396785,35.9123492]}
{"name":"Fleur-de-Lys","display_name":"Fleur-de-Lys, Birkirkara, Ċentrali, BKR 9077, Malta","address":{"hamlet":"Fleur-de-Lys","town":"Birkirkara","ISO3166-2-lvl8":"MT-04","state":"Ċentrali","postcode":"BKR 9077","country":"Malta","country_code":"mt"},"osm_type":"node","osm_id":130879557,"type":"hamlet","location":[14.4716185,35.892982],"bbox":[14.4516185,35.872982,14.4916185,35.912982]}
