{"name":"Quatre Bornes","other_names":{"alt_name":"Quatre-Bornes","loc_name:en":"The City of Flowers","loc_name:fr":"La Ville des Fleurs"},"display_name":"Quatre Bornes, Plaines Wilhems, Outer islands of Mauritius, 72208, Mauritius / Maurice","address":{"city":"Quatre Bornes","county":"Quatre Bornes","state":"Plaines Wilhems","ISO3166-2-lvl4":"MU-PW","region":"Outer islands of Mauritius","postcode":"72208","country":"Mauritius / Maurice","country_code":"mu"},"population":81773,"osm_type":"node","osm_id":245557798,"type":"city","location":[57.4800061,-20.2643015],"bbox":[57.3200061,-20.4243015,57.6400061,-20.1043015]}
{"name":"Beau Bassin-Rose Hill","other_names":{"name:en":"Beau Bassin-Rose Hill","name:fr":"Beau Bassin-Rose Hill","alt_name":"Beau Bassin - Rose Hill","alt_name:fr":"Beau-Bassin - Rose-Hill","loc_name:en":"The Sister Cities","loc_name:fr":"Les Villes-Sœurs"},"display_name":"Beau Bassin-Rose Hill, Plaines Wilhems, Outer islands of Mauritius, 71510, Mauritius / Maurice","address":{"city":"Beau Bassin-Rose Hill","county":"Beau Bassin-Rose Hill","state":"Plaines Wilhems","ISO3166-2-lvl4":"MU-PW","region":"Outer islands of Mauritius","postcode":"71510","country":"Mauritius / Maurice","country_code":"mu"},"population":96000,"osm_type":"node","osm_id":2166853543,"type":"city","location":[57.4693447,-20.234269],"bbox":[57.3093447,-20.394269,57.6293447,-20.074269]}
{"name":"Curepipe","other_names":{"name:en":"Curepipe","name:fr":"Curepipe","loc_name:en":"The City of Light","loc_name:fr":"La Ville-Lumière"},"display_name":"Curepipe, Plaines Wilhems, Outer islands of Mauritius, 74321, Mauritius / Maurice","address":{"city":"Curepipe","county":"Curepipe","state":"Plaines Wilhems","ISO3166-2-lvl4":"MU-PW","region":"Outer islands of Mauritius","postcode":"74321","country":"Mauritius / Maurice","country_code":"mu"},"population":81600,"osm_type":"node","osm_id":2642246014,"type":"city","location":[57.5211497,-20.3150516],"bbox":[57.3611497,-20.4750516,57.6811497,-20.1550516]}
{"name":"Vacoas-Phoenix","other_names":{"name:en":"Vacoas-Phoenix","name:fr":"Vacoas-Phœnix","name:lt":"Vakoasas-Finiksas","alt_name":"Vacoas-Phœnix","loc_name:en":"The Twin Cities","loc_name:fr":"Les Villes Jumelles"},"display_name":"Vacoas-Phoenix, Vacoas / Phoenix, Plaines Wilhems, Outer islands of Mauritius, 74107, Mauritius / Maurice","address":{"city":"Vacoas-Phoenix","county":"Vacoas / Phoenix","state":"Plaines Wilhems","ISO3166-2-lvl4":"MU-PW","region":"Outer islands of Mauritius","postcode":"74107","country":"Mauritius / Maurice","country_code":"mu"},"population":107678,"osm_type":"node","osm_id":365764030,"type":"city","location":[57.4978036,-20.2933761],"bbox":[57.3378036,-20.4533761,57.6578036,-20.1333761]}
{"name":"Port Louis","other_names":{"name:af":"Port Louis","name:am":"ፖርት ሉዊስ","name:an":"Port-Louis","name:ar":"بورت لويس","name:az":"Port Luiz","name:be":"Порт-Луі","name:bg":"Порт Луи","name:bn":"পোর্ট লুইস","name:bo":"ལོ་ཡི་སི་གྲུ་ཁ།","name:br":"Port Louis","name:bs":"Port Louis","name:ca":"Port Louis","name:ce":"Порт-Луи","name:cs":"Port Louis","name:cv":"Порт Луи","name:cy":"Port Louis","name:da":"Port Louis","name:de":"Port Louis","name:el":"Πορ Λουί","name:en":"Port Louis","name:eo":"Port-Luiso","name:es":"Port Louis","name:et":"Port Louis","name:eu":"Port Louis","name:fa":"پورت‌لوئیس","name:fi":"Port Louis","name:fr":"Port-Louis","name:fy":"Port Louis","name:ga":"Port Louis","name:gd":"Port Louis","name:gl":"Port Louis","name:gn":"Port Louis","name:ha":"Port Louis","name:he":"פור לואי","name:hi":"पोर्ट लुई","name:hr":"Port Louis","name:ht":"Pò-Loui","name:hu":"Port Louis","name:hy":"Պորտ Լուի","name:ia":"Port Louis","name:id":"Port Louis","name:ie":"Port Louis","name:io":"Port Louis","name:is":"Port Louis","name:it":"Port Louis","name:ja":"ポートルイス","name:jv":"Port Louis","name:ka":"პორტ-ლუი","name:kk":"Порт-Луи","name:ko":"포트루이스","name:ky":"Порт-Луи","name:la":"Portus Ludovici","name:lb":"Port Louis","name:lt":"Port Luisas","name:lv":"Portluī","name:mg":"Port Louis","name:mk":"Порт Луј","name:ml":"പോർട്ട് ലൂയിസ്","name:mn":"Порт-Луи","name:mr":"पोर्ट लुईस","name:ms":"Port Louis","name:nl":"Port Louis","name:nn":"Port Louis","name:no":"Port Louis","name:oc":"Port Louis","name:or":"ପୋର୍ଟ ଲୁଇସ","name:os":"Порт-Луи","name:pa":"ਪੋਰਟ ਲੂਈ","name:pl":"Port Louis","name:ps":"پورت لویس","name:pt":"Porto Luís","name:ro":"Port Louis","name:ru":"Порт-Луи","name:sc":"Port Louis","name:sh":"Port Louis","name:sk":"Port Louis","name:sl":"Port Louis","name:sn":"Port Louis","name:so":"Bort Lois","name:sq":"Port Louis","name:sr":"Порт Луис","name:sv":"Port Louis","name:sw":"Port Louis","name:ta":"போர்ட் லூயிஸ்","name:tg":"Порт-Луи","name:th":"พอร์ตหลุยส์","name:tl":"Port Louis","name:tr":"Port Louis","name:tt":"Порт-Луи","name:uk":"Порт-Луї","name:ur":"پورٹ لوئس","name:uz":"Port-lui","name:vi":"Port Louis","name:vo":"Port Louis","name:yo":"Port Louis","name:zh":"路易港","alt_name":"Port-Louis","loc_name":"Port Lewis","name:arz":"بورت لويس","name:ast":"Puertu Lluis","name:avk":"Port-Louis","name:cdo":"Port Louis","name:ceb":"Port Louis","name:ckb":"پۆرت لویس","name:crh":"Port Lui","name:diq":"Port Louis","name:hak":"Port Louis","name:hif":"Port Louis","name:lfn":"Port Louis","name:lij":"Port Louis","name:lmo":"Port Louis","name:mfe":"Porlwi","name:mhr":"Порт-Луи","name:nah":"Port Louis","name:nov":"Port Louis","name:olo":"Port Lui","name:pms":"Port Luis","name:pnb":"پورٹ لوئی","name:sco":"Port Louis","name:smn":"Port Louis","name:udm":"Порт-Луи","name:vec":"Port Louis","name:vep":"Port Lui","name:war":"Port Louis","name:wuu":"路易港","name:xmf":"პორტ-ლუი","name:yue":"路易士港","name:simple":"Port Louis","name:be-tarask":"Порт Луі","name:zh_min_nan":"Port Louis","name:etymology:wikipedia":"fr:Louis XV"},"display_name":"Port Louis, Outer islands of Mauritius, 11317, Mauritius / Maurice","address":{"city":"Port Louis","state":"Port Louis","ISO3166-2-lvl4":"MU-PL","region":"Outer islands of Mauritius","postcode":"11317","country":"Mauritius / Maurice","country_code":"mu"},"population":147688,"osm_type":"node","osm_id":243819778,"type":"city","location":[57.5028044,-20.1624522],"bbox":[57.3428044,-20.3224522,57.6628044,-20.0024522]}
{"name":"Chemin Grenier","other_names":{"name:en":"Chemin Grenier","name:fr":"Chemin-Grenier","alt_name":"Chemin-Grenier"},"display_name":"Chemin Grenier, Savanne, Outer islands of Mauritius, Mauritius / Maurice","address":{"town":"Chemin Grenier","state":"Savanne","ISO3166-2-lvl4":"MU-SA","region":"Outer islands of Mauritius","country":"Mauritius / Maurice","country_code":"mu"},"population":12200,"osm_type":"node","osm_id":9280540369,"type":"town","location":[57.4713418,-20.4920408],"bbox":[57.4313418,-20.5320408,57.5113418,-20.4520408]}
{"name":"Surinam","other_names":{"name:en":"Surinam","name:fr":"Surinam"},"display_name":"Surinam, Savanne, Outer islands of Mauritius, Mauritius / Maurice","address":{"town":"Surinam","state":"Savanne","ISO3166-2-lvl4":"MU-SA","region":"Outer islands of Mauritius","country":"Mauritius / Maurice","country_code":"mu"},"population":10500,"osm_type":"node","osm_id":5938167147,"type":"town","location":[57.5096834,-20.5122913],"bbox":[57.4696834,-20.5522913,57.5496834,-20.4722913]}
{"name":"Souillac","other_names":{"name:en":"Souillac","name:fr":"Souillac","name:lt":"Sujakas","name:etymology:wikipedia":"fr:François de Souillac"},"display_name":"Souillac, Savanne, Outer islands of Mauritius, Mauritius / Maurice","address":{"town":"Souillac","state":"Savanne","ISO3166-2-lvl4":"MU-SA","region":"Outer islands of Mauritius","country":"Mauritius / Maurice","country_code":"mu"},"osm_type":"node","osm_id":5938167146,"type":"town","location":[57.522503,-20.5187236],"bbox":[57.482503,-20.5587236,57.562503,-20.4787236]}
{"name":"Rose Belle","other_names":{"name:en":"Rose Belle","name:fr":"Rose Belle","alt_name":"Rose-Belle"},"display_name":"Rose Belle, Grand Port, Outer islands of Mauritius, Mauritius / Maurice","address":{"town":"Rose Belle","state":"Grand Port","ISO3166-2-lvl4":"MU-GP","region":"Outer islands of Mauritius","country":"Mauritius / Maurice","country_code":"mu"},"population":12000,"osm_type":"node","osm_id":2583955840,"type":"town","location":[57.6024143,-20.4031031],"bbox":[57.5624143,-20.4431031,57.6424143,-20.3631031]}
{"name":"Bambous","other_names":{"name:en":"Bambous","name:fr":"Bambous"},"display_name":"Bambous, Rivière Noire / Black River, Outer islands of Mauritius, Mauritius / Maurice","address":{"town":"Bambous","state":"Rivière Noire / Black River","ISO3166-2-lvl4":"MU-BL","region":"Outer islands of Mauritius","country":"Mauritius / Maurice","country_code":"mu"},"population":15300,"osm_type":"node","osm_id":889907441,"type":"town","location":[57.4176639,-20.2571348],"bbox":[57.3776639,-20.2971348,57.4576639,-20.2171348]}
{"name":"Moka","display_name":"Moka, Outer islands of Mauritius, Mauritius / Maurice","address":{"town":"Moka","state":"Moka","ISO3166-2-lvl4":"MU-MO","region":"Outer islands of Mauritius","country":"Mauritius / Maurice","country_code":"mu"},"osm_type":"node","osm_id":2675719350,"type":"town","location":[57.50275,-20.2218738],"bbox":[57.46275,-20.2618738,57.54275,-20.1818738]}
{"name":"Saint Pierre","other_names":{"name:en":"Saint Pierre","name:fr":"Saint-Pierre","alt_name":"Saint-Pierre","short_name":"St. Pierre"},"display_name":"Saint Pierre, Moka, Outer islands of Mauritius, Mauritius / Maurice","address":{"town":"Saint Pierre","state":"Moka","ISO3166-2-lvl4":"MU-MO","region":"Outer islands of Mauritius","country":"Mauritius / Maurice","country_code":"mu"},"population":16000,"osm_type":"node","osm_id":1835771720,"type":"town","location":[57.5383776,-20.2249021],"bbox":[57.4983776,-20.2649021,57.5783776,-20.1849021]}
{"name":"Pointe aux Piments","display_name":"Pointe aux Piments, Pamplemousses, Outer islands of Mauritius, 21508, Mauritius / Maurice","address":{"town":"Pointe aux Piments","state":"Pamplemousses","ISO3166-2-lvl4":"MU-PA","region":"Outer islands of Mauritius","postcode":"21508","country":"Mauritius / Maurice","country_code":"mu"},"population":9000,"osm_type":"node","osm_id":2135159597,"type":"town","location":[57.5228465,-20.059123],"bbox":[57.4828465,-20.099123,57.5628465,-20.019123]}
{"name":"Triolet","other_names":{"name:en":"Triolet","name:fr":"Triolet"},"display_name":"Triolet, Pamplemousses, Outer islands of Mauritius, 21508, Mauritius / Maurice","address":{"town":"Triolet","state":"Pamplemousses","ISO3166-2-lvl4":"MU-PA","region":"Outer islands of Mauritius","postcode":"21508","country":"Mauritius / Maurice","country_code":"mu"},"population":23386,"osm_type":"node","osm_id":1815113111,"type":"town","location":[57.5521877,-20.0574743],"bbox":[57.5121877,-20.0974743,57.5921877,-20.0174743]}
{"name":"Grand Baie","other_names":{"name:en":"Grand Baie","name:fr":"Grand Baie","alt_name":"Grand-Baie","alt_name:en":"Grand Bay"},"display_name":"Grand Baie, Rivière du Rempart, Outer islands of Mauritius, 30529, Mauritius / Maurice","address":{"town":"Grand Baie","state":"Rivière du Rempart","ISO3166-2-lvl4":"MU-RR","region":"Outer islands of Mauritius","postcode":"30529","country":"Mauritius / Maurice","country_code":"mu"},"population":11900,"osm_type":"node","osm_id":1663012341,"type":"town","location":[57.584627,-20.0130199],"bbox":[57.544627,-20.0530199,57.624627,-19.9730199]}
{"name":"Mahébourg","other_names":{"name:en":"Mahebourg","name:fr":"Mahébourg","name:lt":"Majeburas","name:mk":"Маебур","name:etymology:wikipedia":"fr:Bertrand-François Mahé de La Bourdonnais"},"display_name":"Mahébourg, Grand Port, Outer islands of Mauritius, Mauritius / Maurice","address":{"town":"Mahébourg","state":"Grand Port","ISO3166-2-lvl4":"MU-GP","region":"Outer islands of Mauritius","country":"Mauritius / Maurice","country_code":"mu"},"population":15500,"osm_type":"node","osm_id":247166946,"type":"town","location":[57.7060616,-20.4111041],"bbox":[57.6660616,-20.4511041,57.7460616,-20.3711041]}
{"name":"Bel Air Rivière Sèche","other_names":{"short_name":"Bel Air"},"display_name":"Bel Air Rivière Sèche, Flacq, Outer islands of Mauritius, Mauritius / Maurice","address":{"town":"Bel Air Rivière Sèche","state":"Flacq","ISO3166-2-lvl4":"MU-FL","region":"Outer islands of Mauritius","country":"Mauritius / Maurice","country_code":"mu"},"population":17600,"osm_type":"node","osm_id":3106323323,"type":"town","location":[57.7570727,-20.2559669],"bbox":[57.7170727,-20.2959669,57.7970727,-20.2159669]}
{"name":"Centre de Flacq","other_names":{"name:en":"Central Flacq","name:fr":"Centre de Flacq","short_name":"Flacq"},"display_name":"Centre de Flacq, Flacq, Outer islands of Mauritius, 40606, Mauritius / Maurice","address":{"town":"Centre de Flacq","state":"Flacq","ISO3166-2-lvl4":"MU-FL","region":"Outer islands of Mauritius","postcode":"40606","country":"Mauritius / Maurice","country_code":"mu"},"population":16000,"osm_type":"node","osm_id":1845967777,"type":"town","location":[57.7229652,-20.1948891],"bbox":[57.6829652,-20.2348891,57.7629652,-20.1548891]}
{"name":"Rivière du Rempart","other_names":{"name:en":"Rivière du Rempart","name:fr":"Rivière du Rempart"},"display_name":"Rivière du Rempart, Outer islands of Mauritius, Mauritius / Maurice","address":{"town":"Rivière du Rempart","state":"Rivière du Rempart","ISO3166-2-lvl4":"MU-RR","region":"Outer islands of Mauritius","country":"Mauritius / Maurice","country_code":"mu"},"population":10800,"osm_type":"node","osm_id":1133837566,"type":"town","location":[57.6927461,-20.1081529],"bbox":[57.6527461,-20.1481529,57.7327461,-20.0681529]}
{"name":"Port Mathurin","other_names":{"name:be":"Порт-Матарын","name:bn":"পোর্ট মাথুরিন","name:el":"Πορτ Ματουρέν","name:ja":"ポート・マチュリン","name:lt":"Port Maturinas","name:ru":"Порт-Матюрен","name:sr":"Порт Матурин","name:uk":"Порт-Матурин","name:zh":"馬蒂蘭港","alt_name":"Port Matherin"},"display_name":"Port Mathurin, Rodrigues, Outer islands of Mauritius, Mauritius / Maurice","address":{"town":"Port Mathurin","island":"Rodrigues","ISO3166-2-lvl5":"MU-RO","region":"Outer islands of Mauritius","country":"Mauritius / Maurice","country_code":"mu"},"population":6000,"osm_type":"node","osm_id":305259442,"type":"town","location":[63.422113,-19.6808372],"bbox":[63.382113,-19.7208372,63.462113,-19.6408372]}
{"name":"Le Morne","display_name":"Le Morne, Rivière Noire / Black River, Outer islands of Mauritius, Mauritius / Maurice","address":{"village":"Le Morne","state":"Rivière Noire / Black River","ISO3166-2-lvl4":"MU-BL","region":"Outer islands of Mauritius","country":"Mauritius / Maurice","country_code":"mu"},"osm_type":"way","osm_id":1118787841,"type":"village","location":[57.32562854950372,-20.4442407],"bbox":[57.3216956,-20.4461287,57.3295663,-20.443236]}
{"display_name":"Chamarel, Rivière Noire / Black River, Outer islands of Mauritius, Mauritius / Maurice","address":{"village":"Chamarel","state":"Rivière Noire / Black River","ISO3166-2-lvl4":"MU-BL","region":"Outer islands of Mauritius","country":"Mauritius / Maurice","country_code":"mu"},"osm_type":"way","osm_id":1119740937,"type":"village","location":[57.39149864669926,-20.4320975],"bbox":[57.3877282,-20.4340857,57.3925024,-20.4300659]}
{"display_name":"Chamarel, Rivière Noire / Black River, Outer islands of Mauritius, Mauritius / Maurice","address":{"village":"Chamarel","state":"Rivière Noire / Black River","ISO3166-2-lvl4":"MU-BL","region":"Outer islands of Mauritius","country":"Mauritius / Maurice","country_code":"mu"},"osm_type":"way","osm_id":1119740936,"type":"village","location":[57.39130883036091,-20.4262995],"bbox":[57.3895277,-20.4293876,57.393269,-20.423265]}
{"name":"Bain Boeuf","display_name":"Bain Boeuf, Rivière du Rempart, Outer islands of Mauritius, 30504, Mauritius / Maurice","address":{"village":"Bain Boeuf","state":"Rivière du Rempart","ISO3166-2-lvl4":"MU-RR","region":"Outer islands of Mauritius","postcode":"30504","country":"Mauritius / Maurice","country_code":"mu"},"osm_type":"way","osm_id":1119971172,"type":"village","location":[57.60640912916417,-19.98686245],"bbox":[57.5992477,-19.9916455,57.6133313,-19.9821647]}
{"name":"Beau Bois","display_name":"Beau Bois, L’Avenir, Moka, Outer islands of Mauritius, Mauritius / Maurice","address":{"village":"Beau Bois","state":"Moka","ISO3166-2-lvl4":"MU-MO","region":"Outer islands of Mauritius","country":"Mauritius / Maurice","country_code":"mu"},"osm_type":"way","osm_id":407269867,"type":"village","location":[57.56614845012983,-20.2072322],"bbox":[57.5646778,-20.2095444,57.5676255,-20.2059178]}
{"name":"Queen Victoria","display_name":"Queen Victoria, Flacq, Outer islands of Mauritius, Mauritius / Maurice","address":{"village":"Queen Victoria","state":"Flacq","ISO3166-2-lvl4":"MU-FL","region":"Outer islands of Mauritius","country":"Mauritius / Maurice","country_code":"mu"},"osm_type":"way","osm_id":296188643,"type":"village","location":[57.712834427094045,-20.22004615],"bbox":[57.7094984,-20.2265268,57.7146389,-20.2143304]}
{"name":"Baie du Cap","other_names":{"name:zh":"天涯海角"},"display_name":"Baie du Cap, Savanne, Outer islands of Mauritius, Mauritius / Maurice","address":{"village":"Baie du Cap","state":"Savanne","ISO3166-2-lvl4":"MU-SA","region":"Outer islands of Mauritius","country":"Mauritius / Maurice","country_code":"mu"},"osm_type":"node","osm_id":2306372817,"type":"village","location":[57.3795792,-20.4925841],"bbox":[57.3595792,-20.5125841,57.3995792,-20.4725841]}
{"name":"Beau Champ","display_name":"Beau Champ, Bel Ombre, Savanne, Outer islands of Mauritius, Mauritius / Maurice","address":{"village":"Beau Champ","state":"Savanne","ISO3166-2-lvl4":"MU-SA","region":"Outer islands of Mauritius","country":"Mauritius / Maurice","country_code":"mu"},"osm_type":"node","osm_id":2637988174,"type":"village","location":[57.4373818,-20.5023185],"bbox":[57.4173818,-20.5223185,57.4573818,-20.4823185]}
{"name":"Le Morne","other_names":{"name:fr":"Le Morne"},"display_name":"Le Morne, Rivière Noire / Black River, Outer islands of Mauritius, Mauritius / Maurice","address":{"village":"Le Morne","state":"Rivière Noire / Black River","ISO3166-2-lvl4":"MU-BL","region":"Outer islands of Mauritius","country":"Mauritius / Maurice","country_code":"mu"},"osm_type":"node","osm_id":2188770291,"type":"village","location":[57.3451065,-20.4684533],"bbox":[57.3251065,-20.4884533,57.3651065,-20.4484533]}
{"name":"Rivière des Galets","other_names":{"name:en":"Riviere Des Galets","name:fr":"Rivière des Galets"},"display_name":"Rivière des Galets, Chemin Grenier, Savanne, Outer islands of Mauritius, Mauritius / Maurice","address":{"village":"Rivière des Galets","town":"Chemin Grenier","state":"Savanne","ISO3166-2-lvl4":"MU-SA","region":"Outer islands of Mauritius","country":"Mauritius / Maurice","country_code":"mu"},"osm_type":"node","osm_id":5938167075,"type":"village","location":[57.4565722,-20.5054229],"bbox":[57.4365722,-20.5254229,57.4765722,-20.4854229]}
{"name":"Saint Martin","other_names":{"name:en":"Saint Martin","name:fr":"Saint-Martin"},"display_name":"Saint Martin, Bel Ombre, Savanne, Outer islands of Mauritius, Mauritius / Maurice","address":{"village":"Saint Martin","state":"Savanne","ISO3166-2-lvl4":"MU-SA","region":"Outer islands of Mauritius","country":"Mauritius / Maurice","country_code":"mu"},"osm_type":"node","osm_id":2637986939,"type":"village","location":[57.3916984,-20.4990625],"bbox":[57.3716984,-20.5190625,57.4116984,-20.4790625]}
{"name":"Bel Ombre","display_name":"Bel Ombre, Savanne, Outer islands of Mauritius, Mauritius / Maurice","address":{"village":"Bel Ombre","state":"Savanne","ISO3166-2-lvl4":"MU-SA","region":"Outer islands of Mauritius","country":"Mauritius / Maurice","country_code":"mu"},"osm_type":"node","osm_id":2637987035,"type":"village","location":[57.4008845,-20.5028362],"bbox":[57.3808845,-20.5228362,57.4208845,-20.4828362]}
{"name":"Chamarel","display_name":"Chamarel, Rivière Noire / Black River, Outer islands of Mauritius, Mauritius / Maurice","address":{"village":"Chamarel","state":"Rivière Noire / Black River","ISO3166-2-lvl4":"MU-BL","region":"Outer islands of Mauritius","country":"Mauritius / Maurice","country_code":"mu"},"osm_type":"node","osm_id":828423332,"type":"village","location":[57.3912706,-20.4253074],"bbox":[57.3712706,-20.4453074,57.4112706,-20.4053074]}
{"name":"Petite Case Noyale","display_name":"Petite Case Noyale, Case Noyale, Rivière Noire / Black River, Outer islands of Mauritius, 90608, Mauritius / Maurice","address":{"village":"Petite Case Noyale","city":"Case Noyale","state":"Rivière Noire / Black River","ISO3166-2-lvl4":"MU-BL","region":"Outer islands of Mauritius","postcode":"90608","country":"Mauritius / Maurice","country_code":"mu"},"osm_type":"node","osm_id":10568265871,"type":"village","location":[57.3693556,-20.4037105],"bbox":[57.3493556,-20.4237105,57.3893556,-20.3837105]}
{"name":"La Gaulette","display_name":"La Gaulette, Rivière Noire / Black River, Outer islands of Mauritius, Mauritius / Maurice","address":{"village":"La Gaulette","state":"Rivière Noire / Black River","ISO3166-2-lvl4":"MU-BL","region":"Outer islands of Mauritius","country":"Mauritius / Maurice","country_code":"mu"},"osm_type":"node","osm_id":2163818463,"type":"village","location":[57.3599475,-20.4275015],"bbox":[57.3399475,-20.4475015,57.3799475,-20.4075015]}
{"name":"Grande Case Noyale","display_name":"Grande Case Noyale, La Gaulette, Rivière Noire / Black River, Outer islands of Mauritius, Mauritius / Maurice","address":{"village":"Grande Case Noyale","state":"Rivière Noire / Black River","ISO3166-2-lvl4":"MU-BL","region":"Outer islands of Mauritius","country":"Mauritius / Maurice","country_code":"mu"},"osm_type":"node","osm_id":2306405140,"type":"village","location":[57.3673483,-20.415844],"bbox":[57.3473483,-20.435844,57.3873483,-20.395844]}
{"name":"Grand Bois","display_name":"Grand Bois, Savanne, Outer islands of Mauritius, Mauritius / Maurice","address":{"village":"Grand Bois","state":"Savanne","ISO3166-2-lvl4":"MU-SA","region":"Outer islands of Mauritius","country":"Mauritius / Maurice","country_code":"mu"},"osm_type":"node","osm_id":2638557573,"type":"village","location":[57.5511401,-20.4188774],"bbox":[57.5311401,-20.4388774,57.5711401,-20.3988774]}
{"name":"Rivière des Anguilles","display_name":"Rivière des Anguilles, Tyack, Savanne, Outer islands of Mauritius, Mauritius / Maurice","address":{"village":"Rivière des Anguilles","state":"Savanne","ISO3166-2-lvl4":"MU-SA","region":"Outer islands of Mauritius","country":"Mauritius / Maurice","country_code":"mu"},"osm_type":"node","osm_id":2637914762,"type":"village","location":[57.5585465,-20.490485],"bbox":[57.5385465,-20.510485,57.5785465,-20.470485]}
{"name":"La Flora","display_name":"La Flora, Savanne, Outer islands of Mauritius, Mauritius / Maurice","address":{"village":"La Flora","state":"Savanne","ISO3166-2-lvl4":"MU-SA","region":"Outer islands of Mauritius","country":"Mauritius / Maurice","country_code":"mu"},"osm_type":"node","osm_id":2638562760,"type":"village","location":[57.5589926,-20.4108583],"bbox":[57.5389926,-20.4308583,57.5789926,-20.3908583]}
{"name":"Tyack","display_name":"Tyack, Savanne, Outer islands of Mauritius, Mauritius / Maurice","address":{"village":"Tyack","state":"Savanne","ISO3166-2-lvl4":"MU-SA","region":"Outer islands of Mauritius","country":"Mauritius / Maurice","country_code":"mu"},"population":4600,"osm_type":"node","osm_id":10592319957,"type":"village","location":[57.5580773,-20.4795702],"bbox":[57.5380773,-20.4995702,57.5780773,-20.4595702]}
{"name":"Saint Aubin","display_name":"Saint Aubin, Savanne, Outer islands of Mauritius, Mauritius / Maurice","address":{"village":"Saint Aubin","state":"Savanne","ISO3166-2-lvl4":"MU-SA","region":"Outer islands of Mauritius","country":"Mauritius / Maurice","country_code":"mu"},"osm_type":"node","osm_id":10592319713,"type":"village","location":[57.5498354,-20.4944564],"bbox":[57.5298354,-20.5144564,57.5698354,-20.4744564]}
{"name":"Camp Diable","display_name":"Camp Diable, Savanne, Outer islands of Mauritius, Mauritius / Maurice","address":{"village":"Camp Diable","state":"Savanne","ISO3166-2-lvl4":"MU-SA","region":"Outer islands of Mauritius","country":"Mauritius / Maurice","country_code":"mu"},"osm_type":"node","osm_id":6212298945,"type":"village","location":[57.5858333,-20.4669102],"bbox":[57.5658333,-20.4869102,57.6058333,-20.4469102]}
{"name":"Mare Tabac","display_name":"Mare Tabac, Grand Port, Outer islands of Mauritius, Mauritius / Maurice","address":{"village":"Mare Tabac","state":"Grand Port","ISO3166-2-lvl4":"MU-GP","region":"Outer islands of Mauritius","country":"Mauritius / Maurice","country_code":"mu"},"population":2700,"osm_type":"node","osm_id":10608558985,"type":"village","location":[57.5945959,-20.4428512],"bbox":[57.5745959,-20.4628512,57.6145959,-20.4228512]}
{"name":"Batimarais","display_name":"Batimarais, Bénarès, Savanne, Outer islands of Mauritius, Mauritius / Maurice","address":{"village":"Batimarais","city":"Bénarès","state":"Savanne","ISO3166-2-lvl4":"MU-SA","region":"Outer islands of Mauritius","country":"Mauritius / Maurice","country_code":"mu"},"osm_type":"node","osm_id":10593841382,"type":"village","location":[57.5745011,-20.4846078],"bbox":[57.5545011,-20.5046078,57.5945011,-20.4646078]}
{"name":"L’Escalier","other_names":{"alt_name":"L'Escalier"},"display_name":"L’Escalier, Savanne, Outer islands of Mauritius, Mauritius / Maurice","address":{"village":"L’Escalier","state":"Savanne","ISO3166-2-lvl4":"MU-SA","region":"Outer islands of Mauritius","country":"Mauritius / Maurice","country_code":"mu"},"osm_type":"node","osm_id":2305583447,"type":"village","location":[57.6193472,-20.4733474],"bbox":[57.5993472,-20.4933474,57.6393472,-20.4533474]}
{"name":"Mare d’Albert","other_names":{"alt_name":"Mare d'Albert"},"display_name":"Mare d’Albert, Grand Port, Outer islands of Mauritius, Mauritius / Maurice","address":{"village":"Mare d’Albert","state":"Grand Port","ISO3166-2-lvl4":"MU-GP","region":"Outer islands of Mauritius","country":"Mauritius / Maurice","country_code":"mu"},"osm_type":"node","osm_id":9280578407,"type":"village","location":[57.6318553,-20.423441],"bbox":[57.6118553,-20.443441,57.6518553,-20.403441]}
{"name":"Château Bénarès","display_name":"Château Bénarès, Bénarès, Savanne, Outer islands of Mauritius, 51108, Mauritius / Maurice","address":{"village":"Château Bénarès","city":"Bénarès","state":"Savanne","ISO3166-2-lvl4":"MU-SA","region":"Outer islands of Mauritius","postcode":"51108","country":"Mauritius / Maurice","country_code":"mu"},"osm_type":"node","osm_id":10593841381,"type":"village","location":[57.588619,-20.4849028],"bbox":[57.568619,-20.5049028,57.608619,-20.4649028]}
{"name":"New Grove","display_name":"New Grove, Grand Port, Outer islands of Mauritius, Mauritius / Maurice","address":{"village":"New Grove","state":"Grand Port","ISO3166-2-lvl4":"MU-GP","region":"Outer islands of Mauritius","country":"Mauritius / Maurice","country_code":"mu"},"population":11000,"osm_type":"node","osm_id":10690283240,"type":"village","location":[57.6185264,-20.412331],"bbox":[57.5985264,-20.432331,57.6385264,-20.392331]}
{"name":"Trois Boutiques","display_name":"Trois Boutiques, Trois Boutiques (Union Vale), Grand Port, Outer islands of Mauritius, 51520, Mauritius / Maurice","address":{"village":"Trois Boutiques","city":"Trois Boutiques (Union Vale)","state":"Grand Port","ISO3166-2-lvl4":"MU-GP","region":"Outer islands of Mauritius","postcode":"51520","country":"Mauritius / Maurice","country_code":"mu"},"osm_type":"node","osm_id":2637902870,"type":"village","location":[57.6473237,-20.4518429],"bbox":[57.6273237,-20.4718429,57.6673237,-20.4318429]}
{"name":"Britannia","display_name":"Britannia, Savanne, Outer islands of Mauritius, Mauritius / Maurice","address":{"village":"Britannia","state":"Savanne","ISO3166-2-lvl4":"MU-SA","region":"Outer islands of Mauritius","country":"Mauritius / Maurice","country_code":"mu"},"population":1280,"osm_type":"node","osm_id":10599214807,"type":"village","location":[57.5635574,-20.4527923],"bbox":[57.5435574,-20.4727923,57.5835574,-20.4327923]}
{"name":"Rivière du Poste","display_name":"Rivière du Poste, Savanne, Outer islands of Mauritius, Mauritius / Maurice","address":{"village":"Rivière du Poste","state":"Savanne","ISO3166-2-lvl4":"MU-SA","region":"Outer islands of Mauritius","country":"Mauritius / Maurice","country_code":"mu"},"population":2200,"osm_type":"node","osm_id":10608558986,"type":"village","location":[57.573058,-20.4268091],"bbox":[57.553058,-20.4468091,57.593058,-20.4068091]}
{"name":"Bois Chéri","display_name":"Bois Chéri, Bois Chérie, Savanne, Outer islands of Mauritius, Mauritius / Maurice","address":{"village":"Bois Chéri","city":"Bois Chérie","state":"Savanne","ISO3166-2-lvl4":"MU-SA","region":"Outer islands of Mauritius","country":"Mauritius / Maurice","country_code":"mu"},"osm_type":"node","osm_id":2638554237,"type":"village","location":[57.5376647,-20.4277655],"bbox":[57.5176647,-20.4477655,57.5576647,-20.4077655]}
{"name":"Tamarin","display_name":"Tamarin, Rivière Noire / Black River, Outer islands of Mauritius, Mauritius / Maurice","address":{"village":"Tamarin","state":"Rivière Noire / Black River","ISO3166-2-lvl4":"MU-BL","region":"Outer islands of Mauritius","country":"Mauritius / Maurice","country_code":"mu"},"osm_type":"node","osm_id":247167456,"type":"village","location":[57.3776792,-20.3292161],"bbox":[57.3576792,-20.3492161,57.3976792,-20.3092161]}
{"name":"La Preneuse","display_name":"La Preneuse, Grande Rivière Noire, Rivière Noire / Black River, Outer islands of Mauritius, 90608, Mauritius / Maurice","address":{"village":"La Preneuse","state":"Rivière Noire / Black River","ISO3166-2-lvl4":"MU-BL","region":"Outer islands of Mauritius","postcode":"90608","country":"Mauritius / Maurice","country_code":"mu"},"osm_type":"node","osm_id":2173201584,"type":"village","location":[57.3655927,-20.3545552],"bbox":[57.3455927,-20.3745552,57.3855927,-20.3345552]}
{"name":"Cascavelle","display_name":"Cascavelle, Rivière Noire / Black River, Outer islands of Mauritius, Mauritius / Maurice","address":{"village":"Cascavelle","state":"Rivière Noire / Black River","ISO3166-2-lvl4":"MU-BL","region":"Outer islands of Mauritius","country":"Mauritius / Maurice","country_code":"mu"},"osm_type":"node","osm_id":2638610178,"type":"village","location":[57.4153311,-20.2882742],"bbox":[57.3953311,-20.3082742,57.4353311,-20.2682742]}
{"name":"Grande Rivière Noire","display_name":"Grande Rivière Noire, Rivière Noire / Black River, Outer islands of Mauritius, Mauritius / Maurice","address":{"village":"Grande Rivière Noire","state":"Rivière Noire / Black River","ISO3166-2-lvl4":"MU-BL","region":"Outer islands of Mauritius","country":"Mauritius / Maurice","country_code":"mu"},"osm_type":"node","osm_id":2638592707,"type":"village","location":[57.3738005,-20.3619924],"bbox":[57.3538005,-20.3819924,57.3938005,-20.3419924]}
{"name":"Flic en Flac","other_names":{"alt_name":"Flic-en-Flac"},"display_name":"Flic en Flac, Rivière Noire / Black River, Outer islands of Mauritius, Mauritius / Maurice","address":{"village":"Flic en Flac","state":"Rivière Noire / Black River","ISO3166-2-lvl4":"MU-BL","region":"Outer islands of Mauritius","country":"Mauritius / Maurice","country_code":"mu"},"osm_type":"node","osm_id":821712185,"type":"village","location":[57.36914,-20.2789702],"bbox":[57.34914,-20.2989702,57.38914,-20.2589702]}
{"name":"Beaux Songes","display_name":"Beaux Songes, Cascavelle, Rivière Noire / Black River, Outer islands of Mauritius, 72444, Mauritius / Maurice","address":{"village":"Beaux Songes","state":"Rivière Noire / Black River","ISO3166-2-lvl4":"MU-BL","region":"Outer islands of Mauritius","postcode":"72444","country":"Mauritius / Maurice","country_code":"mu"},"osm_type":"node","osm_id":828423076,"type":"village","location":[57.4250173,-20.2815278],"bbox":[57.4050173,-20.3015278,57.4450173,-20.2615278]}
{"name":"Bassin","other_names":{"alt_name":"Bassin Estate"},"display_name":"Bassin, Quatre Bornes, Plaines Wilhems, Outer islands of Mauritius, 72444, Mauritius / Maurice","address":{"village":"Bassin","county":"Quatre Bornes","state":"Plaines Wilhems","ISO3166-2-lvl4":"MU-PW","region":"Outer islands of Mauritius","postcode":"72444","country":"Mauritius / Maurice","country_code":"mu"},"osm_type":"node","osm_id":9280578319,"type":"village","location":[57.4560741,-20.2956769],"bbox":[57.4360741,-20.3156769,57.4760741,-20.2756769]}
{"name":"Canot","other_names":{"name:en":"Canot","name:fr":"Canot"},"display_name":"Canot, Gros Cailloux, Rivière Noire / Black River, Outer islands of Mauritius, 71406, Mauritius / Maurice","address":{"village":"Canot","state":"Rivière Noire / Black River","ISO3166-2-lvl4":"MU-BL","region":"Outer islands of Mauritius","postcode":"71406","country":"Mauritius / Maurice","country_code":"mu"},"osm_type":"node","osm_id":3659318273,"type":"village","location":[57.4300692,-20.2218571],"bbox":[57.4100692,-20.2418571,57.4500692,-20.2018571]}
{"name":"Pont Colville","display_name":"Pont Colville, Nouvelle France, Grand Port, Outer islands of Mauritius, 51802, Mauritius / Maurice","address":{"village":"Pont Colville","state":"Grand Port","ISO3166-2-lvl4":"MU-GP","region":"Outer islands of Mauritius","postcode":"51802","country":"Mauritius / Maurice","country_code":"mu"},"osm_type":"node","osm_id":10610670227,"type":"village","location":[57.5657725,-20.3856732],"bbox":[57.5457725,-20.4056732,57.5857725,-20.3656732]}
{"name":"Nouvelle France","other_names":{"name:en":"Nouvelle France","name:fr":"Nouvelle-France","alt_name":"Nouvelle-France"},"display_name":"Nouvelle France, Grand Port, Outer islands of Mauritius, Mauritius / Maurice","address":{"village":"Nouvelle France","state":"Grand Port","ISO3166-2-lvl4":"MU-GP","region":"Outer islands of Mauritius","country":"Mauritius / Maurice","country_code":"mu"},"osm_type":"node","osm_id":6218880623,"type":"village","location":[57.5681814,-20.3746336],"bbox":[57.5481814,-20.3946336,57.5881814,-20.3546336]}
{"name":"La Marie","display_name":"La Marie, Vacoas / Phoenix, Plaines Wilhems, Outer islands of Mauritius, 73126, Mauritius / Maurice","address":{"village":"La Marie","county":"Vacoas / Phoenix","state":"Plaines Wilhems","ISO3166-2-lvl4":"MU-PW","region":"Outer islands of Mauritius","postcode":"73126","country":"Mauritius / Maurice","country_code":"mu"},"osm_type":"node","osm_id":9280558599,"type":"village","location":[57.4924264,-20.3406546],"bbox":[57.4724264,-20.3606546,57.5124264,-20.3206546]}
{"name":"Seizième Mille","display_name":"Seizième Mille, Grand Port, Outer islands of Mauritius, Mauritius / Maurice","address":{"village":"Seizième Mille","state":"Grand Port","ISO3166-2-lvl4":"MU-GP","region":"Outer islands of Mauritius","country":"Mauritius / Maurice","country_code":"mu"},"osm_type":"node","osm_id":10570666815,"type":"village","location":[57.545792,-20.3436635],"bbox":[57.525792,-20.3636635,57.565792,-20.3236635]}
{"name":"Saint-Hubert","display_name":"Saint-Hubert, Grand Port, Outer islands of Mauritius, Mauritius / Maurice","address":{"village":"Saint-Hubert","state":"Grand Port","ISO3166-2-lvl4":"MU-GP","region":"Outer islands of Mauritius","country":"Mauritius / Maurice","country_code":"mu"},"osm_type":"node","osm_id":4009599545,"type":"village","location":[57.6418493,-20.3636792],"bbox":[57.6218493,-20.3836792,57.6618493,-20.3436792]}
{"name":"Midlands","display_name":"Midlands, Grand Port, Outer islands of Mauritius, Mauritius / Maurice","address":{"village":"Midlands","state":"Grand Port","ISO3166-2-lvl4":"MU-GP","region":"Outer islands of Mauritius","country":"Mauritius / Maurice","country_code":"mu"},"osm_type":"node","osm_id":10570679249,"type":"village","location":[57.5693343,-20.3399426],"bbox":[57.5493343,-20.3599426,57.5893343,-20.3199426]}
{"name":"Union Park","display_name":"Union Park, Grand Port, Outer islands of Mauritius, Mauritius / Maurice","address":{"village":"Union Park","state":"Grand Port","ISO3166-2-lvl4":"MU-GP","region":"Outer islands of Mauritius","country":"Mauritius / Maurice","country_code":"mu"},"osm_type":"node","osm_id":10610670226,"type":"village","location":[57.5773054,-20.3838253],"bbox":[57.5573054,-20.4038253,57.5973054,-20.3638253]}
{"name":"Cluny","display_name":"Cluny, Grand Port, Outer islands of Mauritius, Mauritius / Maurice","address":{"village":"Cluny","state":"Grand Port","ISO3166-2-lvl4":"MU-GP","region":"Outer islands of Mauritius","country":"Mauritius / Maurice","country_code":"mu"},"osm_type":"node","osm_id":4009599544,"type":"village","location":[57.6069221,-20.3705269],"bbox":[57.5869221,-20.3905269,57.6269221,-20.3505269]}
{"name":"Bananes","display_name":"Bananes, Grand Port, Outer islands of Mauritius, Mauritius / Maurice","address":{"village":"Bananes","state":"Grand Port","ISO3166-2-lvl4":"MU-GP","region":"Outer islands of Mauritius","country":"Mauritius / Maurice","country_code":"mu"},"osm_type":"node","osm_id":10715911136,"type":"village","location":[57.5968122,-20.3506324],"bbox":[57.5768122,-20.3706324,57.6168122,-20.3306324]}
{"name":"Côte d’Or","other_names":{"alt_name":"Côte d'Or"},"display_name":"Côte d’Or, Saint Pierre, Moka, Outer islands of Mauritius, 81407, Mauritius / Maurice","address":{"village":"Côte d’Or","town":"Saint Pierre","state":"Moka","ISO3166-2-lvl4":"MU-MO","region":"Outer islands of Mauritius","postcode":"81407","country":"Mauritius / Maurice","country_code":"mu"},"osm_type":"node","osm_id":9280578382,"type":"village","location":[57.5365859,-20.2506202],"bbox":[57.5165859,-20.2706202,57.5565859,-20.2306202]}
{"name":"L’Assurance","other_names":{"alt_name":"L'Assurance"},"display_name":"L’Assurance, Dagotière, Moka, Outer islands of Mauritius, 80205, Mauritius / Maurice","address":{"village":"L’Assurance","state":"Moka","ISO3166-2-lvl4":"MU-MO","region":"Outer islands of Mauritius","postcode":"80205","country":"Mauritius / Maurice","country_code":"mu"},"population":1500,"osm_type":"node","osm_id":9280578408,"type":"village","location":[57.5546855,-20.2530227],"bbox":[57.5346855,-20.2730227,57.5746855,-20.2330227]}
{"name":"Verdun","display_name":"Verdun, Moka, Outer islands of Mauritius, Mauritius / Maurice","address":{"village":"Verdun","state":"Moka","ISO3166-2-lvl4":"MU-MO","region":"Outer islands of Mauritius","country":"Mauritius / Maurice","country_code":"mu"},"osm_type":"node","osm_id":2623332485,"type":"village","location":[57.5509758,-20.2320196],"bbox":[57.5309758,-20.2520196,57.5709758,-20.2120196]}
{"name":"L’Avenir","other_names":{"alt_name":"L'Avenir"},"display_name":"L’Avenir, Moka, Outer islands of Mauritius, Mauritius / Maurice","address":{"village":"L’Avenir","state":"Moka","ISO3166-2-lvl4":"MU-MO","region":"Outer islands of Mauritius","country":"Mauritius / Maurice","country_code":"mu"},"osm_type":"node","osm_id":1835811937,"type":"village","location":[57.5513995,-20.2169951],"bbox":[57.5313995,-20.2369951,57.5713995,-20.1969951]}
{"name":"Valetta","display_name":"Valetta, Dagotière, Moka, Outer islands of Mauritius, 80205, Mauritius / Maurice","address":{"village":"Valetta","state":"Moka","ISO3166-2-lvl4":"MU-MO","region":"Outer islands of Mauritius","postcode":"80205","country":"Mauritius / Maurice","country_code":"mu"},"population":1500,"osm_type":"node","osm_id":6218863047,"type":"village","location":[57.5663246,-20.2557221],"bbox":[57.5463246,-20.2757221,57.5863246,-20.2357221]}
{"name":"Vuillemin","display_name":"Vuillemin, Quartier Militaire, Moka, Outer islands of Mauritius, 80205, Mauritius / Maurice","address":{"village":"Vuillemin","state":"Moka","ISO3166-2-lvl4":"MU-MO","region":"Outer islands of Mauritius","postcode":"80205","country":"Mauritius / Maurice","country_code":"mu"},"osm_type":"node","osm_id":6218864748,"type":"village","location":[57.5915613,-20.2576661],"bbox":[57.5715613,-20.2776661,57.6115613,-20.2376661]}
{"name":"Dubreuil","display_name":"Dubreuil, Moka, Outer islands of Mauritius, Mauritius / Maurice","address":{"village":"Dubreuil","state":"Moka","ISO3166-2-lvl4":"MU-MO","region":"Outer islands of Mauritius","country":"Mauritius / Maurice","country_code":"mu"},"osm_type":"node","osm_id":10584359925,"type":"village","location":[57.6023555,-20.3000855],"bbox":[57.5823555,-20.3200855,57.6223555,-20.2800855]}
{"name":"Quartier Militaire","other_names":{"name:en":"Quartier Militaire","name:fr":"Quartier Militaire","alt_name":"Quartier-Militaire"},"display_name":"Quartier Militaire, Moka, Outer islands of Mauritius, Mauritius / Maurice","address":{"village":"Quartier Militaire","state":"Moka","ISO3166-2-lvl4":"MU-MO","region":"Outer islands of Mauritius","country":"Mauritius / Maurice","country_code":"mu"},"population":7000,"osm_type":"node","osm_id":828423018,"type":"village","location":[57.5971562,-20.2464775],"bbox":[57.5771562,-20.2664775,57.6171562,-20.2264775]}
{"name":"Melrose","display_name":"Melrose, Moka, Outer islands of Mauritius, Mauritius / Maurice","address":{"village":"Melrose","state":"Moka","ISO3166-2-lvl4":"MU-MO","region":"Outer islands of Mauritius","country":"Mauritius / Maurice","country_code":"mu"},"osm_type":"node","osm_id":10584382561,"type":"village","location":[57.6386702,-20.2725102],"bbox":[57.6186702,-20.2925102,57.6586702,-20.2525102]}
{"name":"Espérance","display_name":"Espérance, Moka, Outer islands of Mauritius, Mauritius / Maurice","address":{"village":"Espérance","state":"Moka","ISO3166-2-lvl4":"MU-MO","region":"Outer islands of Mauritius","country":"Mauritius / Maurice","country_code":"mu"},"osm_type":"node","osm_id":1845920424,"type":"village","location":[57.5936955,-20.2270766],"bbox":[57.5736955,-20.2470766,57.6136955,-20.2070766]}
{"name":"Providence","display_name":"Providence, Moka, Outer islands of Mauritius, Mauritius / Maurice","address":{"village":"Providence","state":"Moka","ISO3166-2-lvl4":"MU-MO","region":"Outer islands of Mauritius","country":"Mauritius / Maurice","country_code":"mu"},"population":3300,"osm_type":"node","osm_id":5808433503,"type":"village","location":[57.6134304,-20.2487952],"bbox":[57.5934304,-20.2687952,57.6334304,-20.2287952]}
{"name":"Dagotière","other_names":{"name:en":"Dagotiere","name:fr":"Dagotière","alt_name":"Dagotiere"},"display_name":"Dagotière, Moka, Outer islands of Mauritius, Mauritius / Maurice","address":{"village":"Dagotière","state":"Moka","ISO3166-2-lvl4":"MU-MO","region":"Outer islands of Mauritius","country":"Mauritius / Maurice","country_code":"mu"},"population":7100,"osm_type":"node","osm_id":6145638506,"type":"village","location":[57.5649753,-20.2439312],"bbox":[57.5449753,-20.2639312,57.5849753,-20.2239312]}
{"name":"Pointe aux Sables","other_names":{"name:en":"Pointe aux Sables","name:fr":"Pointe-aux-Sables"},"display_name":"Pointe aux Sables, Port Louis, Outer islands of Mauritius, 11121, Mauritius / Maurice","address":{"village":"Pointe aux Sables","state":"Port Louis","ISO3166-2-lvl4":"MU-PL","region":"Outer islands of Mauritius","postcode":"11121","country":"Mauritius / Maurice","country_code":"mu"},"osm_type":"node","osm_id":2166839082,"type":"village","location":[57.4456179,-20.172445],"bbox":[57.4256179,-20.192445,57.4656179,-20.152445]}
{"name":"Médine Camp de Masque","other_names":{"name:en":"Medine Camp De Masque","name:fr":"Médine-Camp-de-Masque","alt_name":"Médine (Camp de Masque)","short_name":"Médine","alt_name:en":"Medine (Camp De Masque)","alt_name:fr":"Médine (Camp-de-Masque)","short_name:en":"Medine","short_name:fr":"Médine"},"display_name":"Médine Camp de Masque, Flacq, Outer islands of Mauritius, 71501, Mauritius / Maurice","address":{"village":"Médine Camp de Masque","state":"Flacq","ISO3166-2-lvl4":"MU-FL","region":"Outer islands of Mauritius","postcode":"71501","country":"Mauritius / Maurice","country_code":"mu"},"osm_type":"node","osm_id":2606366863,"type":"village","location":[57.6485127,-20.2446961],"bbox":[57.6285127,-20.2646961,57.6685127,-20.2246961]}
{"name":"Camp Thorel","display_name":"Camp Thorel, Moka, Outer islands of Mauritius, Mauritius / Maurice","address":{"village":"Camp Thorel","state":"Moka","ISO3166-2-lvl4":"MU-MO","region":"Outer islands of Mauritius","country":"Mauritius / Maurice","country_code":"mu"},"osm_type":"node","osm_id":1845929251,"type":"village","location":[57.6229284,-20.2165293],"bbox":[57.6029284,-20.2365293,57.6429284,-20.1965293]}
{"name":"Saint-Julien d’Hotman","display_name":"Saint-Julien d’Hotman, Moka, Outer islands of Mauritius, Mauritius / Maurice","address":{"village":"Saint-Julien d’Hotman","state":"Moka","ISO3166-2-lvl4":"MU-MO","region":"Outer islands of Mauritius","country":"Mauritius / Maurice","country_code":"mu"},"osm_type":"node","osm_id":1845938010,"type":"village","location":[57.6433883,-20.229315],"bbox":[57.6233883,-20.249315,57.6633883,-20.209315]}
{"name":"Albion","display_name":"Albion, Rivière Noire / Black River, Outer islands of Mauritius, Mauritius / Maurice","address":{"village":"Albion","state":"Rivière Noire / Black River","ISO3166-2-lvl4":"MU-BL","region":"Outer islands of Mauritius","country":"Mauritius / Maurice","country_code":"mu"},"population":5200,"osm_type":"node","osm_id":281818852,"type":"village","location":[57.4139421,-20.2077611],"bbox":[57.3939421,-20.2277611,57.4339421,-20.1877611]}
{"name":"Gros Cailloux","other_names":{"name:en":"Gros Cailloux","name:fr":"Gros Cailloux"},"display_name":"Gros Cailloux, Rivière Noire / Black River, Outer islands of Mauritius, Mauritius / Maurice","address":{"village":"Gros Cailloux","state":"Rivière Noire / Black River","ISO3166-2-lvl4":"MU-BL","region":"Outer islands of Mauritius","country":"Mauritius / Maurice","country_code":"mu"},"population":3200,"osm_type":"node","osm_id":2638627587,"type":"village","location":[57.4366825,-20.2108255],"bbox":[57.4166825,-20.2308255,57.4566825,-20.1908255]}
{"name":"Petite Rivière","display_name":"Petite Rivière, Rivière Noire / Black River, Outer islands of Mauritius, Mauritius / Maurice","address":{"village":"Petite Rivière","state":"Rivière Noire / Black River","ISO3166-2-lvl4":"MU-BL","region":"Outer islands of Mauritius","country":"Mauritius / Maurice","country_code":"mu"},"osm_type":"node","osm_id":2166838183,"type":"village","location":[57.4464279,-20.1950441],"bbox":[57.4264279,-20.2150441,57.4664279,-20.1750441]}
{"name":"Notre Dame","display_name":"Notre Dame, Pamplemousses, Outer islands of Mauritius, 11806, Mauritius / Maurice","address":{"village":"Notre Dame","state":"Pamplemousses","ISO3166-2-lvl4":"MU-PA","region":"Outer islands of Mauritius","postcode":"11806","country":"Mauritius / Maurice","country_code":"mu"},"osm_type":"node","osm_id":1123092461,"type":"village","location":[57.558706,-20.1442245],"bbox":[57.538706,-20.1642245,57.578706,-20.1242245]}
{"name":"Ripailles","display_name":"Ripailles, Moka, Outer islands of Mauritius, Mauritius / Maurice","address":{"village":"Ripailles","state":"Moka","ISO3166-2-lvl4":"MU-MO","region":"Outer islands of Mauritius","country":"Mauritius / Maurice","country_code":"mu"},"osm_type":"node","osm_id":10581089177,"type":"village","location":[57.5786876,-20.1970086],"bbox":[57.5586876,-20.2170086,57.5986876,-20.1770086]}
{"name":"Baie du Tombeau","display_name":"Baie du Tombeau, Pamplemousses, Outer islands of Mauritius, 21733, Mauritius / Maurice","address":{"village":"Baie du Tombeau","state":"Pamplemousses","ISO3166-2-lvl4":"MU-PA","region":"Outer islands of Mauritius","postcode":"21733","country":"Mauritius / Maurice","country_code":"mu"},"osm_type":"node","osm_id":2162701093,"type":"village","location":[57.5025587,-20.1179517],"bbox":[57.4825587,-20.1379517,57.5225587,-20.0979517]}
{"name":"Nouvelle Découverte","display_name":"Nouvelle Découverte, Moka, Outer islands of Mauritius, Mauritius / Maurice","address":{"village":"Nouvelle Découverte","state":"Moka","ISO3166-2-lvl4":"MU-MO","region":"Outer islands of Mauritius","country":"Mauritius / Maurice","country_code":"mu"},"osm_type":"node","osm_id":1845919166,"type":"village","location":[57.5893579,-20.1878735],"bbox":[57.5693579,-20.2078735,57.6093579,-20.1678735]}
{"name":"Long Mountain","display_name":"Long Mountain, Pamplemousses, Outer islands of Mauritius, 11806, Mauritius / Maurice","address":{"village":"Long Mountain","state":"Pamplemousses","ISO3166-2-lvl4":"MU-PA","region":"Outer islands of Mauritius","postcode":"11806","country":"Mauritius / Maurice","country_code":"mu"},"osm_type":"node","osm_id":1123092807,"type":"village","location":[57.5722893,-20.1510278],"bbox":[57.5522893,-20.1710278,57.5922893,-20.1310278]}
{"name":"Pamplemousses","display_name":"Pamplemousses, Outer islands of Mauritius, 21013, Mauritius / Maurice","address":{"village":"Pamplemousses","state":"Pamplemousses","ISO3166-2-lvl4":"MU-PA","region":"Outer islands of Mauritius","postcode":"21013","country":"Mauritius / Maurice","country_code":"mu"},"population":9300,"osm_type":"node","osm_id":1782525126,"type":"village","location":[57.5764944,-20.1107201],"bbox":[57.5564944,-20.1307201,57.5964944,-20.0907201]}
{"name":"Morcellement Saint-André","other_names":{"alt_name":"Morcellement St-André","short_name":"Morc. St. André"},"display_name":"Morcellement Saint-André, Pamplemousses, Outer islands of Mauritius, Mauritius / Maurice","address":{"village":"Morcellement Saint-André","state":"Pamplemousses","ISO3166-2-lvl4":"MU-PA","region":"Outer islands of Mauritius","country":"Mauritius / Maurice","country_code":"mu"},"population":5750,"osm_type":"node","osm_id":2613142211,"type":"village","location":[57.5675119,-20.0708902],"bbox":[57.5475119,-20.0908902,57.5875119,-20.0508902]}
{"name":"Piton","other_names":{"alt_name":"Piton village","int_name":"Piton, Mauritius"},"display_name":"Piton, Rivière du Rempart, Outer islands of Mauritius, 31803, Mauritius / Maurice","address":{"village":"Piton","state":"Rivière du Rempart","ISO3166-2-lvl4":"MU-RR","region":"Outer islands of Mauritius","postcode":"31803","country":"Mauritius / Maurice","country_code":"mu"},"osm_type":"node","osm_id":1782460427,"type":"village","location":[57.6349749,-20.0958533],"bbox":[57.6149749,-20.1158533,57.6549749,-20.0758533]}
{"name":"Forbach","display_name":"Forbach, Cottage, Rivière du Rempart, Outer islands of Mauritius, 31803, Mauritius / Maurice","address":{"village":"Forbach","state":"Rivière du Rempart","ISO3166-2-lvl4":"MU-RR","region":"Outer islands of Mauritius","postcode":"31803","country":"Mauritius / Maurice","country_code":"mu"},"osm_type":"node","osm_id":9280578377,"type":"village","location":[57.6321874,-20.0660221],"bbox":[57.6121874,-20.0860221,57.6521874,-20.0460221]}
{"name":"Gokoola","display_name":"Gokoola, Rivière du Rempart, Outer islands of Mauritius, Mauritius / Maurice","address":{"village":"Gokoola","state":"Rivière du Rempart","ISO3166-2-lvl4":"MU-RR","region":"Outer islands of Mauritius","country":"Mauritius / Maurice","country_code":"mu"},"osm_type":"node","osm_id":1133959673,"type":"village","location":[57.65428,-20.104778],"bbox":[57.63428,-20.124778,57.67428,-20.084778]}
{"name":"Fond du Sac","display_name":"Fond du Sac, Pamplemousses, Outer islands of Mauritius, Mauritius / Maurice","address":{"village":"Fond du Sac","state":"Pamplemousses","ISO3166-2-lvl4":"MU-PA","region":"Outer islands of Mauritius","country":"Mauritius / Maurice","country_code":"mu"},"population":5200,"osm_type":"node","osm_id":6090322271,"type":"village","location":[57.5861766,-20.0461513],"bbox":[57.5661766,-20.0661513,57.6061766,-20.0261513]}
{"name":"Plaine des Papayes","other_names":{"name:en":"Plaine des Papayes","name:fr":"Plaine des Papayes","alt_name":"Plaine-des-Papayes"},"display_name":"Plaine des Papayes, Pamplemousses, Outer islands of Mauritius, Mauritius / Maurice","address":{"village":"Plaine des Papayes","state":"Pamplemousses","ISO3166-2-lvl4":"MU-PA","region":"Outer islands of Mauritius","country":"Mauritius / Maurice","country_code":"mu"},"population":7600,"osm_type":"node","osm_id":2613134524,"type":"village","location":[57.5809297,-20.0632959],"bbox":[57.5609297,-20.0832959,57.6009297,-20.0432959]}
{"name":"Cottage","other_names":{"name:en":"Cottage","name:fr":"Cottage"},"display_name":"Cottage, Rivière du Rempart, Outer islands of Mauritius, Mauritius / Maurice","address":{"village":"Cottage","state":"Rivière du Rempart","ISO3166-2-lvl4":"MU-RR","region":"Outer islands of Mauritius","country":"Mauritius / Maurice","country_code":"mu"},"osm_type":"node","osm_id":2188735088,"type":"village","location":[57.635319,-20.0639353],"bbox":[57.615319,-20.0839353,57.655319,-20.0439353]}
{"name":"Mapou","display_name":"Mapou, Rivière du Rempart, Outer islands of Mauritius, Mauritius / Maurice","address":{"village":"Mapou","state":"Rivière du Rempart","ISO3166-2-lvl4":"MU-RR","region":"Outer islands of Mauritius","country":"Mauritius / Maurice","country_code":"mu"},"population":1600,"osm_type":"node","osm_id":9280578409,"type":"village","location":[57.608614,-20.0788701],"bbox":[57.588614,-20.0988701,57.628614,-20.0588701]}
{"name":"Belle Vue Harel","other_names":{"name:en":"Belle Vue Harel","name:fr":"Belle Vue Harel","alt_name":"Belle Vue"},"display_name":"Belle Vue Harel, Plaine des Papayes, Pamplemousses, Outer islands of Mauritius, 31803, Mauritius / Maurice","address":{"village":"Belle Vue Harel","state":"Pamplemousses","ISO3166-2-lvl4":"MU-PA","region":"Outer islands of Mauritius","postcode":"31803","country":"Mauritius / Maurice","country_code":"mu"},"osm_type":"node","osm_id":9297460642,"type":"village","location":[57.6043439,-20.0668456],"bbox":[57.5843439,-20.0868456,57.6243439,-20.0468456]}
{"name":"Pointe aux Canonniers","display_name":"Pointe aux Canonniers, Pamplemousses, Outer islands of Mauritius, 30525, Mauritius / Maurice","address":{"village":"Pointe aux Canonniers","state":"Pamplemousses","ISO3166-2-lvl4":"MU-PA","region":"Outer islands of Mauritius","postcode":"30525","country":"Mauritius / Maurice","country_code":"mu"},"osm_type":"node","osm_id":2133916564,"type":"village","location":[57.5610047,-20.0060689],"bbox":[57.5410047,-20.0260689,57.5810047,-19.9860689]}
{"name":"Upper Vale","display_name":"Upper Vale, Rivière du Rempart, Outer islands of Mauritius, 31301, Mauritius / Maurice","address":{"village":"Upper Vale","state":"Rivière du Rempart","ISO3166-2-lvl4":"MU-RR","region":"Outer islands of Mauritius","postcode":"31301","country":"Mauritius / Maurice","country_code":"mu"},"osm_type":"node","osm_id":6090453853,"type":"village","location":[57.6039536,-20.0297786],"bbox":[57.5839536,-20.0497786,57.6239536,-20.0097786]}
{"name":"Trou aux Biches","other_names":{"alt_name":"Trou-aux-Biches"},"display_name":"Trou aux Biches, Pamplemousses, Outer islands of Mauritius, 21508, Mauritius / Maurice","address":{"village":"Trou aux Biches","state":"Pamplemousses","ISO3166-2-lvl4":"MU-PA","region":"Outer islands of Mauritius","postcode":"21508","country":"Mauritius / Maurice","country_code":"mu"},"osm_type":"node","osm_id":2133918941,"type":"village","location":[57.5447033,-20.0362961],"bbox":[57.5247033,-20.0562961,57.5647033,-20.0162961]}
{"name":"Pereybere","display_name":"Pereybere, Rivière du Rempart, Outer islands of Mauritius, 30546, Mauritius / Maurice","address":{"village":"Pereybere","state":"Rivière du Rempart","ISO3166-2-lvl4":"MU-RR","region":"Outer islands of Mauritius","postcode":"30546","country":"Mauritius / Maurice","country_code":"mu"},"osm_type":"node","osm_id":2214836478,"type":"village","location":[57.591091,-19.9949684],"bbox":[57.571091,-20.0149684,57.611091,-19.9749684]}
{"name":"Roche Terre","display_name":"Roche Terre, Rivière du Rempart, Outer islands of Mauritius, 30617, Mauritius / Maurice","address":{"village":"Roche Terre","state":"Rivière du Rempart","ISO3166-2-lvl4":"MU-RR","region":"Outer islands of Mauritius","postcode":"30617","country":"Mauritius / Maurice","country_code":"mu"},"osm_type":"node","osm_id":2214787290,"type":"village","location":[57.6522719,-20.020207],"bbox":[57.6322719,-20.040207,57.6722719,-20.000207]}
{"name":"Petit Raffray","display_name":"Petit Raffray, Rivière du Rempart, Outer islands of Mauritius, 42602, Mauritius / Maurice","address":{"village":"Petit Raffray","state":"Rivière du Rempart","ISO3166-2-lvl4":"MU-RR","region":"Outer islands of Mauritius","postcode":"42602","country":"Mauritius / Maurice","country_code":"mu"},"osm_type":"node","osm_id":2188731366,"type":"village","location":[57.6261351,-20.0194661],"bbox":[57.6061351,-20.0394661,57.6461351,-19.9994661]}
{"name":"Calodyne","display_name":"Calodyne, Rivière du Rempart, Outer islands of Mauritius, 42602, Mauritius / Maurice","address":{"village":"Calodyne","state":"Rivière du Rempart","ISO3166-2-lvl4":"MU-RR","region":"Outer islands of Mauritius","postcode":"42602","country":"Mauritius / Maurice","country_code":"mu"},"osm_type":"node","osm_id":2214786965,"type":"village","location":[57.6411139,-20.0071421],"bbox":[57.6211139,-20.0271421,57.6611139,-19.9871421]}
{"name":"Blue Bay","display_name":"Blue Bay, Beau Vallon, Grand Port, Outer islands of Mauritius, 50812, Mauritius / Maurice","address":{"village":"Blue Bay","city":"Beau Vallon","state":"Grand Port","ISO3166-2-lvl4":"MU-GP","region":"Outer islands of Mauritius","postcode":"50812","country":"Mauritius / Maurice","country_code":"mu"},"osm_type":"node","osm_id":2288192719,"type":"village","location":[57.7181542,-20.4432366],"bbox":[57.6981542,-20.4632366,57.7381542,-20.4232366]}
{"name":"Cap Malheureux","display_name":"Cap Malheureux, Rivière du Rempart, Outer islands of Mauritius, 30504, Mauritius / Maurice","address":{"village":"Cap Malheureux","state":"Rivière du Rempart","ISO3166-2-lvl4":"MU-RR","region":"Outer islands of Mauritius","postcode":"30504","country":"Mauritius / Maurice","country_code":"mu"},"osm_type":"node","osm_id":2188745344,"type":"village","location":[57.619612,-19.9859951],"bbox":[57.599612,-20.0059951,57.639612,-19.9659951]}
{"name":"Grand Bel Air","display_name":"Grand Bel Air, Grand Port, Outer islands of Mauritius, Mauritius / Maurice","address":{"village":"Grand Bel Air","state":"Grand Port","ISO3166-2-lvl4":"MU-GP","region":"Outer islands of Mauritius","country":"Mauritius / Maurice","country_code":"mu"},"osm_type":"node","osm_id":10715823053,"type":"village","location":[57.6809212,-20.4090511],"bbox":[57.6609212,-20.4290511,57.7009212,-20.3890511]}
{"name":"Plaine Magnien","display_name":"Plaine Magnien, Grand Port, Outer islands of Mauritius, Mauritius / Maurice","address":{"village":"Plaine Magnien","state":"Grand Port","ISO3166-2-lvl4":"MU-GP","region":"Outer islands of Mauritius","country":"Mauritius / Maurice","country_code":"mu"},"osm_type":"node","osm_id":247167829,"type":"village","location":[57.6611506,-20.4319913],"bbox":[57.6411506,-20.4519913,57.6811506,-20.4119913]}
{"name":"Camp Carol","display_name":"Camp Carol, Grand Port, Outer islands of Mauritius, Mauritius / Maurice","address":{"village":"Camp Carol","state":"Grand Port","ISO3166-2-lvl4":"MU-GP","region":"Outer islands of Mauritius","country":"Mauritius / Maurice","country_code":"mu"},"osm_type":"node","osm_id":5270653373,"type":"village","location":[57.6779062,-20.4613063],"bbox":[57.6579062,-20.4813063,57.6979062,-20.4413063]}
{"name":"Petit Bel Air","display_name":"Petit Bel Air, Grand Port, Outer islands of Mauritius, Mauritius / Maurice","address":{"village":"Petit Bel Air","state":"Grand Port","ISO3166-2-lvl4":"MU-GP","region":"Outer islands of Mauritius","country":"Mauritius / Maurice","country_code":"mu"},"osm_type":"node","osm_id":10685227411,"type":"village","location":[57.6956938,-20.4004863],"bbox":[57.6756938,-20.4204863,57.7156938,-20.3804863]}
{"name":"Riche en Eau","display_name":"Riche en Eau, Saint-Hubert, Grand Port, Outer islands of Mauritius, Mauritius / Maurice","address":{"village":"Riche en Eau","state":"Grand Port","ISO3166-2-lvl4":"MU-GP","region":"Outer islands of Mauritius","country":"Mauritius / Maurice","country_code":"mu"},"osm_type":"node","osm_id":10657852851,"type":"village","location":[57.6594579,-20.3867908],"bbox":[57.6394579,-20.4067908,57.6794579,-20.3667908]}
{"name":"Rivière des Créoles","display_name":"Rivière des Créoles, Grand Port, Outer islands of Mauritius, Mauritius / Maurice","address":{"village":"Rivière des Créoles","state":"Grand Port","ISO3166-2-lvl4":"MU-GP","region":"Outer islands of Mauritius","country":"Mauritius / Maurice","country_code":"mu"},"osm_type":"node","osm_id":5967241556,"type":"village","location":[57.6947159,-20.3905319],"bbox":[57.6747159,-20.4105319,57.7147159,-20.3705319]}
{"name":"Old Grand Port","other_names":{"name:fr":"Vieux Grand Port"},"display_name":"Old Grand Port, Grand Port, Outer islands of Mauritius, Mauritius / Maurice","address":{"village":"Old Grand Port","state":"Grand Port","ISO3166-2-lvl4":"MU-GP","region":"Outer islands of Mauritius","country":"Mauritius / Maurice","country_code":"mu"},"osm_type":"node","osm_id":5973854015,"type":"village","location":[57.7182412,-20.3746392],"bbox":[57.6982412,-20.3946392,57.7382412,-20.3546392]}
{"name":"Belle Rive","display_name":"Belle Rive, Flacq, Outer islands of Mauritius, 50401, Mauritius / Maurice","address":{"village":"Belle Rive","state":"Flacq","ISO3166-2-lvl4":"MU-FL","region":"Outer islands of Mauritius","postcode":"50401","country":"Mauritius / Maurice","country_code":"mu"},"osm_type":"node","osm_id":5737234221,"type":"village","location":[57.7270615,-20.3106152],"bbox":[57.7070615,-20.3306152,57.7470615,-20.2906152]}
{"name":"Bois des Amourettes","display_name":"Bois des Amourettes, Grand Port, Outer islands of Mauritius, Mauritius / Maurice","address":{"village":"Bois des Amourettes","state":"Grand Port","ISO3166-2-lvl4":"MU-GP","region":"Outer islands of Mauritius","country":"Mauritius / Maurice","country_code":"mu"},"osm_type":"node","osm_id":10715909139,"type":"village","location":[57.7366513,-20.368364],"bbox":[57.7166513,-20.388364,57.7566513,-20.348364]}
{"name":"Bambous Virieux","other_names":{"name:en":"Bambous Virieux","name:fr":"Bambous Virieux"},"display_name":"Bambous Virieux, Grand Port, Outer islands of Mauritius, Mauritius / Maurice","address":{"village":"Bambous Virieux","state":"Grand Port","ISO3166-2-lvl4":"MU-GP","region":"Outer islands of Mauritius","country":"Mauritius / Maurice","country_code":"mu"},"population":1500,"osm_type":"node","osm_id":5760635718,"type":"village","location":[57.7637829,-20.3439274],"bbox":[57.7437829,-20.3639274,57.7837829,-20.3239274]}
{"name":"Deux Frères","display_name":"Deux Frères, Quatre Soeurs, Grand Port, Outer islands of Mauritius, 40101, Mauritius / Maurice","address":{"village":"Deux Frères","state":"Grand Port","ISO3166-2-lvl4":"MU-GP","region":"Outer islands of Mauritius","postcode":"40101","country":"Mauritius / Maurice","country_code":"mu"},"osm_type":"node","osm_id":10680917358,"type":"village","location":[57.7789605,-20.2904455],"bbox":[57.7589605,-20.3104455,57.7989605,-20.2704455]}
{"name":"Camp de Masque Pavé","other_names":{"name:en":"Camp De Masque Pave","name:fr":"Camp-de-Masque-Pavé"},"display_name":"Camp de Masque Pavé, Flacq, Outer islands of Mauritius, 80902, Mauritius / Maurice","address":{"village":"Camp de Masque Pavé","state":"Flacq","ISO3166-2-lvl4":"MU-FL","region":"Outer islands of Mauritius","postcode":"80902","country":"Mauritius / Maurice","country_code":"mu"},"osm_type":"node","osm_id":9333427208,"type":"village","location":[57.6824605,-20.2497048],"bbox":[57.6624605,-20.2697048,57.7024605,-20.2297048]}
{"name":"Camp de Masque","other_names":{"name:en":"Camp De Masque","name:fr":"Camp-de-Masque"},"display_name":"Camp de Masque, Flacq, Outer islands of Mauritius, 42601, Mauritius / Maurice","address":{"village":"Camp de Masque","state":"Flacq","ISO3166-2-lvl4":"MU-FL","region":"Outer islands of Mauritius","postcode":"42601","country":"Mauritius / Maurice","country_code":"mu"},"osm_type":"node","osm_id":2606366124,"type":"village","location":[57.6741039,-20.2358398],"bbox":[57.6541039,-20.2558398,57.6941039,-20.2158398]}
{"name":"Grand River South-East","other_names":{"name:fr":"Grande Rivière Sud-Est"},"display_name":"Grand River South-East, Flacq, Outer islands of Mauritius, 42211, Mauritius / Maurice","address":{"village":"Grand River South-East","state":"Flacq","ISO3166-2-lvl4":"MU-FL","region":"Outer islands of Mauritius","postcode":"42211","country":"Mauritius / Maurice","country_code":"mu"},"population":2100,"osm_type":"node","osm_id":5762924631,"type":"village","location":[57.7851931,-20.2907247],"bbox":[57.7651931,-20.3107247,57.8051931,-20.2707247]}
{"name":"Ecroignard","display_name":"Ecroignard, Flacq, Outer islands of Mauritius, 41605, Mauritius / Maurice","address":{"village":"Ecroignard","state":"Flacq","ISO3166-2-lvl4":"MU-FL","region":"Outer islands of Mauritius","postcode":"41605","country":"Mauritius / Maurice","country_code":"mu"},"osm_type":"node","osm_id":2054192858,"type":"village","location":[57.7430658,-20.2278636],"bbox":[57.7230658,-20.2478636,57.7630658,-20.2078636]}
{"name":"Quatre Soeurs","other_names":{"name:fr":"Quatre Sœurs"},"display_name":"Quatre Soeurs, Grand Port, Outer islands of Mauritius, Mauritius / Maurice","address":{"village":"Quatre Soeurs","state":"Grand Port","ISO3166-2-lvl4":"MU-GP","region":"Outer islands of Mauritius","country":"Mauritius / Maurice","country_code":"mu"},"population":3300,"osm_type":"node","osm_id":5737237091,"type":"village","location":[57.7736624,-20.2995874],"bbox":[57.7536624,-20.3195874,57.7936624,-20.2795874]}
{"name":"Grand Sable","display_name":"Grand Sable, Grand Port, Outer islands of Mauritius, Mauritius / Maurice","address":{"village":"Grand Sable","state":"Grand Port","ISO3166-2-lvl4":"MU-GP","region":"Outer islands of Mauritius","country":"Mauritius / Maurice","country_code":"mu"},"population":2200,"osm_type":"node","osm_id":5762893094,"type":"village","location":[57.7695472,-20.3247212],"bbox":[57.7495472,-20.3447212,57.7895472,-20.3047212]}
{"name":"Trou d'Eau Douce","display_name":"Trou d'Eau Douce, Flacq, Outer islands of Mauritius, 42207, Mauritius / Maurice","address":{"village":"Trou d'Eau Douce","state":"Flacq","ISO3166-2-lvl4":"MU-FL","region":"Outer islands of Mauritius","postcode":"42207","country":"Mauritius / Maurice","country_code":"mu"},"population":5700,"osm_type":"node","osm_id":281956800,"type":"village","location":[57.784971,-20.2397513],"bbox":[57.764971,-20.2597513,57.804971,-20.2197513]}
{"name":"Camp Ithier","display_name":"Camp Ithier, Flacq, Outer islands of Mauritius, 41605, Mauritius / Maurice","address":{"village":"Camp Ithier","state":"Flacq","ISO3166-2-lvl4":"MU-FL","region":"Outer islands of Mauritius","postcode":"41605","country":"Mauritius / Maurice","country_code":"mu"},"population":4300,"osm_type":"node","osm_id":2054192853,"type":"village","location":[57.7501368,-20.2177855],"bbox":[57.7301368,-20.2377855,57.7701368,-20.1977855]}
{"name":"St Julien","other_names":{"name:fr":"Saint Julien"},"display_name":"St Julien, Flacq, Outer islands of Mauritius, 42601, Mauritius / Maurice","address":{"village":"St Julien","state":"Flacq","ISO3166-2-lvl4":"MU-FL","region":"Outer islands of Mauritius","postcode":"42601","country":"Mauritius / Maurice","country_code":"mu"},"osm_type":"node","osm_id":1845967775,"type":"village","location":[57.6769931,-20.2059979],"bbox":[57.6569931,-20.2259979,57.6969931,-20.1859979]}
{"name":"Bonne Mère","display_name":"Bonne Mère, Flacq, Outer islands of Mauritius, 40606, Mauritius / Maurice","address":{"village":"Bonne Mère","state":"Flacq","ISO3166-2-lvl4":"MU-FL","region":"Outer islands of Mauritius","postcode":"40606","country":"Mauritius / Maurice","country_code":"mu"},"osm_type":"node","osm_id":2998127771,"type":"village","location":[57.7033937,-20.2123016],"bbox":[57.6833937,-20.2323016,57.7233937,-20.1923016]}
{"name":"Lallmatie","display_name":"Lallmatie, Flacq, Outer islands of Mauritius, 42601, Mauritius / Maurice","address":{"village":"Lallmatie","state":"Flacq","ISO3166-2-lvl4":"MU-FL","region":"Outer islands of Mauritius","postcode":"42601","country":"Mauritius / Maurice","country_code":"mu"},"osm_type":"node","osm_id":2606430366,"type":"village","location":[57.6671165,-20.190989],"bbox":[57.6471165,-20.210989,57.6871165,-20.170989]}
{"name":"Montagne Blanche","display_name":"Montagne Blanche, Moka, Outer islands of Mauritius, Mauritius / Maurice","address":{"village":"Montagne Blanche","state":"Moka","ISO3166-2-lvl4":"MU-MO","region":"Outer islands of Mauritius","country":"Mauritius / Maurice","country_code":"mu"},"osm_type":"node","osm_id":1846508109,"type":"village","location":[57.6614154,-20.2863031],"bbox":[57.6414154,-20.3063031,57.6814154,-20.2663031]}
{"name":"Sebastopol","display_name":"Sebastopol, Flacq, Outer islands of Mauritius, 80902, Mauritius / Maurice","address":{"village":"Sebastopol","state":"Flacq","ISO3166-2-lvl4":"MU-FL","region":"Outer islands of Mauritius","postcode":"80902","country":"Mauritius / Maurice","country_code":"mu"},"osm_type":"node","osm_id":2623318712,"type":"village","location":[57.6926179,-20.2906555],"bbox":[57.6726179,-20.3106555,57.7126179,-20.2706555]}
{"name":"Bon Accueil","display_name":"Bon Accueil, Flacq, Outer islands of Mauritius, 42601, Mauritius / Maurice","address":{"village":"Bon Accueil","state":"Flacq","ISO3166-2-lvl4":"MU-FL","region":"Outer islands of Mauritius","postcode":"42601","country":"Mauritius / Maurice","country_code":"mu"},"osm_type":"node","osm_id":1845944409,"type":"village","location":[57.670382,-20.1745003],"bbox":[57.650382,-20.1945003,57.690382,-20.1545003]}
{"name":"Poste de Flacq","display_name":"Poste de Flacq, Flacq, Outer islands of Mauritius, Mauritius / Maurice","address":{"village":"Poste de Flacq","state":"Flacq","ISO3166-2-lvl4":"MU-FL","region":"Outer islands of Mauritius","country":"Mauritius / Maurice","country_code":"mu"},"population":8450,"osm_type":"node","osm_id":2191991828,"type":"village","location":[57.7349813,-20.1682145],"bbox":[57.7149813,-20.1882145,57.7549813,-20.1482145]}
{"name":"Olivia","display_name":"Olivia, Flacq, Outer islands of Mauritius, 40101, Mauritius / Maurice","address":{"village":"Olivia","state":"Flacq","ISO3166-2-lvl4":"MU-FL","region":"Outer islands of Mauritius","postcode":"40101","country":"Mauritius / Maurice","country_code":"mu"},"population":3600,"osm_type":"node","osm_id":2623315827,"type":"village","location":[57.7398677,-20.2827282],"bbox":[57.7198677,-20.3027282,57.7598677,-20.2627282]}
{"name":"Mare La Chaux","display_name":"Mare La Chaux, Flacq, Outer islands of Mauritius, Mauritius / Maurice","address":{"village":"Mare La Chaux","state":"Flacq","ISO3166-2-lvl4":"MU-FL","region":"Outer islands of Mauritius","country":"Mauritius / Maurice","country_code":"mu"},"population":1900,"osm_type":"node","osm_id":1846015242,"type":"village","location":[57.7557466,-20.2021511],"bbox":[57.7357466,-20.2221511,57.7757466,-20.1821511]}
{"name":"Clemencia","display_name":"Clemencia, Flacq, Outer islands of Mauritius, 40101, Mauritius / Maurice","address":{"village":"Clemencia","state":"Flacq","ISO3166-2-lvl4":"MU-FL","region":"Outer islands of Mauritius","postcode":"40101","country":"Mauritius / Maurice","country_code":"mu"},"osm_type":"node","osm_id":2606354472,"type":"village","location":[57.7158549,-20.2648646],"bbox":[57.6958549,-20.2848646,57.7358549,-20.2448646]}
{"name":"Pont Blanc","display_name":"Pont Blanc, Flacq, Outer islands of Mauritius, 40606, Mauritius / Maurice","address":{"village":"Pont Blanc","state":"Flacq","ISO3166-2-lvl4":"MU-FL","region":"Outer islands of Mauritius","postcode":"40606","country":"Mauritius / Maurice","country_code":"mu"},"osm_type":"node","osm_id":2788511523,"type":"village","location":[57.7127245,-20.1704802],"bbox":[57.6927245,-20.1904802,57.7327245,-20.1504802]}
{"name":"Quatre Cocos","display_name":"Quatre Cocos, Flacq, Outer islands of Mauritius, Mauritius / Maurice","address":{"village":"Quatre Cocos","state":"Flacq","ISO3166-2-lvl4":"MU-FL","region":"Outer islands of Mauritius","country":"Mauritius / Maurice","country_code":"mu"},"population":5900,"osm_type":"node","osm_id":2999874942,"type":"village","location":[57.7705601,-20.2094657],"bbox":[57.7505601,-20.2294657,57.7905601,-20.1894657]}
{"name":"Belle Mare","display_name":"Belle Mare, Quatre Cocos, Flacq, Outer islands of Mauritius, 41601, Mauritius / Maurice","address":{"village":"Belle Mare","state":"Flacq","ISO3166-2-lvl4":"MU-FL","region":"Outer islands of Mauritius","postcode":"41601","country":"Mauritius / Maurice","country_code":"mu"},"osm_type":"node","osm_id":1846015236,"type":"village","location":[57.774734,-20.1983407],"bbox":[57.754734,-20.2183407,57.794734,-20.1783407]}
{"name":"Belle Vue Maurel","display_name":"Belle Vue Maurel, Rivière du Rempart, Outer islands of Mauritius, 31201, Mauritius / Maurice","address":{"village":"Belle Vue Maurel","state":"Rivière du Rempart","ISO3166-2-lvl4":"MU-RR","region":"Outer islands of Mauritius","postcode":"31201","country":"Mauritius / Maurice","country_code":"mu"},"osm_type":"node","osm_id":1133959349,"type":"village","location":[57.6679765,-20.1234803],"bbox":[57.6479765,-20.1434803,57.6879765,-20.1034803]}
{"name":"Poudre d'Or","display_name":"Poudre d'Or, Rivière du Rempart, Outer islands of Mauritius, 31201, Mauritius / Maurice","address":{"village":"Poudre d'Or","state":"Rivière du Rempart","ISO3166-2-lvl4":"MU-RR","region":"Outer islands of Mauritius","postcode":"31201","country":"Mauritius / Maurice","country_code":"mu"},"osm_type":"node","osm_id":2188731987,"type":"village","location":[57.6838133,-20.0617988],"bbox":[57.6638133,-20.0817988,57.7038133,-20.0417988]}
{"name":"Plaines des Roches","other_names":{"name:en":"Plaines des Roches","name:fr":"Plaines des Roches"},"display_name":"Plaines des Roches, Rivière du Rempart, Outer islands of Mauritius, Mauritius / Maurice","address":{"village":"Plaines des Roches","state":"Rivière du Rempart","ISO3166-2-lvl4":"MU-RR","region":"Outer islands of Mauritius","country":"Mauritius / Maurice","country_code":"mu"},"population":4000,"osm_type":"node","osm_id":9280578404,"type":"village","location":[57.6983285,-20.1177641],"bbox":[57.6783285,-20.1377641,57.7183285,-20.0977641]}
{"name":"Roches Noires","other_names":{"name:etymology:wikipedia":"en:Basalt"},"display_name":"Roches Noires, Rivière du Rempart, Outer islands of Mauritius, 31202, Mauritius / Maurice","address":{"village":"Roches Noires","state":"Rivière du Rempart","ISO3166-2-lvl4":"MU-RR","region":"Outer islands of Mauritius","postcode":"31202","country":"Mauritius / Maurice","country_code":"mu"},"population":5700,"osm_type":"node","osm_id":2214788269,"type":"village","location":[57.7181573,-20.1110998],"bbox":[57.6981573,-20.1310998,57.7381573,-20.0910998]}
{"name":"Azuri Village","display_name":"Azuri Village, Rivière du Rempart, Outer islands of Mauritius, 31201, Mauritius / Maurice","address":{"village":"Azuri Village","state":"Rivière du Rempart","ISO3166-2-lvl4":"MU-RR","region":"Outer islands of Mauritius","postcode":"31201","country":"Mauritius / Maurice","country_code":"mu"},"osm_type":"node","osm_id":9663564340,"type":"village","location":[57.7076691,-20.0951946],"bbox":[57.6876691,-20.1151946,57.7276691,-20.0751946]}
{"name":"Grand La Fouche Corail","other_names":{"name:ru":"Ля Фоуш"},"display_name":"Grand La Fouche Corail, Rodrigues, Outer islands of Mauritius, Mauritius / Maurice","address":{"village":"Grand La Fouche Corail","island":"Rodrigues","ISO3166-2-lvl5":"MU-RO","region":"Outer islands of Mauritius","country":"Mauritius / Maurice","country_code":"mu"},"osm_type":"node","osm_id":2261636504,"type":"village","location":[63.3820066,-19.7353277],"bbox":[63.3620066,-19.7553277,63.4020066,-19.7153277]}
{"name":"Goodlands","display_name":"Goodlands, Rivière du Rempart, Outer islands of Mauritius, 30617, Mauritius / Maurice","address":{"village":"Goodlands","state":"Rivière du Rempart","ISO3166-2-lvl4":"MU-RR","region":"Outer islands of Mauritius","postcode":"30617","country":"Mauritius / Maurice","country_code":"mu"},"osm_type":"node","osm_id":2188729948,"type":"village","location":[57.6589224,-20.0350701],"bbox":[57.6389224,-20.0550701,57.6789224,-20.0150701]}
{"name":"Rivière Cocos","display_name":"Rivière Cocos, Rodrigues, Outer islands of Mauritius, Mauritius / Maurice","address":{"village":"Rivière Cocos","island":"Rodrigues","ISO3166-2-lvl5":"MU-RO","region":"Outer islands of Mauritius","country":"Mauritius / Maurice","country_code":"mu"},"osm_type":"node","osm_id":2261636512,"type":"village","location":[63.4113562,-19.7413677],"bbox":[63.3913562,-19.7613677,63.4313562,-19.7213677]}
{"name":"Songes","display_name":"Songes, Rodrigues, Outer islands of Mauritius, Mauritius / Maurice","address":{"village":"Songes","island":"Rodrigues","ISO3166-2-lvl5":"MU-RO","region":"Outer islands of Mauritius","country":"Mauritius / Maurice","country_code":"mu"},"osm_type":"node","osm_id":440012868,"type":"village","location":[63.4472555,-19.7415194],"bbox":[63.4272555,-19.7615194,63.4672555,-19.7215194]}
{"name":"La Ferme","other_names":{"name:ru":"Ля Ферм"},"display_name":"La Ferme, Rodrigues, Outer islands of Mauritius, Mauritius / Maurice","address":{"village":"La Ferme","island":"Rodrigues","ISO3166-2-lvl5":"MU-RO","region":"Outer islands of Mauritius","country":"Mauritius / Maurice","country_code":"mu"},"osm_type":"node","osm_id":2261636503,"type":"village","location":[63.3780376,-19.722084],"bbox":[63.3580376,-19.742084,63.3980376,-19.702084]}
{"name":"Port Sud Est","other_names":{"alt_name":"Port South East"},"display_name":"Port Sud Est, Rodrigues, Outer islands of Mauritius, Mauritius / Maurice","address":{"village":"Port Sud Est","island":"Rodrigues","ISO3166-2-lvl5":"MU-RO","region":"Outer islands of Mauritius","country":"Mauritius / Maurice","country_code":"mu"},"osm_type":"node","osm_id":305259532,"type":"village","location":[63.4540717,-19.7396379],"bbox":[63.4340717,-19.7596379,63.4740717,-19.7196379]}
{"name":"Baie Du Nord","display_name":"Baie Du Nord, Rodrigues, Outer islands of Mauritius, Mauritius / Maurice","address":{"village":"Baie Du Nord","island":"Rodrigues","ISO3166-2-lvl5":"MU-RO","region":"Outer islands of Mauritius","country":"Mauritius / Maurice","country_code":"mu"},"osm_type":"node","osm_id":6378936821,"type":"village","location":[63.3747759,-19.7123388],"bbox":[63.3547759,-19.7323388,63.3947759,-19.6923388]}
{"name":"Petit Gabriel","display_name":"Petit Gabriel, Rodrigues, Outer islands of Mauritius, Mauritius / Maurice","address":{"village":"Petit Gabriel","island":"Rodrigues","ISO3166-2-lvl5":"MU-RO","region":"Outer islands of Mauritius","country":"Mauritius / Maurice","country_code":"mu"},"osm_type":"node","osm_id":2261636505,"type":"village","location":[63.4279377,-19.7165055],"bbox":[63.4079377,-19.7365055,63.4479377,-19.6965055]}
{"name":"Mangue","display_name":"Mangue, Rodrigues, Outer islands of Mauritius, Mauritius / Maurice","address":{"village":"Mangue","island":"Rodrigues","ISO3166-2-lvl5":"MU-RO","region":"Outer islands of Mauritius","country":"Mauritius / Maurice","country_code":"mu"},"osm_type":"node","osm_id":9379276079,"type":"village","location":[63.3968406,-19.7187384],"bbox":[63.3768406,-19.7387384,63.4168406,-19.6987384]}
{"name":"Quatre Vents","display_name":"Quatre Vents, Rodrigues, Outer islands of Mauritius, Mauritius / Maurice","address":{"village":"Quatre Vents","island":"Rodrigues","ISO3166-2-lvl5":"MU-RO","region":"Outer islands of Mauritius","country":"Mauritius / Maurice","country_code":"mu"},"osm_type":"node","osm_id":9379276080,"type":"village","location":[63.4086263,-19.7201888],"bbox":[63.3886263,-19.7401888,63.4286263,-19.7001888]}
{"name":"Baie Malgache","display_name":"Baie Malgache, Rodrigues, Outer islands of Mauritius, Mauritius / Maurice","address":{"village":"Baie Malgache","island":"Rodrigues","ISO3166-2-lvl5":"MU-RO","region":"Outer islands of Mauritius","country":"Mauritius / Maurice","country_code":"mu"},"osm_type":"node","osm_id":2261636502,"type":"village","location":[63.3920642,-19.6972792],"bbox":[63.3720642,-19.7172792,63.4120642,-19.6772792]}
{"name":"Baie Aux Huîtres","display_name":"Baie Aux Huîtres, Rodrigues, Outer islands of Mauritius, Mauritius / Maurice","address":{"village":"Baie Aux Huîtres","island":"Rodrigues","ISO3166-2-lvl5":"MU-RO","region":"Outer islands of Mauritius","country":"Mauritius / Maurice","country_code":"mu"},"osm_type":"node","osm_id":6378936822,"type":"village","location":[63.4082954,-19.6931121],"bbox":[63.3882954,-19.7131121,63.4282954,-19.6731121]}
{"name":"Grand Gaube","display_name":"Grand Gaube, Rivière du Rempart, Outer islands of Mauritius, 30617, Mauritius / Maurice","address":{"village":"Grand Gaube","state":"Rivière du Rempart","ISO3166-2-lvl4":"MU-RR","region":"Outer islands of Mauritius","postcode":"30617","country":"Mauritius / Maurice","country_code":"mu"},"osm_type":"node","osm_id":2188727774,"type":"village","location":[57.6644156,-20.0086191],"bbox":[57.6444156,-20.0286191,57.6844156,-19.9886191]}
{"name":"Saint Gabriel","other_names":{"name:ru":"Сант Габриэль"},"display_name":"Saint Gabriel, Rodrigues, Outer islands of Mauritius, Mauritius / Maurice","address":{"village":"Saint Gabriel","island":"Rodrigues","ISO3166-2-lvl5":"MU-RO","region":"Outer islands of Mauritius","country":"Mauritius / Maurice","country_code":"mu"},"osm_type":"node","osm_id":2261636516,"type":"village","location":[63.4413439,-19.7171592],"bbox":[63.4213439,-19.7371592,63.4613439,-19.6971592]}
{"name":"Mont Lubin","display_name":"Mont Lubin, Rodrigues, Outer islands of Mauritius, Mauritius / Maurice","address":{"village":"Mont Lubin","island":"Rodrigues","ISO3166-2-lvl5":"MU-RO","region":"Outer islands of Mauritius","country":"Mauritius / Maurice","country_code":"mu"},"population":1200,"osm_type":"node","osm_id":439859186,"type":"village","location":[63.4419009,-19.7054909],"bbox":[63.4219009,-19.7254909,63.4619009,-19.6854909]}
{"name":"Palissade","display_name":"Palissade, Rodrigues, Outer islands of Mauritius, Mauritius / Maurice","address":{"village":"Palissade","island":"Rodrigues","ISO3166-2-lvl5":"MU-RO","region":"Outer islands of Mauritius","country":"Mauritius / Maurice","country_code":"mu"},"osm_type":"node","osm_id":4312819514,"type":"village","location":[63.4522223,-19.7119905],"bbox":[63.4322223,-19.7319905,63.4722223,-19.6919905]}
{"name":"Saint François","display_name":"Saint François, Rodrigues, Outer islands of Mauritius, Mauritius / Maurice","address":{"village":"Saint François","island":"Rodrigues","ISO3166-2-lvl5":"MU-RO","region":"Outer islands of Mauritius","country":"Mauritius / Maurice","country_code":"mu"},"osm_type":"node","osm_id":9961246143,"type":"village","location":[63.4946048,-19.7007142],"bbox":[63.4746048,-19.7207142,63.5146048,-19.6807142]}
{"name":"Nouvelle Decouverte","display_name":"Nouvelle Decouverte, Rodrigues, Outer islands of Mauritius, Mauritius / Maurice","address":{"village":"Nouvelle Decouverte","island":"Rodrigues","ISO3166-2-lvl5":"MU-RO","region":"Outer islands of Mauritius","country":"Mauritius / Maurice","country_code":"mu"},"osm_type":"node","osm_id":9004360550,"type":"village","location":[63.467509,-19.7101332],"bbox":[63.447509,-19.7301332,63.487509,-19.6901332]}
{"name":"Graviers","display_name":"Graviers, Rodrigues, Outer islands of Mauritius, Mauritius / Maurice","address":{"village":"Graviers","island":"Rodrigues","ISO3166-2-lvl5":"MU-RO","region":"Outer islands of Mauritius","country":"Mauritius / Maurice","country_code":"mu"},"osm_type":"node","osm_id":439899521,"type":"village","location":[63.4829631,-19.7265215],"bbox":[63.4629631,-19.7465215,63.5029631,-19.7065215]}
{"name":"Grande Montagne","display_name":"Grande Montagne, Rodrigues, Outer islands of Mauritius, Mauritius / Maurice","address":{"village":"Grande Montagne","island":"Rodrigues","ISO3166-2-lvl5":"MU-RO","region":"Outer islands of Mauritius","country":"Mauritius / Maurice","country_code":"mu"},"osm_type":"node","osm_id":9379276081,"type":"village","location":[63.4626816,-19.7051958],"bbox":[63.4426816,-19.7251958,63.4826816,-19.6851958]}
{"name":"Crève Cœur","display_name":"Crève Cœur, Rodrigues, Outer islands of Mauritius, Mauritius / Maurice","address":{"village":"Crève Cœur","island":"Rodrigues","ISO3166-2-lvl5":"MU-RO","region":"Outer islands of Mauritius","country":"Mauritius / Maurice","country_code":"mu"},"osm_type":"node","osm_id":2261656145,"type":"village","location":[63.4305518,-19.6805529],"bbox":[63.4105518,-19.7005529,63.4505518,-19.6605529]}
{"name":"Grand Baie","display_name":"Grand Baie, Rodrigues, Outer islands of Mauritius, Mauritius / Maurice","address":{"village":"Grand Baie","island":"Rodrigues","ISO3166-2-lvl5":"MU-RO","region":"Outer islands of Mauritius","country":"Mauritius / Maurice","country_code":"mu"},"osm_type":"node","osm_id":2261656146,"type":"village","location":[63.4491286,-19.6784694],"bbox":[63.4291286,-19.6984694,63.4691286,-19.6584694]}
{"name":"Anse aux Anglais","display_name":"Anse aux Anglais, Rodrigues, Outer islands of Mauritius, Mauritius / Maurice","address":{"village":"Anse aux Anglais","island":"Rodrigues","ISO3166-2-lvl5":"MU-RO","region":"Outer islands of Mauritius","country":"Mauritius / Maurice","country_code":"mu"},"osm_type":"node","osm_id":2261656143,"type":"village","location":[63.4330411,-19.6750848],"bbox":[63.4130411,-19.6950848,63.4530411,-19.6550848]}
{"name":"Roche Bon Dieu","display_name":"Roche Bon Dieu, Rodrigues, Outer islands of Mauritius, Mauritius / Maurice","address":{"village":"Roche Bon Dieu","island":"Rodrigues","ISO3166-2-lvl5":"MU-RO","region":"Outer islands of Mauritius","country":"Mauritius / Maurice","country_code":"mu"},"osm_type":"node","osm_id":4312864159,"type":"village","location":[63.476313,-19.6911859],"bbox":[63.456313,-19.7111859,63.496313,-19.6711859]}
{"name":"Pointe Coton","display_name":"Pointe Coton, Rodrigues, Outer islands of Mauritius, Mauritius / Maurice","address":{"village":"Pointe Coton","island":"Rodrigues","ISO3166-2-lvl5":"MU-RO","region":"Outer islands of Mauritius","country":"Mauritius / Maurice","country_code":"mu"},"osm_type":"node","osm_id":9961217470,"type":"village","location":[63.4951286,-19.6849565],"bbox":[63.4751286,-19.7049565,63.5151286,-19.6649565]}
{"name":"Sainte Rita","display_name":"Sainte Rita, Agaléga, Outer islands of Mauritius, Mauritius / Maurice","address":{"village":"Sainte Rita","state_district":"Agaléga","ISO3166-2-lvl5":"MU-AG","region":"Outer islands of Mauritius","country":"Mauritius / Maurice","country_code":"mu"},"osm_type":"node","osm_id":3228820361,"type":"village","location":[56.6816513,-10.454599],"bbox":[56.6616513,-10.474599,56.7016513,-10.434599]}
{"name":"Vingt Cinq","display_name":"Vingt Cinq, Agaléga, Outer islands of Mauritius, Mauritius / Maurice","address":{"village":"Vingt Cinq","state_district":"Agaléga","ISO3166-2-lvl5":"MU-AG","region":"Outer islands of Mauritius","country":"Mauritius / Maurice","country_code":"mu"},"osm_type":"node","osm_id":3228778761,"type":"village","location":[56.6176598,-10.3887066],"bbox":[56.5976598,-10.4087066,56.6376598,-10.3687066]}
{"display_name":"Gros Cailloux, Rivière Noire / Black River, Outer islands of Mauritius, Mauritius / Maurice","address":{"village":"Gros Cailloux","state":"Rivière Noire / Black River","ISO3166-2-lvl4":"MU-BL","region":"Outer islands of Mauritius","country":"Mauritius / Maurice","country_code":"mu"},"osm_type":"way","osm_id":363199018,"type":"hamlet","location":[57.441530978219404,-20.2076611],"bbox":[57.4387289,-20.208905,57.4436151,-20.2066027]}
{"name":"Bois des Amourettes","display_name":"Bois des Amourettes, Grand Port, Outer islands of Mauritius, Mauritius / Maurice","address":{"hamlet":"Bois des Amourettes","village":"Bois des Amourettes","state":"Grand Port","ISO3166-2-lvl4":"MU-GP","region":"Outer islands of Mauritius","country":"Mauritius / Maurice","country_code":"mu"},"osm_type":"way","osm_id":1119812021,"type":"hamlet","location":[57.74216550822657,-20.360346200000002],"bbox":[57.7406147,-20.3629561,57.7444894,-20.3577551]}
{"name":"Camp Marcellin","display_name":"Camp Marcellin, Camp Ithier, Flacq, Outer islands of Mauritius, Mauritius / Maurice","address":{"hamlet":"Camp Marcellin","village":"Camp Ithier","state":"Flacq","ISO3166-2-lvl4":"MU-FL","region":"Outer islands of Mauritius","country":"Mauritius / Maurice","country_code":"mu"},"osm_type":"way","osm_id":194908518,"type":"hamlet","location":[57.75924510793094,-20.2192667],"bbox":[57.7571923,-20.2215242,57.7634877,-20.2171373]}
{"name":"Bramsthan","display_name":"Bramsthan, Centre de Flacq, Flacq, Outer islands of Mauritius, Mauritius / Maurice","address":{"hamlet":"Bramsthan","town":"Centre de Flacq","state":"Flacq","ISO3166-2-lvl4":"MU-FL","region":"Outer islands of Mauritius","country":"Mauritius / Maurice","country_code":"mu"},"osm_type":"way","osm_id":194908514,"type":"hamlet","location":[57.7366354,-20.212125],"bbox":[57.7327528,-20.2169569,57.7439729,-20.2029044]}
{"name":"Beau Champ","display_name":"Beau Champ, Flacq, Outer islands of Mauritius, Mauritius / Maurice","address":{"hamlet":"Beau Champ","state":"Flacq","ISO3166-2-lvl4":"MU-FL","region":"Outer islands of Mauritius","country":"Mauritius / Maurice","country_code":"mu"},"osm_type":"way","osm_id":256692576,"type":"hamlet","location":[57.77224196666499,-20.27473185],"bbox":[57.7705897,-20.2759251,57.7747473,-20.2728615]}
{"name":"Isidore Rose","display_name":"Isidore Rose, Camp Ithier, Flacq, Outer islands of Mauritius, Mauritius / Maurice","address":{"hamlet":"Isidore Rose","village":"Camp Ithier","state":"Flacq","ISO3166-2-lvl4":"MU-FL","region":"Outer islands of Mauritius","country":"Mauritius / Maurice","country_code":"mu"},"osm_type":"way","osm_id":194908511,"type":"hamlet","location":[57.753329793090316,-20.20985045],"bbox":[57.7475536,-20.2156928,57.7570011,-20.204458]}
{"name":"Choisy","display_name":"Choisy, Baie du Cap, Savanne, Outer islands of Mauritius, Mauritius / Maurice","address":{"hamlet":"Choisy","village":"Baie du Cap","state":"Savanne","ISO3166-2-lvl4":"MU-SA","region":"Outer islands of Mauritius","country":"Mauritius / Maurice","country_code":"mu"},"osm_type":"node","osm_id":3256748974,"type":"hamlet","location":[57.3796444,-20.4830722],"bbox":[57.3596444,-20.5030722,57.3996444,-20.4630722]}
{"name":"Coteau Raffin","display_name":"Coteau Raffin, La Gaulette, Rivière Noire / Black River, Outer islands of Mauritius, Mauritius / Maurice","address":{"hamlet":"Coteau Raffin","village":"La Gaulette","state":"Rivière Noire / Black River","ISO3166-2-lvl4":"MU-BL","region":"Outer islands of Mauritius","country":"Mauritius / Maurice","country_code":"mu"},"osm_type":"node","osm_id":2638479941,"type":"hamlet","location":[57.3548454,-20.4360901],"bbox":[57.3348454,-20.4560901,57.3748454,-20.4160901]}
{"name":"Riambel","display_name":"Riambel, Surinam, Savanne, Outer islands of Mauritius, Mauritius / Maurice","address":{"hamlet":"Riambel","town":"Surinam","state":"Savanne","ISO3166-2-lvl4":"MU-SA","region":"Outer islands of Mauritius","country":"Mauritius / Maurice","country_code":"mu"},"osm_type":"node","osm_id":2160657629,"type":"hamlet","location":[57.4929368,-20.5169117],"bbox":[57.4729368,-20.5369117,57.5129368,-20.4969117]}
{"name":"Union Ducray","display_name":"Union Ducray, Saint Aubin, Savanne, Outer islands of Mauritius, Mauritius / Maurice","address":{"hamlet":"Union Ducray","village":"Saint Aubin","state":"Savanne","ISO3166-2-lvl4":"MU-SA","region":"Outer islands of Mauritius","country":"Mauritius / Maurice","country_code":"mu"},"osm_type":"node","osm_id":10593841376,"type":"hamlet","location":[57.5449812,-20.5066062],"bbox":[57.5249812,-20.5266062,57.5649812,-20.4866062]}
{"name":"Senneville","display_name":"Senneville, Rivière des Anguilles, Savanne, Outer islands of Mauritius, Mauritius / Maurice","address":{"hamlet":"Senneville","city":"Rivière des Anguilles","state":"Savanne","ISO3166-2-lvl4":"MU-SA","region":"Outer islands of Mauritius","country":"Mauritius / Maurice","country_code":"mu"},"osm_type":"node","osm_id":10593841377,"type":"hamlet","location":[57.5569814,-20.5039935],"bbox":[57.5369814,-20.5239935,57.5769814,-20.4839935]}
{"name":"Colmar","display_name":"Colmar, Bénarès, Savanne, Outer islands of Mauritius, 51108, Mauritius / Maurice","address":{"hamlet":"Colmar","city":"Bénarès","state":"Savanne","ISO3166-2-lvl4":"MU-SA","region":"Outer islands of Mauritius","postcode":"51108","country":"Mauritius / Maurice","country_code":"mu"},"osm_type":"node","osm_id":10593891764,"type":"hamlet","location":[57.5737345,-20.469325],"bbox":[57.5537345,-20.489325,57.5937345,-20.449325]}
{"name":"Bel Air","display_name":"Bel Air, Rivière des Anguilles, Savanne, Outer islands of Mauritius, Mauritius / Maurice","address":{"hamlet":"Bel Air","city":"Rivière des Anguilles","state":"Savanne","ISO3166-2-lvl4":"MU-SA","region":"Outer islands of Mauritius","country":"Mauritius / Maurice","country_code":"mu"},"osm_type":"node","osm_id":10593841378,"type":"hamlet","location":[57.5770847,-20.5061796],"bbox":[57.5570847,-20.5261796,57.5970847,-20.4861796]}
{"name":"Bénarès","display_name":"Bénarès, Savanne, Outer islands of Mauritius, Mauritius / Maurice","address":{"hamlet":"Bénarès","city":"Bénarès","state":"Savanne","ISO3166-2-lvl4":"MU-SA","region":"Outer islands of Mauritius","country":"Mauritius / Maurice","country_code":"mu"},"osm_type":"node","osm_id":10593841379,"type":"hamlet","location":[57.5894365,-20.4998247],"bbox":[57.5694365,-20.5198247,57.6094365,-20.4798247]}
{"name":"Riche Bois","display_name":"Riche Bois, Camp Diable, Savanne, Outer islands of Mauritius, 51108, Mauritius / Maurice","address":{"hamlet":"Riche Bois","village":"Camp Diable","state":"Savanne","ISO3166-2-lvl4":"MU-SA","region":"Outer islands of Mauritius","postcode":"51108","country":"Mauritius / Maurice","country_code":"mu"},"osm_type":"node","osm_id":10608689480,"type":"hamlet","location":[57.5846834,-20.4592827],"bbox":[57.5646834,-20.4792827,57.6046834,-20.4392827]}
{"name":"Caroe","display_name":"Caroe, Château Bénarès, Bénarès, Savanne, Outer islands of Mauritius, Mauritius / Maurice","address":{"hamlet":"Caroe","village":"Château Bénarès","city":"Bénarès","state":"Savanne","ISO3166-2-lvl4":"MU-SA","region":"Outer islands of Mauritius","country":"Mauritius / Maurice","country_code":"mu"},"osm_type":"node","osm_id":10593841380,"type":"hamlet","location":[57.5887181,-20.4970168],"bbox":[57.5687181,-20.5170168,57.6087181,-20.4770168]}
{"name":"Balisson","display_name":"Balisson, Union Park, Grand Port, Outer islands of Mauritius, 51802, Mauritius / Maurice","address":{"hamlet":"Balisson","village":"Union Park","state":"Grand Port","ISO3166-2-lvl4":"MU-GP","region":"Outer islands of Mauritius","postcode":"51802","country":"Mauritius / Maurice","country_code":"mu"},"osm_type":"node","osm_id":10610670225,"type":"hamlet","location":[57.5882005,-20.3956355],"bbox":[57.5682005,-20.4156355,57.6082005,-20.3756355]}
{"name":"La Barraque","display_name":"La Barraque, Trois Boutiques (Union Vale), Grand Port, Outer islands of Mauritius, 51108, Mauritius / Maurice","address":{"hamlet":"La Barraque","city":"Trois Boutiques (Union Vale)","state":"Grand Port","ISO3166-2-lvl4":"MU-GP","region":"Outer islands of Mauritius","postcode":"51108","country":"Mauritius / Maurice","country_code":"mu"},"osm_type":"node","osm_id":10610613224,"type":"hamlet","location":[57.626952,-20.4709179],"bbox":[57.606952,-20.4909179,57.646952,-20.4509179]}
{"name":"Mon Trésor","display_name":"Mon Trésor, Plaine Magnien, Grand Port, Outer islands of Mauritius, 51520, Mauritius / Maurice","address":{"hamlet":"Mon Trésor","village":"Plaine Magnien","state":"Grand Port","ISO3166-2-lvl4":"MU-GP","region":"Outer islands of Mauritius","postcode":"51520","country":"Mauritius / Maurice","country_code":"mu"},"osm_type":"node","osm_id":10685190353,"type":"hamlet","location":[57.6501507,-20.4290136],"bbox":[57.6301507,-20.4490136,57.6701507,-20.4090136]}
{"name":"Plein Bois","display_name":"Plein Bois, Trois Boutiques (Union Vale), Grand Port, Outer islands of Mauritius, 51108, Mauritius / Maurice","address":{"hamlet":"Plein Bois","city":"Trois Boutiques (Union Vale)","state":"Grand Port","ISO3166-2-lvl4":"MU-GP","region":"Outer islands of Mauritius","postcode":"51108","country":"Mauritius / Maurice","country_code":"mu"},"osm_type":"node","osm_id":5265214129,"type":"hamlet","location":[57.6318446,-20.4603162],"bbox":[57.6118446,-20.4803162,57.6518446,-20.4403162]}
{"name":"Savannah","display_name":"Savannah, L’Escalier, Savanne, Outer islands of Mauritius, Mauritius / Maurice","address":{"hamlet":"Savannah","village":"L’Escalier","state":"Savanne","ISO3166-2-lvl4":"MU-SA","region":"Outer islands of Mauritius","country":"Mauritius / Maurice","country_code":"mu"},"osm_type":"node","osm_id":10608708917,"type":"hamlet","location":[57.6156337,-20.4876795],"bbox":[57.5956337,-20.5076795,57.6356337,-20.4676795]}
{"name":"Malakoff","display_name":"Malakoff, Trois Boutiques, Trois Boutiques (Union Vale), Grand Port, Outer islands of Mauritius, 51520, Mauritius / Maurice","address":{"hamlet":"Malakoff","village":"Trois Boutiques","city":"Trois Boutiques (Union Vale)","state":"Grand Port","ISO3166-2-lvl4":"MU-GP","region":"Outer islands of Mauritius","postcode":"51520","country":"Mauritius / Maurice","country_code":"mu"},"osm_type":"node","osm_id":10610613226,"type":"hamlet","location":[57.6397572,-20.4578977],"bbox":[57.6197572,-20.4778977,57.6597572,-20.4378977]}
{"name":"Astroea Rochecouste","display_name":"Astroea Rochecouste, New Grove, Grand Port, Outer islands of Mauritius, 51802, Mauritius / Maurice","address":{"hamlet":"Astroea Rochecouste","village":"New Grove","state":"Grand Port","ISO3166-2-lvl4":"MU-GP","region":"Outer islands of Mauritius","postcode":"51802","country":"Mauritius / Maurice","country_code":"mu"},"osm_type":"node","osm_id":10657852872,"type":"hamlet","location":[57.6361415,-20.3934684],"bbox":[57.6161415,-20.4134684,57.6561415,-20.3734684]}
{"name":"Mont Blanc","display_name":"Mont Blanc, Chamouny, Savanne, Outer islands of Mauritius, Mauritius / Maurice","address":{"hamlet":"Mont Blanc","city":"Chamouny","state":"Savanne","ISO3166-2-lvl4":"MU-SA","region":"Outer islands of Mauritius","country":"Mauritius / Maurice","country_code":"mu"},"osm_type":"node","osm_id":10586364226,"type":"hamlet","location":[57.492811,-20.4706078],"bbox":[57.472811,-20.4906078,57.512811,-20.4506078]}
{"name":"Gros Bois","display_name":"Gros Bois, Mare Tabac, Grand Port, Outer islands of Mauritius, 51108, Mauritius / Maurice","address":{"hamlet":"Gros Bois","village":"Mare Tabac","state":"Grand Port","ISO3166-2-lvl4":"MU-GP","region":"Outer islands of Mauritius","postcode":"51108","country":"Mauritius / Maurice","country_code":"mu"},"osm_type":"node","osm_id":10690337300,"type":"hamlet","location":[57.6132553,-20.4413258],"bbox":[57.5932553,-20.4613258,57.6332553,-20.4213258]}
{"name":"Beau Bois","display_name":"Beau Bois, Tyack, Savanne, Outer islands of Mauritius, Mauritius / Maurice","address":{"hamlet":"Beau Bois","village":"Tyack","state":"Savanne","ISO3166-2-lvl4":"MU-SA","region":"Outer islands of Mauritius","country":"Mauritius / Maurice","country_code":"mu"},"osm_type":"node","osm_id":10599214808,"type":"hamlet","location":[57.544592,-20.4648677],"bbox":[57.524592,-20.4848677,57.564592,-20.4448677]}
{"name":"Les Salines","display_name":"Les Salines, Grande Rivière Noire, Rivière Noire / Black River, Outer islands of Mauritius, 90608, Mauritius / Maurice","address":{"hamlet":"Les Salines","village":"Grande Rivière Noire","state":"Rivière Noire / Black River","ISO3166-2-lvl4":"MU-BL","region":"Outer islands of Mauritius","postcode":"90608","country":"Mauritius / Maurice","country_code":"mu"},"osm_type":"node","osm_id":2638535332,"type":"hamlet","location":[57.3700095,-20.3702752],"bbox":[57.3500095,-20.3902752,57.3900095,-20.3502752]}
{"name":"Petite Rivière Noire","display_name":"Petite Rivière Noire, Case Noyale, Rivière Noire / Black River, Outer islands of Mauritius, 90608, Mauritius / Maurice","address":{"hamlet":"Petite Rivière Noire","city":"Case Noyale","state":"Rivière Noire / Black River","ISO3166-2-lvl4":"MU-BL","region":"Outer islands of Mauritius","postcode":"90608","country":"Mauritius / Maurice","country_code":"mu"},"osm_type":"node","osm_id":2675695688,"type":"hamlet","location":[57.3819621,-20.3897042],"bbox":[57.3619621,-20.4097042,57.4019621,-20.3697042]}
{"name":"Union Vale","display_name":"Union Vale, Trois Boutiques, Trois Boutiques (Union Vale), Grand Port, Outer islands of Mauritius, 51520, Mauritius / Maurice","address":{"hamlet":"Union Vale","village":"Trois Boutiques","city":"Trois Boutiques (Union Vale)","state":"Grand Port","ISO3166-2-lvl4":"MU-GP","region":"Outer islands of Mauritius","postcode":"51520","country":"Mauritius / Maurice","country_code":"mu"},"osm_type":"node","osm_id":10610613230,"type":"hamlet","location":[57.6561008,-20.4474708],"bbox":[57.6361008,-20.4674708,57.6761008,-20.4274708]}
{"name":"Domaine de Palmyre","display_name":"Domaine de Palmyre, Case Noyale, Rivière Noire / Black River, Outer islands of Mauritius, 90608, Mauritius / Maurice","address":{"hamlet":"Domaine de Palmyre","city":"Case Noyale","state":"Rivière Noire / Black River","ISO3166-2-lvl4":"MU-BL","region":"Outer islands of Mauritius","postcode":"90608","country":"Mauritius / Maurice","country_code":"mu"},"osm_type":"node","osm_id":7432473306,"type":"hamlet","location":[57.3843431,-20.3857917],"bbox":[57.3643431,-20.4057917,57.4043431,-20.3657917]}
{"name":"Palmyre","display_name":"Palmyre, Flic en Flac, Rivière Noire / Black River, Outer islands of Mauritius, 90512, Mauritius / Maurice","address":{"hamlet":"Palmyre","village":"Flic en Flac","state":"Rivière Noire / Black River","ISO3166-2-lvl4":"MU-BL","region":"Outer islands of Mauritius","postcode":"90512","country":"Mauritius / Maurice","country_code":"mu"},"osm_type":"node","osm_id":2914993759,"type":"hamlet","location":[57.3919154,-20.284576],"bbox":[57.3719154,-20.304576,57.4119154,-20.264576]}
{"name":"Médine","display_name":"Médine, Bambous, Rivière Noire / Black River, Outer islands of Mauritius, Mauritius / Maurice","address":{"hamlet":"Médine","town":"Bambous","state":"Rivière Noire / Black River","ISO3166-2-lvl4":"MU-BL","region":"Outer islands of Mauritius","country":"Mauritius / Maurice","country_code":"mu"},"osm_type":"node","osm_id":2914991514,"type":"hamlet","location":[57.3958422,-20.260286],"bbox":[57.3758422,-20.280286,57.4158422,-20.240286]}
{"name":"Eau Bleue","display_name":"Eau Bleue, New Grove, Grand Port, Outer islands of Mauritius, 51802, Mauritius / Maurice","address":{"hamlet":"Eau Bleue","village":"New Grove","state":"Grand Port","ISO3166-2-lvl4":"MU-GP","region":"Outer islands of Mauritius","postcode":"51802","country":"Mauritius / Maurice","country_code":"mu"},"osm_type":"node","osm_id":10657852873,"type":"hamlet","location":[57.6300903,-20.3764183],"bbox":[57.6100903,-20.3964183,57.6500903,-20.3564183]}
{"name":"Courchamps","display_name":"Courchamps, Moka, Outer islands of Mauritius, Mauritius / Maurice","address":{"hamlet":"Courchamps","town":"Moka","state":"Moka","ISO3166-2-lvl4":"MU-MO","region":"Outer islands of Mauritius","country":"Mauritius / Maurice","country_code":"mu"},"osm_type":"node","osm_id":9280578383,"type":"hamlet","location":[57.5237516,-20.2374757],"bbox":[57.5037516,-20.2574757,57.5437516,-20.2174757]}
{"name":"Mare Chicose","other_names":{"name:en":"Mare Chicose","name:fr":"Mare-Chicose"},"display_name":"Mare Chicose, New Grove, Grand Port, Outer islands of Mauritius, 51802, Mauritius / Maurice","address":{"hamlet":"Mare Chicose","village":"New Grove","state":"Grand Port","ISO3166-2-lvl4":"MU-GP","region":"Outer islands of Mauritius","postcode":"51802","country":"Mauritius / Maurice","country_code":"mu"},"osm_type":"node","osm_id":9428288436,"type":"hamlet","location":[57.6347682,-20.3831653],"bbox":[57.6147682,-20.4031653,57.6547682,-20.3631653]}
{"name":"Le Val","display_name":"Le Val, Saint-Hubert, Grand Port, Outer islands of Mauritius, 51802, Mauritius / Maurice","address":{"hamlet":"Le Val","village":"Saint-Hubert","state":"Grand Port","ISO3166-2-lvl4":"MU-GP","region":"Outer islands of Mauritius","postcode":"51802","country":"Mauritius / Maurice","country_code":"mu"},"osm_type":"node","osm_id":10657852874,"type":"hamlet","location":[57.6307628,-20.3650969],"bbox":[57.6107628,-20.3850969,57.6507628,-20.3450969]}
{"name":"Résidence Union Park","display_name":"Résidence Union Park, Pont Colville, Nouvelle France, Grand Port, Outer islands of Mauritius, 51802, Mauritius / Maurice","address":{"hamlet":"Résidence Union Park","village":"Pont Colville","state":"Grand Port","ISO3166-2-lvl4":"MU-GP","region":"Outer islands of Mauritius","postcode":"51802","country":"Mauritius / Maurice","country_code":"mu"},"osm_type":"node","osm_id":10610670228,"type":"hamlet","location":[57.5705292,-20.3896648],"bbox":[57.5505292,-20.4096648,57.5905292,-20.3696648]}
{"name":"Belle Rive","display_name":"Belle Rive, Dubreuil, Moka, Outer islands of Mauritius, 80205, Mauritius / Maurice","address":{"hamlet":"Belle Rive","village":"Dubreuil","state":"Moka","ISO3166-2-lvl4":"MU-MO","region":"Outer islands of Mauritius","postcode":"80205","country":"Mauritius / Maurice","country_code":"mu"},"osm_type":"node","osm_id":10584359962,"type":"hamlet","location":[57.5522237,-20.2825905],"bbox":[57.5322237,-20.3025905,57.5722237,-20.2625905]}
{"name":"Camp Auguste","other_names":{"name:en":"Camp August","name:fr":"Camp Auguste","alt_name":"Camp August"},"display_name":"Camp Auguste, Côte d’Or, Saint Pierre, Moka, Outer islands of Mauritius, 81413, Mauritius / Maurice","address":{"hamlet":"Camp Auguste","village":"Côte d’Or","town":"Saint Pierre","state":"Moka","ISO3166-2-lvl4":"MU-MO","region":"Outer islands of Mauritius","postcode":"81413","country":"Mauritius / Maurice","country_code":"mu"},"osm_type":"node","osm_id":9280578381,"type":"hamlet","location":[57.5317043,-20.2414973],"bbox":[57.5117043,-20.2614973,57.5517043,-20.2214973]}
{"name":"Alma","display_name":"Alma, Verdun, Moka, Outer islands of Mauritius, 80205, Mauritius / Maurice","address":{"hamlet":"Alma","village":"Verdun","state":"Moka","ISO3166-2-lvl4":"MU-MO","region":"Outer islands of Mauritius","postcode":"80205","country":"Mauritius / Maurice","country_code":"mu"},"osm_type":"node","osm_id":2623324176,"type":"hamlet","location":[57.5741608,-20.2363986],"bbox":[57.5541608,-20.2563986,57.5941608,-20.2163986]}
{"name":"Morcellement Balaclava","display_name":"Morcellement Balaclava, Pamplemousses, Outer islands of Mauritius, 21733, Mauritius / Maurice","address":{"hamlet":"Morcellement Balaclava","state":"Pamplemousses","ISO3166-2-lvl4":"MU-PA","region":"Outer islands of Mauritius","postcode":"21733","country":"Mauritius / Maurice","country_code":"mu"},"osm_type":"node","osm_id":2170468356,"type":"hamlet","location":[57.5324078,-20.0875055],"bbox":[57.5124078,-20.1075055,57.5524078,-20.0675055]}
{"name":"La Laura","display_name":"La Laura, La Laura Malenga, Moka, Outer islands of Mauritius, 81402, Mauritius / Maurice","address":{"hamlet":"La Laura","city":"La Laura Malenga","state":"Moka","ISO3166-2-lvl4":"MU-MO","region":"Outer islands of Mauritius","postcode":"81402","country":"Mauritius / Maurice","country_code":"mu"},"osm_type":"node","osm_id":1845915249,"type":"hamlet","location":[57.5521073,-20.2034204],"bbox":[57.5321073,-20.2234204,57.5721073,-20.1834204]}
{"name":"Malenga","display_name":"Malenga, La Laura Malenga, Moka, Outer islands of Mauritius, 81402, Mauritius / Maurice","address":{"hamlet":"Malenga","city":"La Laura Malenga","state":"Moka","ISO3166-2-lvl4":"MU-MO","region":"Outer islands of Mauritius","postcode":"81402","country":"Mauritius / Maurice","country_code":"mu"},"osm_type":"node","osm_id":1845915254,"type":"hamlet","location":[57.5595746,-20.1983457],"bbox":[57.5395746,-20.2183457,57.5795746,-20.1783457]}
{"name":"Petite Julie","display_name":"Petite Julie, Pamplemousses, Outer islands of Mauritius, 21013, Mauritius / Maurice","address":{"hamlet":"Petite Julie","state":"Pamplemousses","ISO3166-2-lvl4":"MU-PA","region":"Outer islands of Mauritius","postcode":"21013","country":"Mauritius / Maurice","country_code":"mu"},"osm_type":"node","osm_id":1123092218,"type":"hamlet","location":[57.6245961,-20.1412712],"bbox":[57.6045961,-20.1612712,57.6445961,-20.1212712]}
{"name":"Baillache","display_name":"Baillache, Long Mountain, Pamplemousses, Outer islands of Mauritius, 11806, Mauritius / Maurice","address":{"hamlet":"Baillache","village":"Long Mountain","state":"Pamplemousses","ISO3166-2-lvl4":"MU-PA","region":"Outer islands of Mauritius","postcode":"11806","country":"Mauritius / Maurice","country_code":"mu"},"osm_type":"node","osm_id":1123092804,"type":"hamlet","location":[57.5700051,-20.1468478],"bbox":[57.5500051,-20.1668478,57.5900051,-20.1268478]}
{"name":"Pointe aux Biches","display_name":"Pointe aux Biches, Pointe aux Piments, Pamplemousses, Outer islands of Mauritius, 21508, Mauritius / Maurice","address":{"hamlet":"Pointe aux Biches","town":"Pointe aux Piments","state":"Pamplemousses","ISO3166-2-lvl4":"MU-PA","region":"Outer islands of Mauritius","postcode":"21508","country":"Mauritius / Maurice","country_code":"mu"},"osm_type":"node","osm_id":2188711361,"type":"hamlet","location":[57.5277999,-20.0477043],"bbox":[57.5077999,-20.0677043,57.5477999,-20.0277043]}
{"name":"Ilot","display_name":"Ilot, Pamplemousses, Outer islands of Mauritius, 21013, Mauritius / Maurice","address":{"hamlet":"Ilot","state":"Pamplemousses","ISO3166-2-lvl4":"MU-PA","region":"Outer islands of Mauritius","postcode":"21013","country":"Mauritius / Maurice","country_code":"mu"},"osm_type":"node","osm_id":1123093111,"type":"hamlet","location":[57.5791766,-20.130495],"bbox":[57.5591766,-20.150495,57.5991766,-20.110495]}
{"name":"D'Epinay","display_name":"D'Epinay, Pamplemousses, Outer islands of Mauritius, 21013, Mauritius / Maurice","address":{"hamlet":"D'Epinay","state":"Pamplemousses","ISO3166-2-lvl4":"MU-PA","region":"Outer islands of Mauritius","postcode":"21013","country":"Mauritius / Maurice","country_code":"mu"},"osm_type":"node","osm_id":1123098233,"type":"hamlet","location":[57.5942356,-20.1300276],"bbox":[57.5742356,-20.1500276,57.6142356,-20.1100276]}
{"name":"L'Espérance - Trébuchet","display_name":"L'Espérance - Trébuchet, Rivière du Rempart, Outer islands of Mauritius, 31803, Mauritius / Maurice","address":{"hamlet":"L'Espérance - Trébuchet","state":"Rivière du Rempart","ISO3166-2-lvl4":"MU-RR","region":"Outer islands of Mauritius","postcode":"31803","country":"Mauritius / Maurice","country_code":"mu"},"osm_type":"node","osm_id":2188734832,"type":"hamlet","location":[57.6472267,-20.0750733],"bbox":[57.6272267,-20.0950733,57.6672267,-20.0550733]}
{"name":"Mont Choisy","other_names":{"alt_name":"Mon Choisy"},"display_name":"Mont Choisy, Pamplemousses, Outer islands of Mauritius, 30525, Mauritius / Maurice","address":{"hamlet":"Mont Choisy","state":"Pamplemousses","ISO3166-2-lvl4":"MU-PA","region":"Outer islands of Mauritius","postcode":"30525","country":"Mauritius / Maurice","country_code":"mu"},"osm_type":"node","osm_id":2128894876,"type":"hamlet","location":[57.5537396,-20.0224334],"bbox":[57.5337396,-20.0424334,57.5737396,-20.0024334]}
{"name":"Camp Acacia","display_name":"Camp Acacia, Camp Carol, Grand Port, Outer islands of Mauritius, 51520, Mauritius / Maurice","address":{"hamlet":"Camp Acacia","village":"Camp Carol","state":"Grand Port","ISO3166-2-lvl4":"MU-GP","region":"Outer islands of Mauritius","postcode":"51520","country":"Mauritius / Maurice","country_code":"mu"},"osm_type":"node","osm_id":10610613232,"type":"hamlet","location":[57.6679587,-20.4664579],"bbox":[57.6479587,-20.4864579,57.6879587,-20.4464579]}
{"name":"Pointe d’Esny","other_names":{"alt_name":"Pointe d'Esny"},"display_name":"Pointe d’Esny, Pointe d'Esny, Blue Bay, Beau Vallon, Grand Port, Outer islands of Mauritius, 50812, Mauritius / Maurice","address":{"hamlet":"Pointe d’Esny","suburb":"Pointe d'Esny","village":"Blue Bay","city":"Beau Vallon","state":"Grand Port","ISO3166-2-lvl4":"MU-GP","region":"Outer islands of Mauritius","postcode":"50812","country":"Mauritius / Maurice","country_code":"mu"},"osm_type":"node","osm_id":2288199751,"type":"hamlet","location":[57.7269464,-20.4313282],"bbox":[57.7069464,-20.4513282,57.7469464,-20.4113282]}
{"name":"Carreau Esnouf","display_name":"Carreau Esnouf, Trois Boutiques (Union Vale), Grand Port, Outer islands of Mauritius, 51520, Mauritius / Maurice","address":{"hamlet":"Carreau Esnouf","city":"Trois Boutiques (Union Vale)","state":"Grand Port","ISO3166-2-lvl4":"MU-GP","region":"Outer islands of Mauritius","postcode":"51520","country":"Mauritius / Maurice","country_code":"mu"},"osm_type":"node","osm_id":10610613229,"type":"hamlet","location":[57.6613141,-20.4463499],"bbox":[57.6413141,-20.4663499,57.6813141,-20.4263499]}
{"name":"Mon Desert","display_name":"Mon Desert, Camp Carol, Grand Port, Outer islands of Mauritius, 51520, Mauritius / Maurice","address":{"hamlet":"Mon Desert","village":"Camp Carol","state":"Grand Port","ISO3166-2-lvl4":"MU-GP","region":"Outer islands of Mauritius","postcode":"51520","country":"Mauritius / Maurice","country_code":"mu"},"osm_type":"node","osm_id":4241188209,"type":"hamlet","location":[57.6779264,-20.45026],"bbox":[57.6579264,-20.47026,57.6979264,-20.43026]}
{"name":"Le Chaland","display_name":"Le Chaland, Plaine Magnien, Grand Port, Outer islands of Mauritius, 51520, Mauritius / Maurice","address":{"hamlet":"Le Chaland","village":"Plaine Magnien","state":"Grand Port","ISO3166-2-lvl4":"MU-GP","region":"Outer islands of Mauritius","postcode":"51520","country":"Mauritius / Maurice","country_code":"mu"},"osm_type":"node","osm_id":10685190355,"type":"hamlet","location":[57.7026554,-20.4467711],"bbox":[57.6826554,-20.4667711,57.7226554,-20.4267711]}
{"name":"Pointe Bambou","display_name":"Pointe Bambou, Bambous Virieux, Grand Port, Outer islands of Mauritius, 50401, Mauritius / Maurice","address":{"hamlet":"Pointe Bambou","village":"Bambous Virieux","state":"Grand Port","ISO3166-2-lvl4":"MU-GP","region":"Outer islands of Mauritius","postcode":"50401","country":"Mauritius / Maurice","country_code":"mu"},"osm_type":"node","osm_id":9280578403,"type":"hamlet","location":[57.7604136,-20.3408005],"bbox":[57.7404136,-20.3608005,57.7804136,-20.3208005]}
{"name":"Petit Sable","display_name":"Petit Sable, Grand Sable, Grand Port, Outer islands of Mauritius, 50401, Mauritius / Maurice","address":{"hamlet":"Petit Sable","village":"Grand Sable","state":"Grand Port","ISO3166-2-lvl4":"MU-GP","region":"Outer islands of Mauritius","postcode":"50401","country":"Mauritius / Maurice","country_code":"mu"},"osm_type":"node","osm_id":5980698980,"type":"hamlet","location":[57.7704222,-20.3333774],"bbox":[57.7504222,-20.3533774,57.7904222,-20.3133774]}
{"name":"Queen Victoria","display_name":"Queen Victoria, Flacq, Outer islands of Mauritius, 40606, Mauritius / Maurice","address":{"hamlet":"Queen Victoria","village":"Queen Victoria","state":"Flacq","ISO3166-2-lvl4":"MU-FL","region":"Outer islands of Mauritius","postcode":"40606","country":"Mauritius / Maurice","country_code":"mu"},"osm_type":"node","osm_id":1845967776,"type":"hamlet","location":[57.7131773,-20.2223949],"bbox":[57.6931773,-20.2423949,57.7331773,-20.2023949]}
{"name":"Marie Jeanne","display_name":"Marie Jeanne, Quatre Soeurs, Grand Port, Outer islands of Mauritius, 40101, Mauritius / Maurice","address":{"hamlet":"Marie Jeanne","village":"Quatre Soeurs","state":"Grand Port","ISO3166-2-lvl4":"MU-GP","region":"Outer islands of Mauritius","postcode":"40101","country":"Mauritius / Maurice","country_code":"mu"},"osm_type":"node","osm_id":10680917308,"type":"hamlet","location":[57.7683579,-20.3059456],"bbox":[57.7483579,-20.3259456,57.7883579,-20.2859456]}
{"name":"Union Flacq","display_name":"Union Flacq, Bonne Mère, Flacq, Outer islands of Mauritius, 42601, Mauritius / Maurice","address":{"hamlet":"Union Flacq","village":"Bonne Mère","state":"Flacq","ISO3166-2-lvl4":"MU-FL","region":"Outer islands of Mauritius","postcode":"42601","country":"Mauritius / Maurice","country_code":"mu"},"osm_type":"node","osm_id":6060642411,"type":"hamlet","location":[57.691668,-20.2078065],"bbox":[57.671668,-20.2278065,57.711668,-20.1878065]}
{"name":"Bramsthan","display_name":"Bramsthan, Centre de Flacq, Flacq, Outer islands of Mauritius, 40607, Mauritius / Maurice","address":{"hamlet":"Bramsthan","town":"Centre de Flacq","state":"Flacq","ISO3166-2-lvl4":"MU-FL","region":"Outer islands of Mauritius","postcode":"40607","country":"Mauritius / Maurice","country_code":"mu"},"osm_type":"node","osm_id":3849198533,"type":"hamlet","location":[57.7366354,-20.212125],"bbox":[57.7166354,-20.232125,57.7566354,-20.192125]}
{"name":"Grande Retraite","display_name":"Grande Retraite, Flacq, Outer islands of Mauritius, 42601, Mauritius / Maurice","address":{"hamlet":"Grande Retraite","state":"Flacq","ISO3166-2-lvl4":"MU-FL","region":"Outer islands of Mauritius","postcode":"42601","country":"Mauritius / Maurice","country_code":"mu"},"osm_type":"node","osm_id":1133841980,"type":"hamlet","location":[57.6846732,-20.1687623],"bbox":[57.6646732,-20.1887623,57.7046732,-20.1487623]}
{"name":"Amaury","display_name":"Amaury, Belle Vue Maurel, Rivière du Rempart, Outer islands of Mauritius, Mauritius / Maurice","address":{"hamlet":"Amaury","village":"Belle Vue Maurel","state":"Rivière du Rempart","ISO3166-2-lvl4":"MU-RR","region":"Outer islands of Mauritius","country":"Mauritius / Maurice","country_code":"mu"},"osm_type":"node","osm_id":1133841998,"type":"hamlet","location":[57.6680537,-20.1359754],"bbox":[57.6480537,-20.1559754,57.6880537,-20.1159754]}
{"name":"L'Aventure","display_name":"L'Aventure, Flacq, Outer islands of Mauritius, 42601, Mauritius / Maurice","address":{"hamlet":"L'Aventure","state":"Flacq","ISO3166-2-lvl4":"MU-FL","region":"Outer islands of Mauritius","postcode":"42601","country":"Mauritius / Maurice","country_code":"mu"},"osm_type":"node","osm_id":1133845204,"type":"hamlet","location":[57.6867219,-20.1476124],"bbox":[57.6667219,-20.1676124,57.7067219,-20.1276124]}
{"name":"Mare du Puits","display_name":"Mare du Puits, Belle Mare, Quatre Cocos, Flacq, Outer islands of Mauritius, 41601, Mauritius / Maurice","address":{"hamlet":"Mare du Puits","suburb":"Belle Mare","village":"Belle Mare","state":"Flacq","ISO3166-2-lvl4":"MU-FL","region":"Outer islands of Mauritius","postcode":"41601","country":"Mauritius / Maurice","country_code":"mu"},"osm_type":"node","osm_id":5755419761,"type":"hamlet","location":[57.7752827,-20.2038686],"bbox":[57.7552827,-20.2238686,57.7952827,-20.1838686]}
{"name":"Pointe de Flacq","display_name":"Pointe de Flacq, Flacq, Outer islands of Mauritius, 41511, Mauritius / Maurice","address":{"hamlet":"Pointe de Flacq","state":"Flacq","ISO3166-2-lvl4":"MU-FL","region":"Outer islands of Mauritius","postcode":"41511","country":"Mauritius / Maurice","country_code":"mu"},"osm_type":"node","osm_id":2132037918,"type":"hamlet","location":[57.7577729,-20.1617808],"bbox":[57.7377729,-20.1817808,57.7777729,-20.1417808]}
{"name":"Poudre d'Or Hamlet","other_names":{"name:en":"Poudre D'Or Hamlet","name:fr":"Poudre-d'Or-Hamlet"},"display_name":"Poudre d'Or Hamlet, Rivière du Rempart, Outer islands of Mauritius, 31803, Mauritius / Maurice","address":{"hamlet":"Poudre d'Or Hamlet","state":"Rivière du Rempart","ISO3166-2-lvl4":"MU-RR","region":"Outer islands of Mauritius","postcode":"31803","country":"Mauritius / Maurice","country_code":"mu"},"osm_type":"node","osm_id":6073778928,"type":"hamlet","location":[57.6562969,-20.0788475],"bbox":[57.6362969,-20.0988475,57.6762969,-20.0588475]}
{"name":"Poste Lafayette","display_name":"Poste Lafayette, Flacq, Outer islands of Mauritius, 41519, Mauritius / Maurice","address":{"hamlet":"Poste Lafayette","state":"Flacq","ISO3166-2-lvl4":"MU-FL","region":"Outer islands of Mauritius","postcode":"41519","country":"Mauritius / Maurice","country_code":"mu"},"osm_type":"node","osm_id":2305544296,"type":"hamlet","location":[57.7521984,-20.1194432],"bbox":[57.7321984,-20.1394432,57.7721984,-20.0994432]}
{"name":"Baie-Topaze","display_name":"Baie-Topaze, Rodrigues, Outer islands of Mauritius, Mauritius / Maurice","address":{"hamlet":"Baie-Topaze","island":"Rodrigues","ISO3166-2-lvl5":"MU-RO","region":"Outer islands of Mauritius","country":"Mauritius / Maurice","country_code":"mu"},"osm_type":"node","osm_id":315241891,"type":"hamlet","location":[63.360308,-19.7311225],"bbox":[63.340308,-19.7511225,63.380308,-19.7111225]}
{"name":"Petit Village Saint Antoine","display_name":"Petit Village Saint Antoine, Rivière du Rempart, Outer islands of Mauritius, 30617, Mauritius / Maurice","address":{"hamlet":"Petit Village Saint Antoine","state":"Rivière du Rempart","ISO3166-2-lvl4":"MU-RR","region":"Outer islands of Mauritius","postcode":"30617","country":"Mauritius / Maurice","country_code":"mu"},"osm_type":"node","osm_id":9270136549,"type":"hamlet","location":[57.6770436,-20.0342532],"bbox":[57.6570436,-20.0542532,57.6970436,-20.0142532]}
{"name":"Lataniers","display_name":"Lataniers, Palissade, Rodrigues, Outer islands of Mauritius, Mauritius / Maurice","address":{"hamlet":"Lataniers","village":"Palissade","island":"Rodrigues","ISO3166-2-lvl5":"MU-RO","region":"Outer islands of Mauritius","country":"Mauritius / Maurice","country_code":"mu"},"osm_type":"node","osm_id":2261656147,"type":"hamlet","location":[63.4463984,-19.7133075],"bbox":[63.4263984,-19.7333075,63.4663984,-19.6933075]}
{"name":"Bassin Martin","display_name":"Bassin Martin, Palissade, Rodrigues, Outer islands of Mauritius, Mauritius / Maurice","address":{"hamlet":"Bassin Martin","village":"Palissade","island":"Rodrigues","ISO3166-2-lvl5":"MU-RO","region":"Outer islands of Mauritius","country":"Mauritius / Maurice","country_code":"mu"},"osm_type":"node","osm_id":9004360551,"type":"hamlet","location":[63.4598059,-19.7156986],"bbox":[63.4398059,-19.7356986,63.4798059,-19.6956986]}
{"name":"Rivière Banane","display_name":"Rivière Banane, Roche Bon Dieu, Rodrigues, Outer islands of Mauritius, Mauritius / Maurice","address":{"hamlet":"Rivière Banane","village":"Roche Bon Dieu","island":"Rodrigues","ISO3166-2-lvl5":"MU-RO","region":"Outer islands of Mauritius","country":"Mauritius / Maurice","country_code":"mu"},"osm_type":"node","osm_id":3695929474,"type":"hamlet","location":[63.4734388,-19.680686],"bbox":[63.4534388,-19.700686,63.4934388,-19.660686]}
{"name":"La Fourche","display_name":"La Fourche, Agaléga, Outer islands of Mauritius, Mauritius / Maurice","address":{"hamlet":"La Fourche","state_district":"Agaléga","ISO3166-2-lvl5":"MU-AG","region":"Outer islands of Mauritius","country":"Mauritius / Maurice","country_code":"mu"},"osm_type":"node","osm_id":4947424955,"type":"hamlet","location":[56.5889762,-10.3501804],"bbox":[56.5689762,-10.3701804,56.6089762,-10.3301804]}
{"name":"Port Saint James","display_name":"Port Saint James, Agaléga, Outer islands of Mauritius, Mauritius / Maurice","address":{"hamlet":"Port Saint James","state_district":"Agaléga","ISO3166-2-lvl5":"MU-AG","region":"Outer islands of Mauritius","country":"Mauritius / Maurice","country_code":"mu"},"osm_type":"node","osm_id":4947424953,"type":"hamlet","location":[56.5866494,-10.3458346],"bbox":[56.5666494,-10.3658346,56.6066494,-10.3258346]}
{"name":"Le Far Far","display_name":"Le Far Far, Agaléga, Outer islands of Mauritius, Mauritius / Maurice","address":{"hamlet":"Le Far Far","state_district":"Agaléga","ISO3166-2-lvl5":"MU-AG","region":"Outer islands of Mauritius","country":"Mauritius / Maurice","country_code":"mu"},"osm_type":"node","osm_id":4947432199,"type":"hamlet","location":[56.6447836,-10.4320153],"bbox":[56.6247836,-10.4520153,56.6647836,-10.4120153]}
