{"name":"Ibwenape","other_names":{"name:mk":"Ибвенапе"},"display_name":"Ibwenape, Meneng, Naoero","address":{"village":"Ibwenape","county":"Meneng","ISO3166-2-lvl6":"NR-11","state":"Meneng","country":"Naoero","country_code":"nr"},"osm_type":"node","osm_id":1406310809,"type":"village","location":[166.93851,-0.5514114],"bbox":[166.91851,-0.5714114,166.95851,-0.5314114]}
{"name":"Boe","display_name":"Boe, Naoero","address":{"village":"Boe","county":"Boe","ISO3166-2-lvl6":"NR-06","state":"Boe","country":"Naoero","country_code":"nr"},"osm_type":"node","osm_id":1406310789,"type":"village","location":[166.9139636,-0.5409121],"bbox":[166.8939636,-0.5609121,166.9339636,-0.5209121]}
{"name":"Yaren","other_names":{"name:af":"Yaren","name:am":"ያሬን","name:ar":"ضاحية يارين","name:az":"Yaren","name:be":"Ярэн","name:bg":"Ярен","name:bn":"ইয়ারেন জেলা","name:bo":"ཡ་རེན།","name:bs":"Yaren","name:ca":"Yaren","name:cs":"Yaren","name:cu":"Ꙗрєнъ","name:cy":"Yaren","name:da":"Yaren","name:de":"Yaren","name:el":"Γιαρέν","name:en":"Yaren","name:eo":"Jareno","name:es":"Distrito de Yaren","name:et":"Yareni ringkond","name:eu":"Yaren","name:fa":"یارن","name:fi":"Yaren","name:fr":"Yaren","name:gd":"Yaren","name:gl":"Yaren","name:gv":"Yaren","name:he":"יארן","name:hi":"यारेन जिला","name:hr":"Yaren","name:ht":"Yarèn","name:hu":"Yaren","name:hy":"Յարեն","name:id":"Yaren","name:io":"Yaren","name:is":"Jaren","name:it":"Yaren","name:ja":"ヤレン","name:jv":"Yaren","name:ka":"იარენი","name:kk":"Ярен","name:ko":"야렌구","name:la":"Yaren","name:lt":"Jarenas","name:lv":"Jarena","name:mg":"Yaren","name:mk":"Јарен","name:mr":"यारेन","name:ms":"Yaren","name:na":"Yaren","name:nl":"Yaren","name:no":"Yaren","name:oc":"Yaren","name:pa":"ਯਾਰਨ ਜ਼ਿਲ੍ਹਾ","name:pl":"Yaren","name:pt":"Iarém","name:ro":"Yaren","name:ru":"Ярен","name:sc":"Yaren","name:sh":"Yaren","name:sk":"Yaren","name:sl":"Yaren","name:sm":"Yaren","name:sn":"Yaren","name:sr":"Јарен","name:sv":"Yaren","name:sw":"Yaren","name:ta":"யாரென் மாவட்டம்","name:tg":"Ярен","name:th":"ยาเรน","name:tl":"Yaren","name:tr":"Yaren","name:ty":"Yaren","name:uk":"Ярен","name:vi":"Yaren","name:zh":"亞倫","name:ace":"Yaren","name:arz":"ضاحية يارين","name:ast":"Yaren","name:avk":"Yaren","name:frr":"Yaren","name:hak":"Yaren","name:hif":"Yaren","name:lij":"Yaren","name:mrj":"Ярен","name:sah":"Ярен","name:sco":"Yaren","name:szl":"Yaren","name:war":"Yaren","name:xmf":"იარენი","old_name":"Makwa"},"display_name":"Yaren, Naoero","address":{"village":"Yaren","ISO3166-2-lvl6":"NR-14","state":"Yaren","country":"Naoero","country_code":"nr"},"population":747,"osm_type":"node","osm_id":313728509,"type":"village","location":[166.9164002,-0.5471014],"bbox":[166.8964002,-0.5671014,166.9364002,-0.5271014]}
{"name":"Yangor","display_name":"Yangor, Aiwo, Naoero","address":{"village":"Yangor","county":"Aiwo","ISO3166-2-lvl6":"NR-01","state":"Aiwo","country":"Naoero","country_code":"nr"},"osm_type":"node","osm_id":5807483043,"type":"village","location":[166.9114869,-0.5381331],"bbox":[166.8914869,-0.5581331,166.9314869,-0.5181331]}
{"name":"Orro","display_name":"Orro, Aiwo, Naoero","address":{"village":"Orro","county":"Aiwo","ISO3166-2-lvl6":"NR-01","state":"Aiwo","country":"Naoero","country_code":"nr"},"osm_type":"node","osm_id":313728503,"type":"village","location":[166.9104927,-0.5308523],"bbox":[166.8904927,-0.5508523,166.9304927,-0.5108523]}
{"name":"Arenibek","display_name":"Arenibek, Buada, Naoero","address":{"village":"Arenibek","county":"Buada","ISO3166-2-lvl6":"NR-07","state":"Buada","country":"Naoero","country_code":"nr"},"osm_type":"node","osm_id":6597709641,"type":"village","location":[166.9224196,-0.5338085],"bbox":[166.9024196,-0.5538085,166.9424196,-0.5138085]}
{"name":"Anibare","other_names":{"name:mk":"Анибаре"},"display_name":"Anibare, Anabar, Naoero","address":{"village":"Anibare","ISO3166-2-lvl6":"NR-04","state":"Anabar","country":"Naoero","country_code":"nr"},"osm_type":"node","osm_id":1406310763,"type":"village","location":[166.9507521,-0.5308137],"bbox":[166.9307521,-0.5508137,166.9707521,-0.5108137]}
{"name":"Arijejen","display_name":"Arijejen, Denigomodu, Ubenide, Naoero","address":{"village":"Arijejen","county":"Denigomodu","ISO3166-2-lvl6":"NR-08","state":"Ubenide","country":"Naoero","country_code":"nr"},"osm_type":"node","osm_id":5749424186,"type":"village","location":[166.9140086,-0.5241523],"bbox":[166.8940086,-0.5441523,166.9340086,-0.5041523]}
{"name":"Buada","display_name":"Buada, Naoero","address":{"village":"Buada","county":"Buada","ISO3166-2-lvl6":"NR-07","state":"Buada","country":"Naoero","country_code":"nr"},"osm_type":"node","osm_id":313728507,"type":"village","location":[166.9237342,-0.5344982],"bbox":[166.9037342,-0.5544982,166.9437342,-0.5144982]}
{"name":"Nibok","display_name":"Nibok, Ubenide, Naoero","address":{"village":"Nibok","county":"Nibok","ISO3166-2-lvl6":"NR-12","state":"Ubenide","country":"Naoero","country_code":"nr"},"osm_type":"node","osm_id":1406310818,"type":"village","location":[166.9206529,-0.5171988],"bbox":[166.9006529,-0.5371988,166.9406529,-0.4971988]}
{"name":"Uaboe","display_name":"Uaboe, Ubenide, Naoero","address":{"village":"Uaboe","county":"Uaboe","ISO3166-2-lvl6":"NR-13","state":"Ubenide","country":"Naoero","country_code":"nr"},"osm_type":"node","osm_id":1406312407,"type":"village","location":[166.9253458,-0.5130868],"bbox":[166.9053458,-0.5330868,166.9453458,-0.4930868]}
{"name":"Baitsi","display_name":"Baitsi, Ubenide, Naoero","address":{"village":"Baitsi","county":"Baitsi","ISO3166-2-lvl6":"NR-05","state":"Ubenide","country":"Naoero","country_code":"nr"},"osm_type":"node","osm_id":1406310784,"type":"village","location":[166.9286951,-0.5095396],"bbox":[166.9086951,-0.5295396,166.9486951,-0.4895396]}
{"name":"Anabar","other_names":{"name:ru":"Анабар"},"display_name":"Anabar, Naoero","address":{"village":"Anabar","county":"Anabar","ISO3166-2-lvl6":"NR-02","state":"Anabar","country":"Naoero","country_code":"nr"},"osm_type":"node","osm_id":5807533899,"type":"village","location":[166.952083,-0.5077784],"bbox":[166.932083,-0.5277784,166.972083,-0.4877784]}
{"name":"Arubo","display_name":"Arubo, Ewa, Anetan, Naoero","address":{"village":"Arubo","county":"Ewa","ISO3166-2-lvl6":"NR-09","state":"Anetan","country":"Naoero","country_code":"nr"},"osm_type":"node","osm_id":1406310781,"type":"village","location":[166.932432,-0.5048074],"bbox":[166.912432,-0.5248074,166.952432,-0.4848074]}
{"name":"Ronave","display_name":"Ronave, Anetan, Naoero","address":{"village":"Ronave","county":"Anetan","ISO3166-2-lvl6":"NR-03","state":"Anetan","country":"Naoero","country_code":"nr"},"osm_type":"node","osm_id":1406312402,"type":"village","location":[166.9417455,-0.5036955],"bbox":[166.9217455,-0.5236955,166.9617455,-0.4836955]}
{"name":"Ijuw","display_name":"Ijuw, Anabar, Naoero","address":{"hamlet":"Ijuw","county":"Ijuw","ISO3166-2-lvl6":"NR-10","state":"Anabar","country":"Naoero","country_code":"nr"},"population":178,"osm_type":"node","osm_id":1406310812,"type":"hamlet","location":[166.9572641,-0.5152162],"bbox":[166.9372641,-0.5352162,166.9772641,-0.4952162]}
{"name":"Ganokoro","other_names":{"name:mk":"Ганокоро"},"display_name":"Ganokoro, Ijuw, Anabar, Naoero","address":{"hamlet":"Ganokoro","county":"Ijuw","ISO3166-2-lvl6":"NR-10","state":"Anabar","country":"Naoero","country_code":"nr"},"osm_type":"node","osm_id":1406310806,"type":"hamlet","location":[166.9567481,-0.5214971],"bbox":[166.9367481,-0.5414971,166.9767481,-0.5014971]}
