{"name":"الريان","other_names":{"name:ar":"الريان","name:cs":"ar-Rajján","name:en":"Al Rayyan","name:fr":"Al-Rayyan","name:ml":"അൽ-റയ്യാൻ","alt_name:en":"Ar Rayyan"},"display_name":"الريان, قطر","address":{"city":"الريان","state":"الريان","ISO3166-2-lvl4":"QA-RA","country":"قطر","country_code":"qa"},"osm_type":"node","osm_id":2189253861,"type":"city","location":[51.434626,25.296619],"bbox":[51.274626,25.136619,51.594626,25.456619]}
{"name":"الدوحة","other_names":{"name:af":"Doha","name:am":"ዶሃ","name:an":"Doha","name:ar":"الدوحة","name:az":"Doha","name:ba":"Доһа","name:be":"Доха","name:bg":"Доха","name:bn":"দোহা","name:bo":"དྷོ་ཧ།","name:br":"Doha","name:bs":"Doha","name:ca":"Doha","name:ce":"Духьа","name:cs":"Dauhá","name:cy":"Doha","name:da":"Doha","name:de":"Doha","name:el":"Ντόχα","name:en":"Doha","name:eo":"Doho","name:es":"Doha","name:et":"Doha","name:eu":"Doha","name:fa":"دوحه","name:fi":"Doha","name:fr":"Doha","name:fy":"Doha","name:ga":"Doha","name:gd":"Doha","name:gl":"Doha","name:gn":"Doha","name:gr":"Δοχή","name:gu":"દોહા","name:ha":"Doha","name:he":"דוחה","name:hi":"दोहा","name:hr":"Doha","name:ht":"Doha","name:hu":"Doha","name:hy":"Դոհա","name:ia":"Doha","name:id":"Doha","name:ie":"Doha","name:is":"Doha","name:it":"Doha","name:ja":"ドーハ","name:jv":"Doha","name:ka":"დოჰა","name:kk":"Доһа","name:kl":"Doha","name:km":"ដូហា","name:kn":"ದೊಹಾ","name:ko":"도하","name:ku":"Dohe","name:ky":"Доха","name:la":"Doha","name:lb":"Doha","name:lt":"Doha","name:lv":"Doha","name:mg":"Doha","name:mk":"Доха","name:ml":"ദോഹ","name:mn":"Доха","name:mr":"दोहा","name:ms":"Doha","name:my":"ဒိုဟာမြို့","name:ne":"दोहा","name:nl":"Doha","name:no":"Doha","name:oc":"Doha","name:os":"Дохæ","name:pa":"ਦੋਹਾ","name:pl":"Ad-Dauha","name:ps":"دوها","name:pt":"Doha","name:ro":"Doha","name:ru":"Доха","name:rw":"Doha","name:sc":"Doha","name:sh":"Doha","name:sk":"Dauhá","name:sl":"Doha","name:sn":"Doha","name:so":"Dooxa","name:sq":"Doha","name:sr":"Доха","name:sv":"Doha","name:sw":"Doha","name:ta":"தோகா","name:tg":"Доҳа","name:th":"โดฮา","name:tk":"Doha","name:tl":"Doha","name:tr":"Doha","name:tt":"Doha","name:ug":"دوھا","name:uk":"Доха","name:ur":"دوحہ","name:uz":"Doʻha","name:vi":"Doha","name:vo":"Däuha","name:yi":"דאכא","name:yo":"Doha","name:zh":"多哈","name:ace":"Doha","name:ast":"Doḥa","name:awa":"दोहा(जगह)","name:azb":"دوحه","name:ban":"Doha","name:ceb":"Doha","name:ckb":"دەوحە","name:diq":"Dewhe","name:dty":"दोहा","name:ext":"Doha","name:frp":"Doha","name:grc":"Δοχή","name:hak":"Doha","name:hif":"Doha","name:hsb":"Doha","name:kab":"Dawḥa","name:lij":"Doha","name:lmo":"Doha","name:mai":"दोहा","name:mzn":"دوحه","name:nah":"Doha","name:pap":"Doha","name:pms":"Doha","name:rue":"Доуга","name:sat":"ᱫᱚᱦᱟ","name:scn":"Doha","name:sco":"Doha","name:szl":"Doha","name:udm":"Доха","name:vec":"Doha","name:vep":"Doh","name:war":"Doha","name:wuu":"多哈","name:xmf":"დოჰა","old_name":"البدع","alt_name:gr":"Δῶα","old_name:ar":"البدع","old_name:pl":"Al-Bida","old_name:ur":"البدع","alt_name:grc":"Δῶα","name:bat-smg":"Duoha"},"display_name":"الدوحة, قطر","address":{"city":"الدوحة","ISO3166-2-lvl4":"QA-DA","country":"قطر","country_code":"qa"},"population":1312947,"osm_type":"node","osm_id":1676664890,"type":"city","location":[51.5264162,25.2856329],"bbox":[51.3664162,25.1256329,51.6864162,25.4456329]}
{"name":"لوسيل","other_names":{"name:ar":"لوسيل","name:de":"Lusail","name:en":"Lusail","name:es":"Lusail","name:fr":"Lusail","name:ml":"ലുസൈൽ"},"display_name":"لوسيل, الضعاين, قطر","address":{"city":"لوسيل","state":"الضعاين","ISO3166-2-lvl4":"QA-ZA","country":"قطر","country_code":"qa"},"osm_type":"node","osm_id":1736113516,"type":"city","location":[51.5197163,25.4228888],"bbox":[51.3597163,25.2628888,51.6797163,25.5828888]}
{"name":"الجميلية","other_names":{"name:ar":"الجميلية","name:en":"Al Jumaliyah","alt:en":"Al Jemailiya"},"display_name":"الجميلية, الشحانية, قطر","address":{"village":"الجميلية","state":"الشحانية","ISO3166-2-lvl4":"QA-SH","country":"قطر","country_code":"qa"},"osm_type":"way","osm_id":228263444,"type":"town","location":[51.0812308,25.6200859],"bbox":[51.0776364,25.6163454,51.0912166,25.6354791]}
{"name":"مسيعيد","other_names":{"name:ar":"مسيعيد","name:de":"Mesaieed","name:en":"Mesaieed","name:es":"Mesaieed","name:fr":"Oumm Sa´îd","name:ml":"മിസൈദ്","name:ru":"Месаид","name:uk":"Месаїід"},"display_name":"مسيعيد, الوكرة, قطر","address":{"town":"مسيعيد","country":"قطر","country_code":"qa"},"osm_type":"node","osm_id":1363444750,"type":"town","location":[51.5493583,24.9953944],"bbox":[51.5093583,24.9553944,51.5893583,25.0353944]}
{"name":"الوكرة","other_names":{"name:ar":"الوكرة","name:de":"Al Wakra","name:en":"Al Wakrah","name:es":"Al Wakrah","name:fr":"Al Wakrah","name:ml":"അൽ-വക്ര","name:ru":"Аль-Вакра","name:uk":"Аль-Вакра","alt_name":"Al Wakra","int_name":"Al Wakra"},"display_name":"الوكرة, قطر","address":{"town":"الوكرة","ISO3166-2-lvl4":"QA-WA","country":"قطر","country_code":"qa"},"population":87970,"osm_type":"node","osm_id":1363470272,"type":"town","location":[51.6013212,25.1566623],"bbox":[51.5613212,25.1166623,51.6413212,25.1966623]}
{"name":"دخان","other_names":{"name:ar":"دخان","name:de":"Dukhan","name:en":"Dukhan","name:es":"Dukhan","name:fr":"Dukhan","name:ml":"ദുക്കാൻ","int_name":"Dukhan"},"display_name":"دخان, الشحانية, قطر","address":{"town":"دخان","state":"الشحانية","ISO3166-2-lvl4":"QA-SH","country":"قطر","country_code":"qa"},"population":7250,"osm_type":"node","osm_id":3930895157,"type":"town","location":[50.7876198,25.4188602],"bbox":[50.7476198,25.3788602,50.8276198,25.4588602]}
{"name":"الشحانية","other_names":{"name:ar":"الشحانية","name:en":"Al-Shahaniya","name:es":"Al-Shahaniya","name:fr":"Al Shahaniya","name:ml":"അൽ-ഷഹാനിയ"},"display_name":"الشحانية, قطر","address":{"town":"الشحانية","state":"الشحانية","ISO3166-2-lvl4":"QA-SH","country":"قطر","country_code":"qa"},"osm_type":"node","osm_id":1474049663,"type":"town","location":[51.227109,25.3717421],"bbox":[51.187109,25.3317421,51.267109,25.4117421]}
{"name":"أم صلال محمد","other_names":{"name:ar":"أم صلال محمد","name:en":"Umm Salal Muhammad","name:fr":"Umm Salal Muhammad","short_name:ar":"أم صلال"},"display_name":"أم صلال محمد, أم صلال, قطر","address":{"town":"أم صلال محمد","state":"أم صلال","ISO3166-2-lvl4":"QA-US","country":"قطر","country_code":"qa"},"osm_type":"node","osm_id":2189240942,"type":"town","location":[51.4068455,25.4136174],"bbox":[51.3668455,25.3736174,51.4468455,25.4536174]}
{"name":"سميسمة","other_names":{"name:ar":"سميسمة","name:en":"Simaisma","name:ml":"സിമൈസ്മ","int_name":"Simaisma"},"display_name":"سميسمة, الضعاين, قطر","address":{"town":"سميسمة","state":"الضعاين","ISO3166-2-lvl4":"QA-ZA","country":"قطر","country_code":"qa"},"osm_type":"node","osm_id":1736130075,"type":"town","location":[51.4838309,25.5772027],"bbox":[51.4438309,25.5372027,51.5238309,25.6172027]}
{"name":"الخور","other_names":{"name:ar":"الخور","name:de":"Al Khor","name:en":"Al Khor","name:es":"Al Khor","name:fr":"Al Khor","name:lt":"Choras","name:ml":"അൽ-ഖോർ","name:pl":"Al-Chaur"},"display_name":"الخور والذخيرة, قطر","address":{"town":"الخور والذخيرة","ISO3166-2-lvl4":"QA-KH","country":"قطر","country_code":"qa"},"population":31,"osm_type":"node","osm_id":1227115978,"type":"town","location":[51.5031212,25.6837333],"bbox":[51.4631212,25.6437333,51.5431212,25.7237333]}
{"name":"الذخيرة","other_names":{"name:ar":"الذخيرة","name:de":"Al Dhakira","name:en":"Al Dhakira","name:es":"Al Dhakira","name:fr":"Al Dhakira","name:ml":"അൽ-ധക്കീറ"},"display_name":"الذخيرة, الخور والذخيرة, قطر","address":{"town":"الذخيرة","country":"قطر","country_code":"qa"},"osm_type":"node","osm_id":1733928061,"type":"town","location":[51.5433356,25.7347406],"bbox":[51.5033356,25.6947406,51.5833356,25.7747406]}
{"name":"رأس لفان","other_names":{"name:ar":"رأس لفان","name:de":"Ras Laffan","name:en":"Ras Laffan","name:es":"Ras Laffan","name:fr":"Ras Laffan","name:ml":"റാസ് ലഫാൻ","name:tr":"Ras Laffan"},"display_name":"رأس لفان, قطر","address":{"town":"رأس لفان","country":"قطر","country_code":"qa"},"osm_type":"node","osm_id":1664865661,"type":"town","location":[51.5331527,25.8976567],"bbox":[51.4931527,25.8576567,51.5731527,25.9376567]}
{"name":"الرويس","other_names":{"name:ar":"الرويس","name:en":"Al Ruwais","name:fr":"Al Rouwaïs","name:ml":"അൽ-റുവൈസ്"},"display_name":"الرويس, الشمال, قطر","address":{"town":"الرويس","state":"الشمال","ISO3166-2-lvl4":"QA-MS","country":"قطر","country_code":"qa"},"osm_type":"node","osm_id":1474146066,"type":"town","location":[51.2046522,26.1295039],"bbox":[51.1646522,26.0895039,51.2446522,26.1695039]}
{"name":"أبو نخلة","other_names":{"name:ar":"أبو نخلة","name:en":"Abu Nakhla"},"display_name":"أبو نخلة, الريان, قطر","address":{"village":"أبو نخلة","state":"الريان","ISO3166-2-lvl4":"QA-RA","country":"قطر","country_code":"qa"},"osm_type":"way","osm_id":25930915,"type":"village","location":[51.381520122976326,25.18233345],"bbox":[51.3706129,25.1746052,51.392328,25.1935607]}
{"name":"العامرية","other_names":{"name:ar":"العامرية","name:en":"Al Ameria"},"display_name":"العامرية, الريان, قطر","address":{"village":"العامرية","state":"الريان","ISO3166-2-lvl4":"QA-RA","country":"قطر","country_code":"qa"},"osm_type":"node","osm_id":2025493105,"type":"village","location":[51.0753652,24.8216703],"bbox":[51.0553652,24.8016703,51.0953652,24.8416703]}
{"name":"السلوى","other_names":{"name:ar":"السلوى","name:en":"As Salwa","alt_name":"سلوى","alt_name:ar":"سلوى"},"display_name":"السلوى, الريان, قطر","address":{"village":"السلوى","state":"الريان","ISO3166-2-lvl4":"QA-RA","country":"قطر","country_code":"qa"},"osm_type":"node","osm_id":353824085,"type":"village","location":[50.8213346,24.7434289],"bbox":[50.8013346,24.7234289,50.8413346,24.7634289]}
{"name":"أم حوطة","other_names":{"name:ar":"أم حوطة","name:en":"Umm Hawta"},"display_name":"أم حوطة, الريان, قطر","address":{"village":"أم حوطة","state":"الريان","ISO3166-2-lvl4":"QA-RA","country":"قطر","country_code":"qa"},"osm_type":"node","osm_id":6033745487,"type":"village","location":[51.0317257,24.8941626],"bbox":[51.0117257,24.8741626,51.0517257,24.9141626]}
{"name":"أم باب","other_names":{"name:ar":"أم باب","name:en":"Umm Bab"},"display_name":"أم باب, الشحانية, قطر","address":{"village":"أم باب","state":"الشحانية","ISO3166-2-lvl4":"QA-SH","country":"قطر","country_code":"qa"},"osm_type":"node","osm_id":9793909551,"type":"village","location":[50.8011349,25.2091532],"bbox":[50.7811349,25.1891532,50.8211349,25.2291532]}
{"name":"روضة راشد","other_names":{"name:ar":"روضة راشد","name:en":"Rawdat Rashed"},"display_name":"روضة راشد, الشحانية, قطر","address":{"village":"روضة راشد","state":"الشحانية","ISO3166-2-lvl4":"QA-SH","country":"قطر","country_code":"qa"},"osm_type":"node","osm_id":1474051101,"type":"village","location":[51.205327,25.2347842],"bbox":[51.185327,25.2147842,51.225327,25.2547842]}
{"display_name":"الشحانية, قطر","address":{"state":"الشحانية","ISO3166-2-lvl4":"QA-SH","country":"قطر","country_code":"qa"},"osm_type":"node","osm_id":2966501055,"type":"village","location":[50.980112,25.2090242],"bbox":[50.960112,25.1890242,51.000112,25.2290242]}
{"name":"قرية كاتلوم","other_names":{"name:ar":"قرية كاتلوم","name:en":"Qatalum Village"},"display_name":"قرية كاتلوم, الوكرة, قطر","address":{"village":"قرية كاتلوم","town":"الوكرة","ISO3166-2-lvl4":"QA-WA","country":"قطر","country_code":"qa"},"population":10000,"osm_type":"node","osm_id":3299477420,"type":"village","location":[51.5691674,25.0126041],"bbox":[51.5491674,24.9926041,51.5891674,25.0326041]}
{"name":"زكريت","other_names":{"name:ar":"زكريت","name:en":"Zekreet"},"display_name":"زكريت, الشحانية, قطر","address":{"village":"زكريت","state":"الشحانية","ISO3166-2-lvl4":"QA-SH","country":"قطر","country_code":"qa"},"osm_type":"node","osm_id":2052620861,"type":"village","location":[50.8468127,25.4849563],"bbox":[50.8268127,25.4649563,50.8668127,25.5049563]}
{"name":"ام الداه خوزان","other_names":{"name:ar":"ام الداه خوزان","name:en":"Umm Al Daah Khawzan","alt_name:en":"Khawzan"},"display_name":"ام الداه خوزان, الشحانية, قطر","address":{"village":"ام الداه خوزان","state":"الشحانية","ISO3166-2-lvl4":"QA-SH","country":"قطر","country_code":"qa"},"osm_type":"node","osm_id":9799127548,"type":"village","location":[50.940463,25.4796334],"bbox":[50.920463,25.4596334,50.960463,25.4996334]}
{"name":"الجميلية","other_names":{"name:ar":"الجميلية","name:en":"Al Jemailiya"},"display_name":"الجميلية, الشحانية, قطر","address":{"village":"الجميلية","state":"الشحانية","ISO3166-2-lvl4":"QA-SH","country":"قطر","country_code":"qa"},"osm_type":"node","osm_id":2444468092,"type":"village","location":[51.0812308,25.6200859],"bbox":[51.0612308,25.6000859,51.1012308,25.6400859]}
{"name":"العطورية","other_names":{"name:ar":"العطورية","name:en":"Al Otouriya"},"display_name":"العطورية, الشحانية, قطر","address":{"village":"العطورية","state":"الشحانية","ISO3166-2-lvl4":"QA-SH","country":"قطر","country_code":"qa"},"osm_type":"node","osm_id":2443174393,"type":"village","location":[51.2110977,25.5120962],"bbox":[51.1910977,25.4920962,51.2310977,25.5320962]}
{"name":"أم قرن","other_names":{"name:ar":"أم قرن","name:en":"Umm Qarn","name:fa":"ام قرن"},"display_name":"أم قرن, الضعاين, قطر","address":{"village":"أم قرن","state":"الضعاين","ISO3166-2-lvl4":"QA-ZA","country":"قطر","country_code":"qa"},"osm_type":"node","osm_id":2330700501,"type":"village","location":[51.4321171,25.5522373],"bbox":[51.4121171,25.5322373,51.4521171,25.5722373]}
{"name":"الغويرية","other_names":{"name:ar":"الغويرية","name:en":"Al Ghuwayriya"},"display_name":"الغويرية, الخور والذخيرة, قطر","address":{"village":"الغويرية","town":"الخور والذخيرة","ISO3166-2-lvl4":"QA-KH","country":"قطر","country_code":"qa"},"osm_type":"node","osm_id":2444468094,"type":"village","location":[51.2458326,25.8291497],"bbox":[51.2258326,25.8091497,51.2658326,25.8491497]}
{"name":"روضة العجوز","other_names":{"name:ar":"روضة العجوز"},"display_name":"روضة العجوز, أم صلال, قطر","address":{"village":"روضة العجوز","state":"أم صلال","ISO3166-2-lvl4":"QA-US","country":"قطر","country_code":"qa"},"osm_type":"node","osm_id":2330700502,"type":"village","location":[51.3625513,25.5331285],"bbox":[51.3425513,25.5131285,51.3825513,25.5531285]}
{"name":"أم بركة","other_names":{"name:ar":"أم بركة","name:en":"Umm Birka"},"display_name":"أم بركة, الخور والذخيرة, قطر","address":{"village":"أم بركة","town":"الخور والذخيرة","ISO3166-2-lvl4":"QA-KH","country":"قطر","country_code":"qa"},"osm_type":"node","osm_id":2313549039,"type":"village","location":[51.446264,25.7572423],"bbox":[51.426264,25.7372423,51.466264,25.7772423]}
{"name":"الجساسية","other_names":{"name:ar":"الجساسية","name:en":"Al Jassasiya"},"display_name":"الجساسية, الشمال, قطر","address":{"village":"الجساسية","state":"الشمال","ISO3166-2-lvl4":"QA-MS","country":"قطر","country_code":"qa"},"osm_type":"node","osm_id":1464027544,"type":"village","location":[51.4041525,25.9632581],"bbox":[51.3841525,25.9432581,51.4241525,25.9832581]}
{"name":"الكعبان","other_names":{"name:ar":"الكعبان","name:en":"Al Kaban","official_name:ar":"مدينة الكعبان"},"display_name":"الكعبان, الخور والذخيرة, قطر","address":{"village":"الكعبان","town":"الخور والذخيرة","ISO3166-2-lvl4":"QA-KH","country":"قطر","country_code":"qa"},"osm_type":"node","osm_id":2040949587,"type":"village","location":[51.3534004,25.8739436],"bbox":[51.3334004,25.8539436,51.3734004,25.8939436]}
{"name":"عَيْن سِنَان","other_names":{"name:ar":"عَيْن سِنَان","name:en":"Ain Sinan","name:nl":"Ain Sinan"},"display_name":"عَيْن سِنَان, الشمال, قطر","address":{"village":"عَيْن سِنَان","state":"الشمال","ISO3166-2-lvl4":"QA-MS","country":"قطر","country_code":"qa"},"osm_type":"node","osm_id":4886054971,"type":"village","location":[51.3301319,26.0084436],"bbox":[51.3101319,25.9884436,51.3501319,26.0284436]}
{"name":"Madinat ash Shamal","display_name":"Madinat ash Shamal, الشمال, قطر","address":{"village":"Madinat ash Shamal","state":"الشمال","ISO3166-2-lvl4":"QA-MS","country":"قطر","country_code":"qa"},"osm_type":"node","osm_id":9666025665,"type":"village","location":[51.2156827,26.1182868],"bbox":[51.1956827,26.0982868,51.2356827,26.1382868]}
{"name":"فويرط","other_names":{"name:ar":"فويرط","name:en":"Fuwayrit"},"display_name":"فويرط, الشمال, قطر","address":{"village":"فويرط","state":"الشمال","ISO3166-2-lvl4":"QA-MS","country":"قطر","country_code":"qa"},"osm_type":"node","osm_id":1464027568,"type":"village","location":[51.3723603,26.0249974],"bbox":[51.3523603,26.0049974,51.3923603,26.0449974]}
{"display_name":"الريان, قطر","address":{"state":"الريان","ISO3166-2-lvl4":"QA-RA","country":"قطر","country_code":"qa"},"osm_type":"way","osm_id":225780349,"type":"hamlet","location":[50.940347716157504,24.7182842],"bbox":[50.9394467,24.7173747,50.9412421,24.7193399]}
{"display_name":"الوكرة, قطر","address":{"town":"الوكرة","ISO3166-2-lvl4":"QA-WA","country":"قطر","country_code":"qa"},"osm_type":"way","osm_id":1127811840,"type":"hamlet","location":[51.435490419760015,25.07139935],"bbox":[51.4347777,25.0706972,51.4362502,25.0721258]}
{"display_name":"الشحانية, قطر","address":{"state":"الشحانية","ISO3166-2-lvl4":"QA-SH","country":"قطر","country_code":"qa"},"osm_type":"way","osm_id":230299713,"type":"hamlet","location":[50.804629360693056,25.1828382],"bbox":[50.8031201,25.1808599,50.8059281,25.1844914]}
{"name":"Mazraiat Turanya","other_names":{"name:ar":"Mazraiat Turanya","name:en":"Mazraiat Turanya"},"display_name":"Mazraiat Turanya, الوكرة, قطر","address":{"hamlet":"Mazraiat Turanya","town":"الوكرة","ISO3166-2-lvl4":"QA-WA","country":"قطر","country_code":"qa"},"osm_type":"node","osm_id":2007145553,"type":"hamlet","location":[51.2094806,24.7577663],"bbox":[51.1894806,24.7377663,51.2294806,24.7777663]}
{"name":"Umm Hotta","other_names":{"name:ar":"Umm Hotta","name:en":"Umm Hotta"},"display_name":"Umm Hotta, الريان, قطر","address":{"hamlet":"Umm Hotta","state":"الريان","ISO3166-2-lvl4":"QA-RA","country":"قطر","country_code":"qa"},"osm_type":"node","osm_id":2336914739,"type":"hamlet","location":[51.0668204,24.8899493],"bbox":[51.0468204,24.8699493,51.0868204,24.9099493]}
{"display_name":"الوكرة, قطر","address":{"town":"الوكرة","ISO3166-2-lvl4":"QA-WA","country":"قطر","country_code":"qa"},"osm_type":"node","osm_id":3284137317,"type":"hamlet","location":[51.2050466,24.9707532],"bbox":[51.1850466,24.9507532,51.2250466,24.9907532]}
{"name":"Al Kharara","other_names":{"name:ar":"Al Kharara","name:en":"Al Kharara"},"display_name":"Al Kharara, الوكرة, قطر","address":{"hamlet":"Al Kharara","town":"الوكرة","ISO3166-2-lvl4":"QA-WA","country":"قطر","country_code":"qa"},"osm_type":"node","osm_id":2007145565,"type":"hamlet","location":[51.1736175,24.9019774],"bbox":[51.1536175,24.8819774,51.1936175,24.9219774]}
{"display_name":"الشحانية, قطر","address":{"state":"الشحانية","ISO3166-2-lvl4":"QA-SH","country":"قطر","country_code":"qa"},"osm_type":"node","osm_id":2277543949,"type":"hamlet","location":[51.1853869,25.1704364],"bbox":[51.1653869,25.1504364,51.2053869,25.1904364]}
{"name":"Al Gaa'ia","other_names":{"name:ar":"Al Gaa'ia","name:en":"Al Gaa'ia"},"display_name":"Al Gaa'ia, الشحانية, قطر","address":{"hamlet":"Al Gaa'ia","state":"الشحانية","ISO3166-2-lvl4":"QA-SH","country":"قطر","country_code":"qa"},"osm_type":"node","osm_id":2456041999,"type":"hamlet","location":[51.1726313,25.668887],"bbox":[51.1526313,25.648887,51.1926313,25.688887]}
{"name":"Bu Sidra","other_names":{"name:ar":"Bu Sidra","name:en":"Bu Sidra"},"display_name":"Bu Sidra, الشحانية, قطر","address":{"hamlet":"Bu Sidra","state":"الشحانية","ISO3166-2-lvl4":"QA-SH","country":"قطر","country_code":"qa"},"osm_type":"node","osm_id":8065224134,"type":"hamlet","location":[51.0012251,25.7233388],"bbox":[50.9812251,25.7033388,51.0212251,25.7433388]}
{"name":"Al Numan","other_names":{"name:ar":"Al Numan","name:en":"Al Numan"},"display_name":"Al Numan, الشمال, قطر","address":{"hamlet":"Al Numan","state":"الشمال","ISO3166-2-lvl4":"QA-MS","country":"قطر","country_code":"qa"},"osm_type":"node","osm_id":2337136446,"type":"hamlet","location":[51.0830111,25.8620559],"bbox":[51.0630111,25.8420559,51.1030111,25.8820559]}
{"name":"Rawdat Alfaras","display_name":"Rawdat Alfaras, الخور والذخيرة, قطر","address":{"hamlet":"Rawdat Alfaras","town":"الخور والذخيرة","ISO3166-2-lvl4":"QA-KH","country":"قطر","country_code":"qa"},"osm_type":"node","osm_id":2341090334,"type":"hamlet","location":[51.3343919,25.8218827],"bbox":[51.3143919,25.8018827,51.3543919,25.8418827]}
{"name":"Ras Mulaiji","other_names":{"name:ar":"Ras Mulaiji","name:en":"Ras Mulaiji"},"display_name":"Ras Mulaiji, الخور والذخيرة, قطر","address":{"hamlet":"Ras Mulaiji","town":"الخور والذخيرة","ISO3166-2-lvl4":"QA-KH","country":"قطر","country_code":"qa"},"osm_type":"node","osm_id":2621508861,"type":"hamlet","location":[51.5924652,25.802717],"bbox":[51.5724652,25.782717,51.6124652,25.822717]}
{"name":"Ras Imlaiji","other_names":{"name:ar":"Ras Imlaiji","name:en":"Ras Imlaiji"},"display_name":"Ras Imlaiji, الخور والذخيرة, قطر","address":{"hamlet":"Ras Imlaiji","town":"الخور والذخيرة","ISO3166-2-lvl4":"QA-KH","country":"قطر","country_code":"qa"},"osm_type":"node","osm_id":2621508860,"type":"hamlet","location":[51.5813444,25.8551214],"bbox":[51.5613444,25.8351214,51.6013444,25.8751214]}
{"name":"المرونة","other_names":{"name:ar":"المرونة","name:en":"Al Marroona"},"display_name":"المرونة, الشمال, قطر","address":{"hamlet":"المرونة","state":"الشمال","ISO3166-2-lvl4":"QA-MS","country":"قطر","country_code":"qa"},"osm_type":"node","osm_id":2310162566,"type":"hamlet","location":[51.398141,25.9933073],"bbox":[51.378141,25.9733073,51.418141,26.0133073]}
