{"name":"Victoria","other_names":{"name:af":"Victoria","name:am":"ቪክቶሪያ፥ ሲሸልስ","name:an":"Victoria","name:ar":"فيكتوريا","name:az":"Viktoriya","name:be":"Вікторыя","name:bg":"Виктория","name:bn":"ভিক্তোরিয়া, সেশেলস","name:bo":"ཝིག་ཐོ་རི་ཡ།","name:br":"Victoria","name:bs":"Victoria","name:ca":"Victòria","name:ce":"Виктори","name:cs":"Victoria","name:cv":"Виктори","name:cy":"Victoria","name:da":"Victoria","name:de":"Victoria","name:el":"Βικτώρια","name:en":"Victoria","name:eo":"Viktorio","name:es":"Victoria","name:et":"Victoria","name:eu":"Victoria","name:fa":"ویکتوریا","name:fi":"Victoria","name:fr":"Victoria","name:fy":"Victoria","name:ga":"Victoria na Séiséal","name:gd":"Victoria","name:gl":"Victoria","name:gn":"Victoria","name:ha":"Biktoriya","name:he":"ויקטוריה","name:hi":"विक्टोरिया, सेशाइल्स","name:hr":"Victoria","name:ht":"Viktorya","name:hu":"Victoria","name:hy":"Վիկտորիա","name:ia":"Victoria","name:id":"Victoria","name:ie":"Victoria","name:io":"Victoria","name:it":"Victoria","name:ja":"ヴィクトリア","name:jv":"Victoria","name:ka":"ვიქტორია","name:kk":"Виктория","name:ko":"빅토리아","name:ku":"Vîktorya","name:ky":"Виктория","name:la":"Victoria","name:lb":"Victoria","name:lt":"Viktorija","name:lv":"Viktorija","name:mg":"Victoria","name:mk":"Викторија","name:ml":"വിക്ടോറിയ, സെയ്‌ഷെൽസ്","name:mn":"Викториа","name:mr":"व्हिक्टोरिया, सेशेल्स","name:ms":"Victoria","name:nl":"Victoria","name:nn":"Victoria på Seychellane","name:no":"Victoria","name:oc":"Victòria","name:os":"Виктори","name:pa":"ਵਿਕਟੋਰੀਆ, ਸੇਸ਼ੈਲ","name:pl":"Victoria","name:pt":"Vitória","name:ro":"Victoria","name:ru":"Виктория","name:sc":"Victoria","name:sh":"Victoria","name:sk":"Victoria","name:sl":"Viktorija","name:sn":"Victoria","name:so":"Fiktoria","name:sq":"Viktoria","name:sr":"Викторија","name:sv":"Victoria","name:sw":"Victoria","name:ta":"விக்டோரியா, சீசெல்சு","name:th":"วิกทอเรีย","name:tl":"Victoria","name:tr":"Victoria","name:uk":"Вікторія","name:ur":"وکٹوریا","name:uz":"Viktoriya","name:vi":"Victoria","name:vo":"Victoria","name:wo":"Wiktoria","name:yo":"Victoria","name:zh":"维多利亚","name:arz":"فيكتوريا","name:ast":"Victoria","name:avk":"Victoria","name:cdo":"Victoria","name:ceb":"Victoria","name:ckb":"ڤیکتۆریا","name:hak":"Victoria","name:hif":"Victoria","name:kab":"Victoria","name:lij":"Victòria","name:lmo":"Victoria","name:nap":"Victoria","name:olo":"Viktorii","name:pms":"Victoria","name:pnb":"وکٹوریہ, سشلز","name:sco":"Victoria","name:smn":"Victoria","name:szl":"Victoria","name:udm":"Виктория","name:vec":"Port Victoria","name:vep":"Viktorii","name:war":"Victoria","name:wuu":"维多利亚","name:yue":"維多利亞","name:simple":"Victoria","name:be-tarask":"Вікторыя","name:zh_min_nan":"Victoria"},"display_name":"Victoria, Mahé, Sesel","address":{"city":"Victoria","county":"Mahé","country":"Sesel","country_code":"sc"},"population":26450,"osm_type":"node","osm_id":4547527878,"type":"city","location":[55.452359,-4.6232085],"bbox":[55.292359,-4.7832085,55.612359,-4.4632085]}
{"name":"Quatre Bornes","display_name":"Quatre Bornes, Mahé, Sesel","address":{"village":"Quatre Bornes","county":"Mahé","country":"Sesel","country_code":"sc"},"osm_type":"node","osm_id":770076814,"type":"village","location":[55.5115693,-4.7790776],"bbox":[55.4915693,-4.7990776,55.5315693,-4.7590776]}
{"name":"Poivre","display_name":"Poivre, Sesel","address":{"village":"Poivre","country":"Sesel","country_code":"sc"},"population":10,"osm_type":"node","osm_id":6472857414,"type":"village","location":[53.311817,-5.7467898],"bbox":[53.291817,-5.7667898,53.331817,-5.7267898]}
{"name":"Baie Lazare","display_name":"Baie Lazare, Mahé, Sesel","address":{"village":"Baie Lazare","county":"Mahé","country":"Sesel","country_code":"sc"},"osm_type":"node","osm_id":770076847,"type":"village","location":[55.4811946,-4.7526077],"bbox":[55.4611946,-4.7726077,55.5011946,-4.7326077]}
{"name":"Grand' Anse","display_name":"Grand' Anse, Mahé, Sesel","address":{"village":"Grand' Anse","county":"Mahé","country":"Sesel","country_code":"sc"},"osm_type":"node","osm_id":1422533027,"type":"village","location":[55.4505286,-4.6750171],"bbox":[55.4305286,-4.6950171,55.4705286,-4.6550171]}
{"name":"La Béolière","display_name":"La Béolière, Mahé, Sesel","address":{"village":"La Béolière","county":"Mahé","country":"Sesel","country_code":"sc"},"osm_type":"node","osm_id":1422533029,"type":"village","location":[55.435331,-4.670083],"bbox":[55.415331,-4.690083,55.455331,-4.650083]}
{"name":"Platte","display_name":"Platte, Sesel","address":{"village":"Platte","country":"Sesel","country_code":"sc"},"osm_type":"node","osm_id":4419635765,"type":"village","location":[55.3834915,-5.8641583],"bbox":[55.3634915,-5.8841583,55.4034915,-5.8441583]}
{"name":"Barbarons","display_name":"Barbarons, Mahé, Sesel","address":{"village":"Barbarons","county":"Mahé","country":"Sesel","country_code":"sc"},"osm_type":"node","osm_id":1422533022,"type":"village","location":[55.4566575,-4.6799576],"bbox":[55.4366575,-4.6999576,55.4766575,-4.6599576]}
{"name":"Port Glaud","display_name":"Port Glaud, Mahé, Sesel","address":{"village":"Port Glaud","county":"Mahé","country":"Sesel","country_code":"sc"},"osm_type":"node","osm_id":769270470,"type":"village","location":[55.4177606,-4.66406],"bbox":[55.3977606,-4.68406,55.4377606,-4.64406]}
{"name":"Anse Royale","display_name":"Anse Royale, Mahé, Sesel","address":{"village":"Anse Royale","county":"Mahé","country":"Sesel","country_code":"sc"},"osm_type":"node","osm_id":533796695,"type":"village","location":[55.5176065,-4.7376121],"bbox":[55.4976065,-4.7576121,55.5376065,-4.7176121]}
{"name":"Anse Louis","display_name":"Anse Louis, Mahé, Sesel","address":{"village":"Anse Louis","county":"Mahé","country":"Sesel","country_code":"sc"},"osm_type":"node","osm_id":1422533020,"type":"village","location":[55.4839207,-4.7184256],"bbox":[55.4639207,-4.7384256,55.5039207,-4.6984256]}
{"name":"Anse Boileau","display_name":"Anse Boileau, Mahé, Sesel","address":{"village":"Anse Boileau","county":"Mahé","country":"Sesel","country_code":"sc"},"osm_type":"node","osm_id":533796691,"type":"village","location":[55.4836699,-4.7110788],"bbox":[55.4636699,-4.7310788,55.5036699,-4.6910788]}
{"name":"La Misère","display_name":"La Misère, Mahé, Sesel","address":{"village":"La Misère","county":"Mahé","country":"Sesel","country_code":"sc"},"osm_type":"node","osm_id":1422540559,"type":"village","location":[55.4704516,-4.6677028],"bbox":[55.4504516,-4.6877028,55.4904516,-4.6477028]}
{"name":"Bon Espoir","display_name":"Bon Espoir, Mahé, Sesel","address":{"village":"Bon Espoir","county":"Mahé","country":"Sesel","country_code":"sc"},"osm_type":"node","osm_id":1422533023,"type":"village","location":[55.4996386,-4.7072335],"bbox":[55.4796386,-4.7272335,55.5196386,-4.6872335]}
{"name":"Capucins","display_name":"Capucins, Mahé, Sesel","address":{"village":"Capucins","county":"Mahé","country":"Sesel","country_code":"sc"},"osm_type":"node","osm_id":1422533024,"type":"village","location":[55.5200725,-4.6904678],"bbox":[55.5000725,-4.7104678,55.5400725,-4.6704678]}
{"name":"Pointe Au Sel","display_name":"Pointe Au Sel, Mahé, Sesel","address":{"village":"Pointe Au Sel","county":"Mahé","country":"Sesel","country_code":"sc"},"osm_type":"node","osm_id":1413601066,"type":"village","location":[55.5227825,-4.7264693],"bbox":[55.5027825,-4.7464693,55.5427825,-4.7064693]}
{"name":"Talbot","display_name":"Talbot, Mahé, Sesel","address":{"village":"Talbot","county":"Mahé","country":"Sesel","country_code":"sc"},"osm_type":"node","osm_id":1422533036,"type":"village","location":[55.5011429,-4.6702758],"bbox":[55.4811429,-4.6902758,55.5211429,-4.6502758]}
{"name":"Anse des Genets","display_name":"Anse des Genets, Mahé, Sesel","address":{"village":"Anse des Genets","county":"Mahé","country":"Sesel","country_code":"sc"},"osm_type":"node","osm_id":1413601065,"type":"village","location":[55.5114647,-4.6735851],"bbox":[55.4914647,-4.6935851,55.5314647,-4.6535851]}
{"display_name":"Mahé, Sesel","address":{"county":"Mahé","country":"Sesel","country_code":"sc"},"osm_type":"node","osm_id":1422533037,"type":"village","location":[55.4851734,-4.6584014],"bbox":[55.4651734,-4.6784014,55.5051734,-4.6384014]}
{"name":"Cascade","display_name":"Cascade, Mahé, Sesel","address":{"village":"Cascade","county":"Mahé","country":"Sesel","country_code":"sc"},"osm_type":"node","osm_id":1422533025,"type":"village","location":[55.4972693,-4.6691243],"bbox":[55.4772693,-4.6891243,55.5172693,-4.6491243]}
{"name":"La Plaine St. Andre","display_name":"La Plaine St. Andre, Mahé, Sesel","address":{"village":"La Plaine St. Andre","county":"Mahé","country":"Sesel","country_code":"sc"},"osm_type":"node","osm_id":1422533030,"type":"village","location":[55.5215697,-4.7205684],"bbox":[55.5015697,-4.7405684,55.5415697,-4.7005684]}
{"name":"Sans Souci","display_name":"Sans Souci, Mahé, Sesel","address":{"village":"Sans Souci","county":"Mahé","country":"Sesel","country_code":"sc"},"osm_type":"node","osm_id":769270461,"type":"village","location":[55.4522357,-4.6409975],"bbox":[55.4322357,-4.6609975,55.4722357,-4.6209975]}
{"name":"Port Launay","display_name":"Port Launay, Mahé, Sesel","address":{"village":"Port Launay","county":"Mahé","country":"Sesel","country_code":"sc"},"osm_type":"node","osm_id":533796698,"type":"village","location":[55.4009292,-4.6508556],"bbox":[55.3809292,-4.6708556,55.4209292,-4.6308556]}
{"name":"Bel Ombre","display_name":"Bel Ombre, Mahé, Sesel","address":{"village":"Bel Ombre","county":"Mahé","country":"Sesel","country_code":"sc"},"osm_type":"node","osm_id":850917919,"type":"village","location":[55.4112979,-4.6193716],"bbox":[55.3912979,-4.6393716,55.4312979,-4.5993716]}
{"name":"Beau Vallon","display_name":"Beau Vallon, Mahé, Sesel","address":{"village":"Beau Vallon","county":"Mahé","country":"Sesel","country_code":"sc"},"osm_type":"node","osm_id":533796689,"type":"village","location":[55.4288241,-4.6135556],"bbox":[55.4088241,-4.6335556,55.4488241,-4.5935556]}
{"name":"Ma Constance","display_name":"Ma Constance, Mahé, Sesel","address":{"village":"Ma Constance","county":"Mahé","country":"Sesel","country_code":"sc"},"osm_type":"node","osm_id":1422537316,"type":"village","location":[55.455935,-4.5975253],"bbox":[55.435935,-4.6175253,55.475935,-4.5775253]}
{"name":"Vista do Mar","display_name":"Vista do Mar, Mahé, Sesel","address":{"village":"Vista do Mar","county":"Mahé","country":"Sesel","country_code":"sc"},"osm_type":"node","osm_id":1422537318,"type":"village","location":[55.4348924,-4.5757792],"bbox":[55.4148924,-4.5957792,55.4548924,-4.5557792]}
{"name":"Pascal Village","display_name":"Pascal Village, Mahé, Sesel","address":{"village":"Pascal Village","county":"Mahé","country":"Sesel","country_code":"sc"},"osm_type":"node","osm_id":1422533035,"type":"village","location":[55.4351586,-4.620927],"bbox":[55.4151586,-4.640927,55.4551586,-4.600927]}
{"name":"Mare Anglaise","display_name":"Mare Anglaise, Mahé, Sesel","address":{"village":"Mare Anglaise","county":"Mahé","country":"Sesel","country_code":"sc"},"osm_type":"node","osm_id":1422537317,"type":"village","location":[55.4334831,-4.6066837],"bbox":[55.4134831,-4.6266837,55.4534831,-4.5866837]}
{"name":"Anse Etoile","display_name":"Anse Etoile, Mahé, Sesel","address":{"village":"Anse Etoile","county":"Mahé","country":"Sesel","country_code":"sc"},"osm_type":"node","osm_id":1422537313,"type":"village","location":[55.455248,-4.5932954],"bbox":[55.435248,-4.6132954,55.475248,-4.5732954]}
{"name":"Glacis","display_name":"Glacis, Mahé, Sesel","address":{"village":"Glacis","county":"Mahé","country":"Sesel","country_code":"sc"},"osm_type":"node","osm_id":1422537314,"type":"village","location":[55.4345526,-4.583654],"bbox":[55.4145526,-4.603654,55.4545526,-4.563654]}
{"display_name":"Mahé, Sesel","address":{"county":"Mahé","country":"Sesel","country_code":"sc"},"osm_type":"node","osm_id":1422537319,"type":"village","location":[55.450062,-4.5653565],"bbox":[55.430062,-4.5853565,55.470062,-4.5453565]}
{"name":"Anse Boudin","display_name":"Anse Boudin, Sesel","address":{"village":"Anse Boudin","country":"Sesel","country_code":"sc"},"osm_type":"node","osm_id":1413350498,"type":"village","location":[55.7091652,-4.2989646],"bbox":[55.6891652,-4.3189646,55.7291652,-4.2789646]}
{"name":"La Retraite","display_name":"La Retraite, Mahé, Sesel","address":{"village":"La Retraite","county":"Mahé","country":"Sesel","country_code":"sc"},"osm_type":"node","osm_id":1422537315,"type":"village","location":[55.4608205,-4.5840828],"bbox":[55.4408205,-4.6040828,55.4808205,-4.5640828]}
{"name":"Anse Kerlan","display_name":"Anse Kerlan, Sesel","address":{"village":"Anse Kerlan","country":"Sesel","country_code":"sc"},"osm_type":"node","osm_id":765252264,"type":"village","location":[55.6874433,-4.3123248],"bbox":[55.6674433,-4.3323248,55.7074433,-4.2923248]}
{"name":"Grande Anse","display_name":"Grande Anse, Sesel","address":{"village":"Grande Anse","country":"Sesel","country_code":"sc"},"osm_type":"node","osm_id":765251914,"type":"village","location":[55.7177343,-4.3269702],"bbox":[55.6977343,-4.3469702,55.7377343,-4.3069702]}
{"name":"Baie Sainte Anne","display_name":"Baie Sainte Anne, Sesel","address":{"village":"Baie Sainte Anne","country":"Sesel","country_code":"sc"},"osm_type":"node","osm_id":765251926,"type":"village","location":[55.7564233,-4.3411172],"bbox":[55.7364233,-4.3611172,55.7764233,-4.3211172]}
{"name":"Coëtivy","display_name":"Coëtivy, Sesel","address":{"village":"Coëtivy","country":"Sesel","country_code":"sc"},"osm_type":"node","osm_id":7771275914,"type":"village","location":[56.271161,-7.1450058],"bbox":[56.251161,-7.1650058,56.291161,-7.1250058]}
{"name":"Picard","display_name":"Picard, Sesel","address":{"hamlet":"Picard","country":"Sesel","country_code":"sc"},"osm_type":"node","osm_id":386840886,"type":"hamlet","location":[46.2062646,-9.4014952],"bbox":[46.1862646,-9.4214952,46.2262646,-9.3814952]}
