{"name":"Jurong East","other_names":{"name:en":"Jurong East","name:ms":"Jurong Timur","name:ta":"ஜூரோங் கிழக்கு","name:zh":"裕廊东"},"display_name":"Jurong East, Southwest, Singapore","address":{"city":"Jurong East","county":"Southwest","ISO3166-2-lvl6":"SG-05","country":"Singapore","country_code":"sg"},"osm_type":"way","osm_id":795851831,"type":"city","location":[103.73704951374836,1.32427375],"bbox":[103.7083787,1.2944313,103.7581014,1.3534941]}
{"name":"Singapore","other_names":{"name:af":"Singapoer","name:am":"ሲንጋፖር","name:ar":"سنغافورة","name:az":"Sinqapur","name:ba":"Сингапур","name:be":"Сінгапур","name:bg":"Сингапур","name:bi":"Singapore","name:bn":"সিঙ্গাপুর","name:bo":"སེང་ག་ཕོར།","name:br":"Singapoura","name:ca":"Singapur","name:cs":"Singapur","name:cv":"Сингапур","name:cy":"Singapore","name:da":"Singapore","name:de":"Singapur","name:dv":"ސިންގަޕޫރު","name:el":"Σιγκαπούρη","name:en":"Singapore","name:eo":"Singapuro","name:es":"Singapur","name:et":"Singapur","name:fa":"سنگاپور","name:ff":"Sinngapuur","name:fi":"Singapore","name:fo":"Singapor","name:fr":"Singapour","name:fy":"Singapore","name:ga":"Singeapór","name:gd":"Singeapòr","name:gl":"Singapur","name:gu":"સિંગાપુર","name:gv":"Singapore","name:ha":"Singapore","name:he":"סינגפור","name:hi":"सिंगापुर","name:hr":"Singapur","name:ht":"Sengapou","name:hu":"Szingapúr","name:hy":"Սինգապուրի Հանրապետություն","name:id":"Singapura","name:ie":"Singapor","name:is":"Singapúr","name:it":"Singapore","name:ja":"シンガポール","name:jv":"Singapura","name:ka":"სინგაპური","name:ki":"Singapore","name:kk":"Сингапур","name:kl":"Singapore","name:km":"សិង្ហបុរី","name:kn":"ಸಿಂಗಾಪುರ","name:ko":"싱가포르","name:ku":"Singapûr","name:kv":"Сингапур","name:kw":"Singapour","name:la":"Singapura","name:lb":"Singapur","name:li":"Singapore","name:lt":"Singapūras","name:lv":"Singapūra","name:mg":"Singapaoro","name:mi":"Hingapoa","name:mk":"Сингапур","name:ml":"സിംഗപ്പൂർ","name:mn":"Сингапур","name:mr":"सिंगापूर","name:ms":"Singapura","name:mt":"Singapor","name:my":"စင်ကာပူနိုင်ငံ","name:na":"Tsingapoar","name:ne":"सिंगापुर","name:nl":"Singapore","name:nn":"Singapore","name:no":"Singapore","name:nv":"Sį́ʼgaboo","name:oc":"Singapor","name:or":"ସିଙ୍ଗାପୁର","name:os":"Сингапур","name:pa":"ਸਿੰਗਾਪੁਰ","name:pl":"Singapur","name:ps":"سينګاپور","name:pt":"Singapura","name:ro":"Singapore","name:ru":"Сингапур","name:rw":"Singapore","name:sa":"सिङ्गापुर","name:se":"Singapore","name:sg":"Sïngäpûru","name:sk":"Singapur","name:sl":"Singapur","name:sm":"Sigapoa","name:so":"Singabuur","name:sq":"Singapori","name:sr":"Сингапур","name:ss":"ISingapholo","name:su":"Singapura","name:sv":"Singapore","name:sw":"Singapuri","name:ta":"சிங்கப்பூர்","name:te":"సింగపూరు","name:tg":"Сингапур","name:th":"สิงคโปร์","name:tl":"Singgapur","name:tr":"Singapur","name:tt":"Сингапур","name:ug":"سىنگاپور","name:uk":"Сінгапур","name:ur":"سنگاپور","name:vi":"Tân Gia Ba","name:vo":"Singapurän","name:wo":"Singapoor","name:yi":"סינגאפור","name:yo":"Singapore","name:zh":"新加坡","name:ace":"Singapura","name:arz":"سينجابوره","name:azb":"سنقاپور","name:bcl":"Singapore","name:bjn":"Singapura","name:bpy":"সিঙ্গাপুর","name:bug":"Singapura","name:bxr":"Сингапур","name:cdo":"Sĭng-gă-pŏ̤","name:ceb":"Singgapura","name:ckb":"سینگاپور","name:csb":"Singapùr","name:ext":"Singapul","name:frp":"Singapor","name:gan":"新加坡","name:hak":"Sîn-kâ-po","name:haw":"Sinapoa","name:hif":"Singapore","name:jbo":"singapura","name:lez":"Сингапур","name:lij":"Scingapô","name:mhr":"Сингапур","name:mzn":"سنگاپور","name:nan":"Sin-ka-pho","name:nov":"Singapore","name:pam":"Singapore","name:pms":"Singapor","name:pnb":"سنگاپور","name:rue":"Сінґапур","name:sah":"Сингапур","name:scn":"Singapura","name:sco":"Singapore","name:tzl":"Singapura","name:udm":"Сингапур","name:vec":"Singapore","name:vls":"Singapore","name:war":"Singgapura","name:wuu":"新加坡","name:xal":"Сингапурмудин Орн","name:yue":"星架坡","name:az-Arab":"سنقاپور","name:bat-smg":"Singapūrs","name:kk-Arab":"سىينگاپۋر","name:map-bms":"Singapura","name:roa-rup":"Singapore","name:zh-Hans":"新加坡","name:zh-Hant":"新加坡","name:roa-tara":"Singapore","name:be-tarask":"Сынгапур","name:zh_pinyin":"Xīnjiāpō"},"display_name":"Singapore, Central, 178957, Singapore","address":{"city":"Singapore","county":"Central","ISO3166-2-lvl6":"SG-01","postcode":"178957","country":"Singapore","country_code":"sg"},"population":5535002,"osm_type":"node","osm_id":531668011,"type":"city","location":[103.8519072,1.2899175],"bbox":[103.6919072,1.1299175,104.0119072,1.4499175]}
{"name":"Rocky Hill","display_name":"Rocky Hill, Southeast, 499675, Singapore","address":{"village":"Rocky Hill","county":"Southeast","ISO3166-2-lvl6":"SG-04","postcode":"499675","country":"Singapore","country_code":"sg"},"osm_type":"node","osm_id":1133750827,"type":"village","location":[104.049796,1.4002812],"bbox":[104.029796,1.3802812,104.069796,1.4202812]}
