{"name":"Manzini","other_names":{"name:ar":"منزيني","name:ko":"만지니"},"display_name":"Manzini, Inkhundla Manzini, Manzini, M100, eSwatini","address":{"city":"Manzini","county":"Inkhundla Manzini","state":"Manzini","ISO3166-2-lvl4":"SZ-MA","postcode":"M100","country":"eSwatini","country_code":"sz"},"population":110508,"osm_type":"node","osm_id":243838438,"type":"city","location":[31.3695887,-26.4958706],"bbox":[31.2095887,-26.6558706,31.5295887,-26.3358706]}
{"name":"Mbabane","other_names":{"name:am":"ምባባኔ","name:an":"Mbabane","name:ar":"مبابان","name:az":"Mbabane","name:ba":"Мбабане","name:be":"Мбабанэ","name:bg":"Мбабане","name:bm":"Mbabane","name:bn":"এম্বাবানে","name:bo":"མ་པ་པན།","name:br":"Mbabane","name:bs":"Mbabane","name:ca":"Mbabane","name:ce":"Мбабане","name:cs":"Mbabane","name:cy":"Mbabane","name:da":"Mbabane","name:de":"Mbabane","name:el":"Μπαμπάνε","name:en":"Mbabane","name:eo":"Mbabano","name:es":"Mbabane","name:et":"Mbabane","name:eu":"Mbabane","name:fa":"مبابانه","name:fi":"Mbabane","name:fr":"Mbabane","name:ga":"Mbabane","name:gd":"Mbabane","name:gl":"Mbabane","name:ha":"Mbabane","name:he":"מבבנה","name:hi":"मबैब्ने","name:hr":"Mbabane","name:ht":"Mbabàn","name:hu":"Mbabane","name:hy":"Մբաբանե","name:ia":"Mbabane","name:id":"Mbabane","name:ie":"Mbabane","name:io":"Mbabane","name:is":"Mbabane","name:it":"Mbabane","name:ja":"ムババーネ","name:jv":"Mbabane","name:ka":"მბაბანე","name:kg":"Mbabane","name:ko":"음바바네","name:ky":"Мбабане","name:la":"Mbabane","name:lb":"Mbabane","name:lt":"Mbabanė","name:lv":"Mbabane","name:mg":"Mbabane","name:mk":"Мбабане","name:ml":"എംബബാനി","name:mr":"अंबाबाने","name:ms":"Mbabane","name:nl":"Mbabane","name:nn":"Mbabane","name:no":"Mbabane","name:ny":"Mbabane","name:oc":"Mbabane","name:os":"Мбабане","name:pa":"ਅੰਬਾਬਾਨੇ","name:pl":"Mbabane","name:ps":"مبابانه","name:pt":"Mbabane","name:ro":"Mbabane","name:ru":"Мбабане","name:sc":"Mbabane","name:se":"Mbabane","name:sh":"Mbabane","name:sk":"Mbabane","name:sl":"Mbabane","name:sn":"Mbabane","name:so":"Mabane","name:sq":"Mbabane","name:sr":"Мбабане","name:ss":"ÉMbábáne","name:sv":"Mbabane","name:sw":"Mbabane","name:ta":"இம்பபான்","name:tg":"Мбабане","name:th":"อัมบาบาเน","name:tl":"Mbabane","name:tr":"Mbabane","name:uk":"Мбабане","name:ur":"مبابنے","name:uz":"Mbabane","name:vi":"Mbabane","name:yi":"מבאבאנע","name:yo":"Mbabane","name:zh":"姆巴巴內","name:zu":"IMbabane","name:ast":"Mbabane","name:avk":"Mbabane","name:bcl":"Mbabane","name:cdo":"Mbabane","name:ceb":"Mbabane","name:ckb":"مبابانێ","name:frr":"Mbabane","name:hak":"Mbabane","name:hif":"Mbabane","name:kab":"Mbabane","name:lij":"Mbabane","name:lmo":"Mbabane","name:nah":"Mbabane","name:nds":"Mbabane","name:pms":"Mbabane","name:pnb":"مبابین","name:sco":"Mbabane","name:smn":"Mbabane","name:szl":"Mbabane","name:udm":"Мбабане","name:vec":"Mbabane","name:vep":"Mbabane","name:war":"Mbabane","name:wuu":"姆巴巴内","name:xmf":"მბაბანე"},"display_name":"Mbabane, Inkhundla Mbabane, Hhohho, H100, eSwatini","address":{"city":"Mbabane","county":"Inkhundla Mbabane","state":"Hhohho","ISO3166-2-lvl4":"SZ-HH","postcode":"H100","country":"eSwatini","country_code":"sz"},"population":94874,"osm_type":"node","osm_id":243837793,"type":"city","location":[31.144663,-26.325745],"bbox":[30.984663,-26.485745,31.304663,-26.165745]}
{"name":"Nhlangano","other_names":{"name:ru":"Нхлангано"},"display_name":"Nhlangano, Inkhundla Mbangweni, Shiselweni, eSwatini","address":{"town":"Nhlangano","county":"Inkhundla Mbangweni","state":"Shiselweni","ISO3166-2-lvl4":"SZ-SH","country":"eSwatini","country_code":"sz"},"osm_type":"node","osm_id":2276754230,"type":"town","location":[31.200679,-27.112694],"bbox":[31.160679,-27.152694,31.240679,-27.072694]}
{"name":"Hluti","display_name":"Hluti, Inkhundla Hosea, Shiselweni, eSwatini","address":{"town":"Hluti","county":"Inkhundla Hosea","state":"Shiselweni","ISO3166-2-lvl4":"SZ-SH","country":"eSwatini","country_code":"sz"},"osm_type":"node","osm_id":1469805713,"type":"town","location":[31.616667,-27.216667],"bbox":[31.576667,-27.256667,31.656667,-27.176667]}
{"name":"Hlatikulu","other_names":{"name:ru":"Хлатикулу"},"display_name":"Hlatikulu, Inkhundla Mtsambama, Shiselweni, eSwatini","address":{"town":"Hlatikulu","county":"Inkhundla Mtsambama","state":"Shiselweni","ISO3166-2-lvl4":"SZ-SH","country":"eSwatini","country_code":"sz"},"osm_type":"node","osm_id":908534612,"type":"town","location":[31.3255167,-26.9738777],"bbox":[31.2855167,-27.0138777,31.3655167,-26.9338777]}
{"name":"Gege","other_names":{"official_name":"Inkhundla Gege"},"display_name":"Inkhundla Gege, Shiselweni, eSwatini","address":{"town":"Inkhundla Gege","state":"Shiselweni","ISO3166-2-lvl4":"SZ-SH","country":"eSwatini","country_code":"sz"},"osm_type":"node","osm_id":9937239344,"type":"town","location":[31.0148871,-26.9672438],"bbox":[30.9748871,-27.0072438,31.0548871,-26.9272438]}
{"name":"Big Bend","display_name":"Big Bend, Inkhundla Nkilongo, Lubombo, eSwatini","address":{"town":"Big Bend","county":"Inkhundla Nkilongo","state":"Lubombo","ISO3166-2-lvl4":"SZ-LU","country":"eSwatini","country_code":"sz"},"osm_type":"node","osm_id":2277349166,"type":"town","location":[31.9383605,-26.7911213],"bbox":[31.8983605,-26.8311213,31.9783605,-26.7511213]}
{"name":"Bhunya","display_name":"Bhunya, Inkhundla Mhlambanyatsi, Manzini, eSwatini","address":{"town":"Bhunya","county":"Inkhundla Mhlambanyatsi","state":"Manzini","ISO3166-2-lvl4":"SZ-MA","country":"eSwatini","country_code":"sz"},"osm_type":"node","osm_id":4415045766,"type":"town","location":[31.0113353,-26.540374],"bbox":[30.9713353,-26.580374,31.0513353,-26.500374]}
{"name":"Malkerns","display_name":"Malkerns, Inkhundla Lobamba Lomdzala, Manzini, eSwatini","address":{"town":"Malkerns","county":"Inkhundla Lobamba Lomdzala","state":"Manzini","ISO3166-2-lvl4":"SZ-MA","country":"eSwatini","country_code":"sz"},"population":9724,"osm_type":"node","osm_id":2277192792,"type":"town","location":[31.189006,-26.531888],"bbox":[31.149006,-26.571888,31.229006,-26.491888]}
{"name":"Ezulwini","display_name":"Ezulwini, Inkhundla Lobamba, Hhohho, eSwatini","address":{"town":"Ezulwini","county":"Inkhundla Lobamba","state":"Hhohho","ISO3166-2-lvl4":"SZ-HH","country":"eSwatini","country_code":"sz"},"osm_type":"node","osm_id":4415037937,"type":"town","location":[31.178316,-26.4018193],"bbox":[31.138316,-26.4418193,31.218316,-26.3618193]}
{"name":"Lobamba","other_names":{"name:ar":"لوبامبا","name:az":"Lobamba","name:be":"Лабамба","name:bg":"Лабамба","name:bs":"Lobamba","name:ca":"Lobamba","name:cs":"Lobamba","name:de":"Lobamba","name:el":"Λομπάμπα","name:en":"Lobamba","name:eo":"Lobambo","name:es":"Lobamba","name:et":"Lobamba","name:eu":"Lobamba","name:fa":"لوبامبا","name:fi":"Lobamba","name:fr":"Lobamba","name:gd":"Lobamba","name:gl":"Lobamba","name:he":"לובמבה","name:hi":"लोबम्बा","name:ht":"Lobamba","name:hu":"Lobamba","name:hy":"Լոբամբա","name:id":"Lobamba","name:ie":"Lobamba","name:it":"Lobamba","name:ja":"ロバンバ","name:jv":"Lobamba","name:ka":"ლობამბა","name:ko":"로밤바","name:lt":"Lobamba","name:lv":"Lobamba","name:ms":"Lobamba","name:nl":"Lobamba","name:nn":"Lobamba","name:no":"Lobamba","name:oc":"Lobamba","name:pl":"Lobamba","name:ps":"لوبامبا","name:pt":"Lobamba","name:ro":"Lobamba","name:ru":"Лобамба","name:sc":"Lobamba","name:sh":"Lobamba","name:sk":"Lobamba","name:sn":"Lobamba","name:so":"Lobamba","name:sr":"Лобамба","name:ss":"Lobamba","name:sv":"Lobamba","name:sw":"Lobamba","name:ta":"லோபம்பா","name:tr":"Lobamba","name:uk":"Лобамба","name:ur":"لوبامبا","name:vi":"Lobamba","name:yo":"Lobamba","name:zh":"洛班巴","name:zu":"ILobamba","name:ast":"Lobamba","name:bcl":"Lobamba","name:cdo":"Lobamba","name:ceb":"Lobamba","name:ckb":"لۆبامبا","name:frr":"Lobamba","name:hif":"Lobamba","name:lmo":"Lobamba","name:nds":"Lobamba","name:pnb":"لوباما","name:smn":"Lobamba","name:vec":"Lobamba","name:war":"Lobamba","name:wuu":"洛班巴","name:xmf":"ლობამბა"},"display_name":"Lobamba, Inkhundla Lobamba, Hhohho, eSwatini","address":{"town":"Lobamba","county":"Inkhundla Lobamba","state":"Hhohho","ISO3166-2-lvl4":"SZ-HH","country":"eSwatini","country_code":"sz"},"population":11000,"osm_type":"node","osm_id":4415037938,"type":"town","location":[31.2083781,-26.4462848],"bbox":[31.1683781,-26.4862848,31.2483781,-26.4062848]}
{"name":"Matsapha","display_name":"Matsapha, Inkhundla Kwaluseni, Manzini, M202, eSwatini","address":{"town":"Matsapha","county":"Inkhundla Kwaluseni","state":"Manzini","ISO3166-2-lvl4":"SZ-MA","postcode":"M202","country":"eSwatini","country_code":"sz"},"osm_type":"node","osm_id":4415037936,"type":"town","location":[31.308351,-26.494482],"bbox":[31.268351,-26.534482,31.348351,-26.454482]}
{"name":"Luve","display_name":"Luve, Inkhundla Mkhiweni, Manzini, eSwatini","address":{"town":"Luve","county":"Inkhundla Mkhiweni","state":"Manzini","ISO3166-2-lvl4":"SZ-MA","country":"eSwatini","country_code":"sz"},"osm_type":"node","osm_id":6528192624,"type":"town","location":[31.4756155,-26.321335],"bbox":[31.4356155,-26.361335,31.5156155,-26.281335]}
{"name":"Siteki","display_name":"Siteki, Inkhundla Lugongolweni, Lubombo, L300, eSwatini","address":{"town":"Siteki","county":"Inkhundla Lugongolweni","state":"Lubombo","ISO3166-2-lvl4":"SZ-LU","postcode":"L300","country":"eSwatini","country_code":"sz"},"osm_type":"node","osm_id":2330307546,"type":"town","location":[31.9463149,-26.4536442],"bbox":[31.9063149,-26.4936442,31.9863149,-26.4136442]}
{"name":"Simunye","display_name":"Simunye, Inkhundla Mhlume, Lubombo, eSwatini","address":{"town":"Simunye","county":"Inkhundla Mhlume","state":"Lubombo","ISO3166-2-lvl4":"SZ-LU","country":"eSwatini","country_code":"sz"},"population":18350,"osm_type":"node","osm_id":4415037935,"type":"town","location":[31.9195,-26.208449],"bbox":[31.8795,-26.248449,31.9595,-26.168449]}
{"name":"Piggs Peak","other_names":{"name:ru":"Пигс-Пик"},"display_name":"Piggs Peak, Inkhundla Piggs Peak, Hhohho, eSwatini","address":{"town":"Piggs Peak","county":"Inkhundla Piggs Peak","state":"Hhohho","ISO3166-2-lvl4":"SZ-HH","country":"eSwatini","country_code":"sz"},"osm_type":"node","osm_id":59732385,"type":"town","location":[31.247642,-25.9616997],"bbox":[31.207642,-26.0016997,31.287642,-25.9216997]}
{"name":"Buhleni","display_name":"Buhleni, Inkhundla Mayiwane, Hhohho, eSwatini","address":{"town":"Buhleni","county":"Inkhundla Mayiwane","state":"Hhohho","ISO3166-2-lvl4":"SZ-HH","country":"eSwatini","country_code":"sz"},"osm_type":"node","osm_id":6628631289,"type":"town","location":[31.5102678,-25.9229563],"bbox":[31.4702678,-25.9629563,31.5502678,-25.8829563]}
{"name":"Lomahasha","display_name":"Lomahasha, Inkhundla Lomahasha, Lubombo, eSwatini","address":{"town":"Lomahasha","county":"Inkhundla Lomahasha","state":"Lubombo","ISO3166-2-lvl4":"SZ-LU","country":"eSwatini","country_code":"sz"},"osm_type":"node","osm_id":6615844882,"type":"town","location":[31.9965301,-25.9900748],"bbox":[31.9565301,-26.0300748,32.0365301,-25.9500748]}
{"name":"Ngomane","display_name":"Ngomane, Maphiveni, Inkhundla Lomahasha, Lubombo, eSwatini","address":{"village":"Maphiveni","county":"Inkhundla Lomahasha","state":"Lubombo","ISO3166-2-lvl4":"SZ-LU","country":"eSwatini","country_code":"sz"},"osm_type":"way","osm_id":429423635,"type":"village","location":[31.984177553160517,-26.14770415],"bbox":[31.9841497,-26.147737,31.9842147,-26.1476751]}
{"name":"Hhohho","display_name":"Hhohho, Inkhundla Ndzingeni, Hhohho, eSwatini","address":{"village":"Hhohho","county":"Inkhundla Ndzingeni","state":"Hhohho","ISO3166-2-lvl4":"SZ-HH","country":"eSwatini","country_code":"sz"},"osm_type":"way","osm_id":926984569,"type":"village","location":[31.449533726348776,-26.015793350000003],"bbox":[31.4136886,-26.0550479,31.4735126,-25.9794964]}
{"name":"Ngomane","display_name":"Ngomane, Inkhundla Lomahasha, Lubombo, eSwatini","address":{"village":"Ngomane","county":"Inkhundla Lomahasha","state":"Lubombo","ISO3166-2-lvl4":"SZ-LU","country":"eSwatini","country_code":"sz"},"osm_type":"way","osm_id":1118646653,"type":"village","location":[31.987222370285615,-26.142913200000002],"bbox":[31.9806325,-26.1492195,31.9915974,-26.1363445]}
{"name":"Mahamba","display_name":"Mahamba, Inkhundla Maseyisini, Shiselweni, eSwatini","address":{"village":"Mahamba","county":"Inkhundla Maseyisini","state":"Shiselweni","ISO3166-2-lvl4":"SZ-SH","country":"eSwatini","country_code":"sz"},"osm_type":"node","osm_id":2276760449,"type":"village","location":[31.0832079,-27.1081424],"bbox":[31.0632079,-27.1281424,31.1032079,-27.0881424]}
{"name":"Matsanjeni","other_names":{"alt_name":"Matsanjeni I"},"display_name":"Matsanjeni, Inkhundla Matsanjeni South, Shiselweni, eSwatini","address":{"village":"Matsanjeni","county":"Inkhundla Matsanjeni South","state":"Shiselweni","ISO3166-2-lvl4":"SZ-SH","country":"eSwatini","country_code":"sz"},"osm_type":"node","osm_id":10930805151,"type":"village","location":[31.7413419,-27.2521886],"bbox":[31.7213419,-27.2721886,31.7613419,-27.2321886]}
{"name":"Makhava","display_name":"Makhava, Inkhundla Matsanjeni South, Shiselweni, eSwatini","address":{"village":"Makhava","county":"Inkhundla Matsanjeni South","state":"Shiselweni","ISO3166-2-lvl4":"SZ-SH","country":"eSwatini","country_code":"sz"},"osm_type":"node","osm_id":10925604501,"type":"village","location":[31.6675841,-27.161203],"bbox":[31.6475841,-27.181203,31.6875841,-27.141203]}
{"name":"Lavumisa","display_name":"Lavumisa, Inkhundla Somntongo, Shiselweni, eSwatini","address":{"village":"Lavumisa","county":"Inkhundla Somntongo","state":"Shiselweni","ISO3166-2-lvl4":"SZ-SH","country":"eSwatini","country_code":"sz"},"osm_type":"node","osm_id":2276743326,"type":"village","location":[31.884566,-27.31092],"bbox":[31.864566,-27.33092,31.904566,-27.29092]}
{"name":"Qomintaba","display_name":"Qomintaba, Inkhundla Matsanjeni South, Shiselweni, eSwatini","address":{"village":"Qomintaba","county":"Inkhundla Matsanjeni South","state":"Shiselweni","ISO3166-2-lvl4":"SZ-SH","country":"eSwatini","country_code":"sz"},"osm_type":"node","osm_id":10925604495,"type":"village","location":[31.7260824,-27.1331858],"bbox":[31.7060824,-27.1531858,31.7460824,-27.1131858]}
{"name":"Mbutfu","display_name":"Mbutfu, Inkhundla Lubuli, Lubombo, eSwatini","address":{"village":"Mbutfu","county":"Inkhundla Lubuli","state":"Lubombo","ISO3166-2-lvl4":"SZ-LU","country":"eSwatini","country_code":"sz"},"osm_type":"node","osm_id":10921062326,"type":"village","location":[31.9290414,-27.0743657],"bbox":[31.9090414,-27.0943657,31.9490414,-27.0543657]}
{"name":"Nkhundla","display_name":"Nkhundla, Inkhundla Lubuli, Lubombo, eSwatini","address":{"village":"Nkhundla","county":"Inkhundla Lubuli","state":"Lubombo","ISO3166-2-lvl4":"SZ-LU","country":"eSwatini","country_code":"sz"},"osm_type":"node","osm_id":10925590699,"type":"village","location":[31.8866774,-27.0051337],"bbox":[31.8666774,-27.0251337,31.9066774,-26.9851337]}
{"name":"Lubuli","display_name":"Lubuli, Inkhundla Lubuli, Lubombo, eSwatini","address":{"village":"Lubuli","county":"Inkhundla Lubuli","state":"Lubombo","ISO3166-2-lvl4":"SZ-LU","country":"eSwatini","country_code":"sz"},"osm_type":"node","osm_id":10921062249,"type":"village","location":[31.9082685,-27.0197458],"bbox":[31.8882685,-27.0397458,31.9282685,-26.9997458]}
{"name":"Nsoko","display_name":"Nsoko, Inkhundla Lubuli, Lubombo, eSwatini","address":{"village":"Nsoko","county":"Inkhundla Lubuli","state":"Lubombo","ISO3166-2-lvl4":"SZ-LU","country":"eSwatini","country_code":"sz"},"osm_type":"node","osm_id":4415061728,"type":"village","location":[31.9372545,-27.0259164],"bbox":[31.9172545,-27.0459164,31.9572545,-27.0059164]}
{"name":"Nkhanini","display_name":"Nkhanini, Inkhundla Lubuli, Lubombo, eSwatini","address":{"village":"Nkhanini","county":"Inkhundla Lubuli","state":"Lubombo","ISO3166-2-lvl4":"SZ-LU","country":"eSwatini","country_code":"sz"},"osm_type":"node","osm_id":10933579651,"type":"village","location":[31.8834753,-26.9107426],"bbox":[31.8634753,-26.9307426,31.9034753,-26.8907426]}
{"name":"Ndzevane I","display_name":"Ndzevane I, Inkhundla Lubuli, Lubombo, eSwatini","address":{"village":"Ndzevane I","county":"Inkhundla Lubuli","state":"Lubombo","ISO3166-2-lvl4":"SZ-LU","country":"eSwatini","country_code":"sz"},"osm_type":"node","osm_id":10923600844,"type":"village","location":[31.9519523,-26.9499648],"bbox":[31.9319523,-26.9699648,31.9719523,-26.9299648]}
{"name":"Gamula","display_name":"Gamula, Inkhundla Nkilongo, Lubombo, eSwatini","address":{"village":"Gamula","county":"Inkhundla Nkilongo","state":"Lubombo","ISO3166-2-lvl4":"SZ-LU","country":"eSwatini","country_code":"sz"},"osm_type":"node","osm_id":10933579660,"type":"village","location":[31.9592704,-26.9230893],"bbox":[31.9392704,-26.9430893,31.9792704,-26.9030893]}
{"name":"Matata","display_name":"Matata, Inkhundla Nkilongo, Lubombo, eSwatini","address":{"village":"Matata","county":"Inkhundla Nkilongo","state":"Lubombo","ISO3166-2-lvl4":"SZ-LU","country":"eSwatini","country_code":"sz"},"osm_type":"node","osm_id":4415092699,"type":"village","location":[31.9234963,-26.87077],"bbox":[31.9034963,-26.89077,31.9434963,-26.85077]}
{"name":"Betusile","display_name":"Betusile, Inkhundla Nkilongo, Lubombo, eSwatini","address":{"village":"Betusile","county":"Inkhundla Nkilongo","state":"Lubombo","ISO3166-2-lvl4":"SZ-LU","country":"eSwatini","country_code":"sz"},"osm_type":"node","osm_id":10925604212,"type":"village","location":[31.900832,-26.8643917],"bbox":[31.880832,-26.8843917,31.920832,-26.8443917]}
{"name":"Mahlabaneni","display_name":"Mahlabaneni, Inkhundla Nkilongo, Lubombo, eSwatini","address":{"village":"Mahlabaneni","county":"Inkhundla Nkilongo","state":"Lubombo","ISO3166-2-lvl4":"SZ-LU","country":"eSwatini","country_code":"sz"},"osm_type":"node","osm_id":10933579662,"type":"village","location":[31.9681456,-26.8561889],"bbox":[31.9481456,-26.8761889,31.9881456,-26.8361889]}
{"name":"Mhlabanyatsi","display_name":"Mhlabanyatsi, Inkhundla Mhlambanyatsi, Manzini, eSwatini","address":{"village":"Mhlabanyatsi","county":"Inkhundla Mhlambanyatsi","state":"Manzini","ISO3166-2-lvl4":"SZ-MA","country":"eSwatini","country_code":"sz"},"osm_type":"node","osm_id":2435415603,"type":"village","location":[31.0465164,-26.4562133],"bbox":[31.0265164,-26.4762133,31.0665164,-26.4362133]}
{"name":"Mankayane","display_name":"Mankayane, Inkhundla Ngwempisi, Manzini, eSwatini","address":{"village":"Mankayane","county":"Inkhundla Ngwempisi","state":"Manzini","ISO3166-2-lvl4":"SZ-MA","country":"eSwatini","country_code":"sz"},"osm_type":"node","osm_id":6615844880,"type":"village","location":[31.0578928,-26.6804367],"bbox":[31.0378928,-26.7004367,31.0778928,-26.6604367]}
{"name":"Sidvokodvo","display_name":"Sidvokodvo, Inkhundla Nhlambeni, Manzini, eSwatini","address":{"village":"Sidvokodvo","county":"Inkhundla Nhlambeni","state":"Manzini","ISO3166-2-lvl4":"SZ-MA","country":"eSwatini","country_code":"sz"},"osm_type":"node","osm_id":3889084242,"type":"village","location":[31.42138,-26.630793],"bbox":[31.40138,-26.650793,31.44138,-26.610793]}
{"name":"Madlangempisi","display_name":"Madlangempisi, Inkhundla Madlangempisi, Hhohho, eSwatini","address":{"village":"Madlangempisi","county":"Inkhundla Madlangempisi","state":"Hhohho","ISO3166-2-lvl4":"SZ-HH","country":"eSwatini","country_code":"sz"},"osm_type":"node","osm_id":537561792,"type":"village","location":[31.5485086,-26.0890249],"bbox":[31.5285086,-26.1090249,31.5685086,-26.0690249]}
{"name":"Siphofaneni","display_name":"Siphofaneni, Inkhundla Siphofaneni, Lubombo, eSwatini","address":{"village":"Siphofaneni","county":"Inkhundla Siphofaneni","state":"Lubombo","ISO3166-2-lvl4":"SZ-LU","country":"eSwatini","country_code":"sz"},"osm_type":"node","osm_id":4415040059,"type":"village","location":[31.6830014,-26.6812533],"bbox":[31.6630014,-26.7012533,31.7030014,-26.6612533]}
{"name":"Mliba","display_name":"Mliba, Inkhundla Mkhiweni, Manzini, eSwatini","address":{"village":"Mliba","county":"Inkhundla Mkhiweni","state":"Manzini","ISO3166-2-lvl4":"SZ-MA","country":"eSwatini","country_code":"sz"},"osm_type":"node","osm_id":906923737,"type":"village","location":[31.5827303,-26.2397445],"bbox":[31.5627303,-26.2597445,31.6027303,-26.2197445]}
{"name":"Croydon","display_name":"Croydon, Inkhundla Mkhiweni, Manzini, eSwatini","address":{"village":"Croydon","county":"Inkhundla Mkhiweni","state":"Manzini","ISO3166-2-lvl4":"SZ-MA","country":"eSwatini","country_code":"sz"},"osm_type":"node","osm_id":906921814,"type":"village","location":[31.5687935,-26.1970188],"bbox":[31.5487935,-26.2170188,31.5887935,-26.1770188]}
{"name":"Mpaka","display_name":"Mpaka, Inkhundla Dvokodvweni, Lubombo, eSwatini","address":{"village":"Mpaka","county":"Inkhundla Dvokodvweni","state":"Lubombo","ISO3166-2-lvl4":"SZ-LU","country":"eSwatini","country_code":"sz"},"osm_type":"node","osm_id":4285889417,"type":"village","location":[31.776236,-26.412793],"bbox":[31.756236,-26.432793,31.796236,-26.392793]}
{"name":"Maphiveni","display_name":"Maphiveni, Inkhundla Lomahasha, Lubombo, eSwatini","address":{"village":"Maphiveni","county":"Inkhundla Lomahasha","state":"Lubombo","ISO3166-2-lvl4":"SZ-LU","country":"eSwatini","country_code":"sz"},"osm_type":"node","osm_id":9948942265,"type":"village","location":[31.9828594,-26.144261],"bbox":[31.9628594,-26.164261,32.0028594,-26.124261]}
{"name":"Vuvulane","display_name":"Vuvulane, Inkhundla Mhlume, Lubombo, eSwatini","address":{"village":"Vuvulane","county":"Inkhundla Mhlume","state":"Lubombo","ISO3166-2-lvl4":"SZ-LU","country":"eSwatini","country_code":"sz"},"osm_type":"node","osm_id":6615844881,"type":"village","location":[31.8762876,-26.0736718],"bbox":[31.8562876,-26.0936718,31.8962876,-26.0536718]}
{"name":"Mhlume","display_name":"Mhlume, Inkhundla Mhlume, Lubombo, eSwatini","address":{"village":"Mhlume","county":"Inkhundla Mhlume","state":"Lubombo","ISO3166-2-lvl4":"SZ-LU","country":"eSwatini","country_code":"sz"},"osm_type":"node","osm_id":4415005034,"type":"village","location":[31.8155989,-26.0475422],"bbox":[31.7955989,-26.0675422,31.8355989,-26.0275422]}
{"name":"Bulembu","display_name":"Bulembu, Inkhundla Piggs Peak, Hhohho, eSwatini","address":{"village":"Bulembu","county":"Inkhundla Piggs Peak","state":"Hhohho","ISO3166-2-lvl4":"SZ-HH","country":"eSwatini","country_code":"sz"},"osm_type":"node","osm_id":59732837,"type":"village","location":[31.1272114,-25.9533485],"bbox":[31.1072114,-25.9733485,31.1472114,-25.9333485]}
{"name":"Tjaneni","display_name":"Tjaneni, Inkhundla Mhlume, Lubombo, eSwatini","address":{"village":"Tjaneni","county":"Inkhundla Mhlume","state":"Lubombo","ISO3166-2-lvl4":"SZ-LU","country":"eSwatini","country_code":"sz"},"population":1899,"osm_type":"node","osm_id":1486030285,"type":"village","location":[31.7542997,-25.9994572],"bbox":[31.7342997,-26.0194572,31.7742997,-25.9794572]}
{"name":"Dindithe","display_name":"Dindithe, Inkhundla Matsanjeni South, Shiselweni, eSwatini","address":{"hamlet":"Dindithe","county":"Inkhundla Matsanjeni South","state":"Shiselweni","ISO3166-2-lvl4":"SZ-SH","country":"eSwatini","country_code":"sz"},"osm_type":"node","osm_id":10932407601,"type":"hamlet","location":[31.6131972,-27.2710662],"bbox":[31.5931972,-27.2910662,31.6331972,-27.2510662]}
{"name":"Nsalitje I","other_names":{"alt_name":"Nsalitshe I"},"display_name":"Nsalitje I, Inkhundla Matsanjeni South, Shiselweni, eSwatini","address":{"hamlet":"Nsalitje I","county":"Inkhundla Matsanjeni South","state":"Shiselweni","ISO3166-2-lvl4":"SZ-SH","country":"eSwatini","country_code":"sz"},"osm_type":"node","osm_id":10932407556,"type":"hamlet","location":[31.6313118,-27.2735431],"bbox":[31.6113118,-27.2935431,31.6513118,-27.2535431]}
{"name":"Sithobela","display_name":"Sithobela, Inkhundla Sithobela, Lubombo, eSwatini","address":{"hamlet":"Sithobela","county":"Inkhundla Sithobela","state":"Lubombo","ISO3166-2-lvl4":"SZ-LU","country":"eSwatini","country_code":"sz"},"osm_type":"node","osm_id":4415061727,"type":"hamlet","location":[31.5972343,-26.8820416],"bbox":[31.5772343,-26.9020416,31.6172343,-26.8620416]}
{"name":"Ngamudze","display_name":"Ngamudze, Inkhundla Matsanjeni South, Shiselweni, eSwatini","address":{"hamlet":"Ngamudze","county":"Inkhundla Matsanjeni South","state":"Shiselweni","ISO3166-2-lvl4":"SZ-SH","country":"eSwatini","country_code":"sz"},"osm_type":"node","osm_id":10932407550,"type":"hamlet","location":[31.6286569,-27.2351245],"bbox":[31.6086569,-27.2551245,31.6486569,-27.2151245]}
{"name":"Phumelela","display_name":"Phumelela, Inkhundla Matsanjeni South, Shiselweni, eSwatini","address":{"hamlet":"Phumelela","county":"Inkhundla Matsanjeni South","state":"Shiselweni","ISO3166-2-lvl4":"SZ-SH","country":"eSwatini","country_code":"sz"},"osm_type":"node","osm_id":10930805157,"type":"hamlet","location":[31.7255816,-27.2923284],"bbox":[31.7055816,-27.3123284,31.7455816,-27.2723284]}
{"name":"Nkonka","display_name":"Nkonka, Inkhundla Matsanjeni South, Shiselweni, eSwatini","address":{"hamlet":"Nkonka","county":"Inkhundla Matsanjeni South","state":"Shiselweni","ISO3166-2-lvl4":"SZ-SH","country":"eSwatini","country_code":"sz"},"osm_type":"node","osm_id":10932407549,"type":"hamlet","location":[31.6390919,-27.2216427],"bbox":[31.6190919,-27.2416427,31.6590919,-27.2016427]}
{"name":"Nsalitje II","other_names":{"alt_name":"Nsalitshe II"},"display_name":"Nsalitje II, Inkhundla Matsanjeni South, Shiselweni, eSwatini","address":{"hamlet":"Nsalitje II","county":"Inkhundla Matsanjeni South","state":"Shiselweni","ISO3166-2-lvl4":"SZ-SH","country":"eSwatini","country_code":"sz"},"osm_type":"node","osm_id":10932407602,"type":"hamlet","location":[31.6704895,-27.2872358],"bbox":[31.6504895,-27.3072358,31.6904895,-27.2672358]}
{"name":"Nsalitje III","other_names":{"alt_name":"Nsalitshe III"},"display_name":"Nsalitje III, Inkhundla Matsanjeni South, Shiselweni, eSwatini","address":{"hamlet":"Nsalitje III","county":"Inkhundla Matsanjeni South","state":"Shiselweni","ISO3166-2-lvl4":"SZ-SH","country":"eSwatini","country_code":"sz"},"osm_type":"node","osm_id":10932407603,"type":"hamlet","location":[31.6909824,-27.2859072],"bbox":[31.6709824,-27.3059072,31.7109824,-27.2659072]}
{"name":"Emsuzaneni","display_name":"Emsuzaneni, Inkhundla Somntongo, Shiselweni, eSwatini","address":{"hamlet":"Emsuzaneni","county":"Inkhundla Somntongo","state":"Shiselweni","ISO3166-2-lvl4":"SZ-SH","country":"eSwatini","country_code":"sz"},"osm_type":"node","osm_id":10932406691,"type":"hamlet","location":[31.8184735,-27.2912524],"bbox":[31.7984735,-27.3112524,31.8384735,-27.2712524]}
{"name":"Vuvu","display_name":"Vuvu, Inkhundla Somntongo, Shiselweni, eSwatini","address":{"hamlet":"Vuvu","county":"Inkhundla Somntongo","state":"Shiselweni","ISO3166-2-lvl4":"SZ-SH","country":"eSwatini","country_code":"sz"},"osm_type":"node","osm_id":10932407421,"type":"hamlet","location":[31.7706488,-27.3060022],"bbox":[31.7506488,-27.3260022,31.7906488,-27.2860022]}
{"name":"Mgamula","other_names":{"old_name":"Oslo"},"display_name":"Mgamula, Inkhundla Matsanjeni South, Shiselweni, eSwatini","address":{"hamlet":"Mgamula","county":"Inkhundla Matsanjeni South","state":"Shiselweni","ISO3166-2-lvl4":"SZ-SH","country":"eSwatini","country_code":"sz"},"osm_type":"node","osm_id":10932407554,"type":"hamlet","location":[31.6417106,-27.2379258],"bbox":[31.6217106,-27.2579258,31.6617106,-27.2179258]}
{"name":"Somntongo","display_name":"Somntongo, Inkhundla Somntongo, Shiselweni, eSwatini","address":{"hamlet":"Somntongo","county":"Inkhundla Somntongo","state":"Shiselweni","ISO3166-2-lvl4":"SZ-SH","country":"eSwatini","country_code":"sz"},"osm_type":"node","osm_id":10932406692,"type":"hamlet","location":[31.8064837,-27.3019524],"bbox":[31.7864837,-27.3219524,31.8264837,-27.2819524]}
{"name":"Matjamnyama","display_name":"Matjamnyama, Inkhundla Matsanjeni South, Shiselweni, eSwatini","address":{"hamlet":"Matjamnyama","county":"Inkhundla Matsanjeni South","state":"Shiselweni","ISO3166-2-lvl4":"SZ-SH","country":"eSwatini","country_code":"sz"},"osm_type":"node","osm_id":10932407553,"type":"hamlet","location":[31.6514631,-27.2379067],"bbox":[31.6314631,-27.2579067,31.6714631,-27.2179067]}
{"name":"Mabande","display_name":"Mabande, Inkhundla Matsanjeni South, Shiselweni, eSwatini","address":{"hamlet":"Mabande","county":"Inkhundla Matsanjeni South","state":"Shiselweni","ISO3166-2-lvl4":"SZ-SH","country":"eSwatini","country_code":"sz"},"osm_type":"node","osm_id":10932407422,"type":"hamlet","location":[31.7491375,-27.2837874],"bbox":[31.7291375,-27.3037874,31.7691375,-27.2637874]}
{"name":"Gushede","display_name":"Gushede, Inkhundla Somntongo, Shiselweni, eSwatini","address":{"hamlet":"Gushede","county":"Inkhundla Somntongo","state":"Shiselweni","ISO3166-2-lvl4":"SZ-SH","country":"eSwatini","country_code":"sz"},"osm_type":"node","osm_id":10932406690,"type":"hamlet","location":[31.8679143,-27.297276],"bbox":[31.8479143,-27.317276,31.8879143,-27.277276]}
{"name":"Nhlungamanzi","display_name":"Nhlungamanzi, Inkhundla Matsanjeni South, Shiselweni, eSwatini","address":{"hamlet":"Nhlungamanzi","county":"Inkhundla Matsanjeni South","state":"Shiselweni","ISO3166-2-lvl4":"SZ-SH","country":"eSwatini","country_code":"sz"},"osm_type":"node","osm_id":10932407552,"type":"hamlet","location":[31.6580035,-27.2207969],"bbox":[31.6380035,-27.2407969,31.6780035,-27.2007969]}
{"name":"Nkuntjini","display_name":"Nkuntjini, Inkhundla Matsanjeni South, Shiselweni, eSwatini","address":{"hamlet":"Nkuntjini","county":"Inkhundla Matsanjeni South","state":"Shiselweni","ISO3166-2-lvl4":"SZ-SH","country":"eSwatini","country_code":"sz"},"osm_type":"node","osm_id":10932406655,"type":"hamlet","location":[31.7276643,-27.2058766],"bbox":[31.7076643,-27.2258766,31.7476643,-27.1858766]}
{"name":"Mgampondo","other_names":{"alt_name":"Mgamphondo"},"display_name":"Mgampondo, Inkhundla Somntongo, Shiselweni, eSwatini","address":{"hamlet":"Mgampondo","county":"Inkhundla Somntongo","state":"Shiselweni","ISO3166-2-lvl4":"SZ-SH","country":"eSwatini","country_code":"sz"},"osm_type":"node","osm_id":10930805116,"type":"hamlet","location":[31.7897878,-27.2807013],"bbox":[31.7697878,-27.3007013,31.8097878,-27.2607013]}
{"name":"Vimbizibuko","display_name":"Vimbizibuko, Inkhundla Somntongo, Shiselweni, eSwatini","address":{"hamlet":"Vimbizibuko","county":"Inkhundla Somntongo","state":"Shiselweni","ISO3166-2-lvl4":"SZ-SH","country":"eSwatini","country_code":"sz"},"osm_type":"node","osm_id":10933579623,"type":"hamlet","location":[31.8027745,-27.2339362],"bbox":[31.7827745,-27.2539362,31.8227745,-27.2139362]}
{"name":"Ndabazezwe","display_name":"Ndabazezwe, Inkhundla Somntongo, Shiselweni, eSwatini","address":{"hamlet":"Ndabazezwe","county":"Inkhundla Somntongo","state":"Shiselweni","ISO3166-2-lvl4":"SZ-SH","country":"eSwatini","country_code":"sz"},"osm_type":"node","osm_id":10930805115,"type":"hamlet","location":[31.8080482,-27.2695157],"bbox":[31.7880482,-27.2895157,31.8280482,-27.2495157]}
{"name":"Phangweni","display_name":"Phangweni, Inkhundla Somntongo, Shiselweni, eSwatini","address":{"hamlet":"Phangweni","county":"Inkhundla Somntongo","state":"Shiselweni","ISO3166-2-lvl4":"SZ-SH","country":"eSwatini","country_code":"sz"},"osm_type":"node","osm_id":10933579648,"type":"hamlet","location":[31.7945797,-27.2160733],"bbox":[31.7745797,-27.2360733,31.8145797,-27.1960733]}
{"name":"Bulawayo","display_name":"Bulawayo, Inkhundla Somntongo, Shiselweni, eSwatini","address":{"hamlet":"Bulawayo","county":"Inkhundla Somntongo","state":"Shiselweni","ISO3166-2-lvl4":"SZ-SH","country":"eSwatini","country_code":"sz"},"osm_type":"node","osm_id":10930805112,"type":"hamlet","location":[31.8297576,-27.2767604],"bbox":[31.8097576,-27.2967604,31.8497576,-27.2567604]}
{"name":"Mthonjeni","display_name":"Mthonjeni, Inkhundla Somntongo, Shiselweni, eSwatini","address":{"hamlet":"Mthonjeni","county":"Inkhundla Somntongo","state":"Shiselweni","ISO3166-2-lvl4":"SZ-SH","country":"eSwatini","country_code":"sz"},"osm_type":"node","osm_id":10930805113,"type":"hamlet","location":[31.801285,-27.2516986],"bbox":[31.781285,-27.2716986,31.821285,-27.2316986]}
{"name":"Maplotini","display_name":"Maplotini, Inkhundla Somntongo, Shiselweni, eSwatini","address":{"hamlet":"Maplotini","county":"Inkhundla Somntongo","state":"Shiselweni","ISO3166-2-lvl4":"SZ-SH","country":"eSwatini","country_code":"sz"},"osm_type":"node","osm_id":10932406689,"type":"hamlet","location":[31.8682209,-27.2688046],"bbox":[31.8482209,-27.2888046,31.8882209,-27.2488046]}
{"name":"Mncikazi","display_name":"Mncikazi, Inkhundla Somntongo, Shiselweni, eSwatini","address":{"hamlet":"Mncikazi","county":"Inkhundla Somntongo","state":"Shiselweni","ISO3166-2-lvl4":"SZ-SH","country":"eSwatini","country_code":"sz"},"osm_type":"node","osm_id":10930805114,"type":"hamlet","location":[31.8080458,-27.2162308],"bbox":[31.7880458,-27.2362308,31.8280458,-27.1962308]}
{"name":"Mlindazwe","display_name":"Mlindazwe, Inkhundla Somntongo, Shiselweni, eSwatini","address":{"hamlet":"Mlindazwe","county":"Inkhundla Somntongo","state":"Shiselweni","ISO3166-2-lvl4":"SZ-SH","country":"eSwatini","country_code":"sz"},"osm_type":"node","osm_id":10925604473,"type":"hamlet","location":[31.7991286,-27.2031615],"bbox":[31.7791286,-27.2231615,31.8191286,-27.1831615]}
{"name":"Nkondelo","display_name":"Nkondelo, Inkhundla Somntongo, Shiselweni, eSwatini","address":{"hamlet":"Nkondelo","county":"Inkhundla Somntongo","state":"Shiselweni","ISO3166-2-lvl4":"SZ-SH","country":"eSwatini","country_code":"sz"},"osm_type":"node","osm_id":10925604474,"type":"hamlet","location":[31.7843185,-27.1621338],"bbox":[31.7643185,-27.1821338,31.8043185,-27.1421338]}
{"name":"Mdlebeni","display_name":"Mdlebeni, Inkhundla Somntongo, Shiselweni, eSwatini","address":{"hamlet":"Mdlebeni","county":"Inkhundla Somntongo","state":"Shiselweni","ISO3166-2-lvl4":"SZ-SH","country":"eSwatini","country_code":"sz"},"osm_type":"node","osm_id":10925604475,"type":"hamlet","location":[31.7994514,-27.1788487],"bbox":[31.7794514,-27.1988487,31.8194514,-27.1588487]}
{"name":"Mfulamudze","display_name":"Mfulamudze, Inkhundla Matsanjeni South, Shiselweni, eSwatini","address":{"hamlet":"Mfulamudze","county":"Inkhundla Matsanjeni South","state":"Shiselweni","ISO3166-2-lvl4":"SZ-SH","country":"eSwatini","country_code":"sz"},"osm_type":"node","osm_id":10925604312,"type":"hamlet","location":[31.7642057,-27.0893942],"bbox":[31.7442057,-27.1093942,31.7842057,-27.0693942]}
{"name":"Tibane","display_name":"Tibane, Inkhundla Somntongo, Shiselweni, eSwatini","address":{"hamlet":"Tibane","county":"Inkhundla Somntongo","state":"Shiselweni","ISO3166-2-lvl4":"SZ-SH","country":"eSwatini","country_code":"sz"},"osm_type":"node","osm_id":10932406685,"type":"hamlet","location":[31.7933564,-27.1126857],"bbox":[31.7733564,-27.1326857,31.8133564,-27.0926857]}
{"name":"Nhloya","display_name":"Nhloya, Inkhundla Sigwe, Shiselweni, eSwatini","address":{"hamlet":"Nhloya","county":"Inkhundla Sigwe","state":"Shiselweni","ISO3166-2-lvl4":"SZ-SH","country":"eSwatini","country_code":"sz"},"osm_type":"node","osm_id":10927032694,"type":"hamlet","location":[31.6767162,-27.0358761],"bbox":[31.6567162,-27.0558761,31.6967162,-27.0158761]}
{"name":"Chovane","display_name":"Chovane, Inkhundla Somntongo, Shiselweni, eSwatini","address":{"hamlet":"Chovane","county":"Inkhundla Somntongo","state":"Shiselweni","ISO3166-2-lvl4":"SZ-SH","country":"eSwatini","country_code":"sz"},"osm_type":"node","osm_id":10932407519,"type":"hamlet","location":[31.8184684,-27.227396],"bbox":[31.7984684,-27.247396,31.8384684,-27.207396]}
{"name":"Nkenkenene","display_name":"Nkenkenene, Inkhundla Somntongo, Shiselweni, eSwatini","address":{"hamlet":"Nkenkenene","county":"Inkhundla Somntongo","state":"Shiselweni","ISO3166-2-lvl4":"SZ-SH","country":"eSwatini","country_code":"sz"},"osm_type":"node","osm_id":10932406687,"type":"hamlet","location":[31.8217981,-27.1755646],"bbox":[31.8017981,-27.1955646,31.8417981,-27.1555646]}
{"name":"Osabeni","display_name":"Osabeni, Inkhundla Matsanjeni South, Shiselweni, eSwatini","address":{"hamlet":"Osabeni","county":"Inkhundla Matsanjeni South","state":"Shiselweni","ISO3166-2-lvl4":"SZ-SH","country":"eSwatini","country_code":"sz"},"osm_type":"node","osm_id":10925604463,"type":"hamlet","location":[31.7568945,-27.1276213],"bbox":[31.7368945,-27.1476213,31.7768945,-27.1076213]}
{"name":"Maloma","display_name":"Maloma, Inkhundla Sithobela, Lubombo, eSwatini","address":{"hamlet":"Maloma","county":"Inkhundla Sithobela","state":"Lubombo","ISO3166-2-lvl4":"SZ-LU","country":"eSwatini","country_code":"sz"},"osm_type":"node","osm_id":4416191795,"type":"hamlet","location":[31.6534955,-27.003415],"bbox":[31.6334955,-27.023415,31.6734955,-26.983415]}
{"name":"Mthunzini","display_name":"Mthunzini, Inkhundla Somntongo, Shiselweni, eSwatini","address":{"hamlet":"Mthunzini","county":"Inkhundla Somntongo","state":"Shiselweni","ISO3166-2-lvl4":"SZ-SH","country":"eSwatini","country_code":"sz"},"osm_type":"node","osm_id":10932406686,"type":"hamlet","location":[31.8011736,-27.1517903],"bbox":[31.7811736,-27.1717903,31.8211736,-27.1317903]}
{"name":"Zindwendweni","other_names":{"alt_name":"Ezindwendweni"},"display_name":"Zindwendweni, Inkhundla Somntongo, Shiselweni, eSwatini","address":{"hamlet":"Zindwendweni","county":"Inkhundla Somntongo","state":"Shiselweni","ISO3166-2-lvl4":"SZ-SH","country":"eSwatini","country_code":"sz"},"osm_type":"node","osm_id":10925604309,"type":"hamlet","location":[31.8113575,-27.1187702],"bbox":[31.7913575,-27.1387702,31.8313575,-27.0987702]}
{"name":"Etjeni","display_name":"Etjeni, Inkhundla Somntongo, Shiselweni, eSwatini","address":{"hamlet":"Etjeni","county":"Inkhundla Somntongo","state":"Shiselweni","ISO3166-2-lvl4":"SZ-SH","country":"eSwatini","country_code":"sz"},"osm_type":"node","osm_id":10925604464,"type":"hamlet","location":[31.8338936,-27.139677],"bbox":[31.8138936,-27.159677,31.8538936,-27.119677]}
{"name":"Ntuthwakazi","display_name":"Ntuthwakazi, Inkhundla Somntongo, Shiselweni, eSwatini","address":{"hamlet":"Ntuthwakazi","county":"Inkhundla Somntongo","state":"Shiselweni","ISO3166-2-lvl4":"SZ-SH","country":"eSwatini","country_code":"sz"},"osm_type":"node","osm_id":10925604217,"type":"hamlet","location":[31.8148303,-27.0358529],"bbox":[31.7948303,-27.0558529,31.8348303,-27.0158529]}
{"name":"Mahangeni","display_name":"Mahangeni, Inkhundla Somntongo, Shiselweni, eSwatini","address":{"hamlet":"Mahangeni","county":"Inkhundla Somntongo","state":"Shiselweni","ISO3166-2-lvl4":"SZ-SH","country":"eSwatini","country_code":"sz"},"osm_type":"node","osm_id":10932406688,"type":"hamlet","location":[31.8621033,-27.1557069],"bbox":[31.8421033,-27.1757069,31.8821033,-27.1357069]}
{"name":"Mbungeni","display_name":"Mbungeni, Inkhundla Lubuli, Lubombo, eSwatini","address":{"hamlet":"Mbungeni","county":"Inkhundla Lubuli","state":"Lubombo","ISO3166-2-lvl4":"SZ-LU","country":"eSwatini","country_code":"sz"},"osm_type":"node","osm_id":10925590702,"type":"hamlet","location":[31.7509349,-26.9962693],"bbox":[31.7309349,-27.0162693,31.7709349,-26.9762693]}
{"name":"Siphondo","display_name":"Siphondo, Inkhundla Somntongo, Shiselweni, eSwatini","address":{"hamlet":"Siphondo","county":"Inkhundla Somntongo","state":"Shiselweni","ISO3166-2-lvl4":"SZ-SH","country":"eSwatini","country_code":"sz"},"osm_type":"node","osm_id":10923600715,"type":"hamlet","location":[31.8431455,-27.0823066],"bbox":[31.8231455,-27.1023066,31.8631455,-27.0623066]}
{"name":"Ikhwezi","display_name":"Ikhwezi, Inkhundla Lubuli, Lubombo, eSwatini","address":{"hamlet":"Ikhwezi","county":"Inkhundla Lubuli","state":"Lubombo","ISO3166-2-lvl4":"SZ-LU","country":"eSwatini","country_code":"sz"},"osm_type":"node","osm_id":10925590701,"type":"hamlet","location":[31.8089113,-27.0093248],"bbox":[31.7889113,-27.0293248,31.8289113,-26.9893248]}
{"name":"Mqonqwane","other_names":{"alt_name":"Mnconcwane"},"display_name":"Mqonqwane, Inkhundla Lubuli, Lubombo, eSwatini","address":{"hamlet":"Mqonqwane","county":"Inkhundla Lubuli","state":"Lubombo","ISO3166-2-lvl4":"SZ-LU","country":"eSwatini","country_code":"sz"},"osm_type":"node","osm_id":10933579659,"type":"hamlet","location":[31.7547051,-26.9866683],"bbox":[31.7347051,-27.0066683,31.7747051,-26.9666683]}
{"name":"Scuweni","display_name":"Scuweni, Inkhundla Lubuli, Lubombo, eSwatini","address":{"hamlet":"Scuweni","county":"Inkhundla Lubuli","state":"Lubombo","ISO3166-2-lvl4":"SZ-LU","country":"eSwatini","country_code":"sz"},"osm_type":"node","osm_id":10925590704,"type":"hamlet","location":[31.7779222,-26.9915244],"bbox":[31.7579222,-27.0115244,31.7979222,-26.9715244]}
{"name":"Mhlabeni","display_name":"Mhlabeni, Inkhundla Lubuli, Lubombo, eSwatini","address":{"hamlet":"Mhlabeni","county":"Inkhundla Lubuli","state":"Lubombo","ISO3166-2-lvl4":"SZ-LU","country":"eSwatini","country_code":"sz"},"osm_type":"node","osm_id":10930805122,"type":"hamlet","location":[31.8620277,-27.0730881],"bbox":[31.8420277,-27.0930881,31.8820277,-27.0530881]}
{"name":"Katwyk","display_name":"Katwyk, Inkhundla Nkilongo, Lubombo, eSwatini","address":{"hamlet":"Katwyk","county":"Inkhundla Nkilongo","state":"Lubombo","ISO3166-2-lvl4":"SZ-LU","country":"eSwatini","country_code":"sz"},"osm_type":"node","osm_id":10925604208,"type":"hamlet","location":[31.8117835,-26.9137827],"bbox":[31.7917835,-26.9337827,31.8317835,-26.8937827]}
{"name":"Lismore","display_name":"Lismore, Inkhundla Lubuli, Lubombo, eSwatini","address":{"hamlet":"Lismore","county":"Inkhundla Lubuli","state":"Lubombo","ISO3166-2-lvl4":"SZ-LU","country":"eSwatini","country_code":"sz"},"osm_type":"node","osm_id":10921062248,"type":"hamlet","location":[31.9284713,-27.1266604],"bbox":[31.9084713,-27.1466604,31.9484713,-27.1066604]}
{"name":"Nsubane","display_name":"Nsubane, Inkhundla Lubuli, Lubombo, eSwatini","address":{"hamlet":"Nsubane","county":"Inkhundla Lubuli","state":"Lubombo","ISO3166-2-lvl4":"SZ-LU","country":"eSwatini","country_code":"sz"},"osm_type":"node","osm_id":10921062327,"type":"hamlet","location":[31.9615652,-27.1268596],"bbox":[31.9415652,-27.1468596,31.9815652,-27.1068596]}
{"name":"Terblanche","display_name":"Terblanche, Inkhundla Lubuli, Lubombo, eSwatini","address":{"hamlet":"Terblanche","county":"Inkhundla Lubuli","state":"Lubombo","ISO3166-2-lvl4":"SZ-LU","country":"eSwatini","country_code":"sz"},"osm_type":"node","osm_id":10925590703,"type":"hamlet","location":[31.7739751,-26.9561665],"bbox":[31.7539751,-26.9761665,31.7939751,-26.9361665]}
{"name":"Madabukela","display_name":"Madabukela, Inkhundla Lubuli, Lubombo, eSwatini","address":{"hamlet":"Madabukela","county":"Inkhundla Lubuli","state":"Lubombo","ISO3166-2-lvl4":"SZ-LU","country":"eSwatini","country_code":"sz"},"osm_type":"node","osm_id":10930805118,"type":"hamlet","location":[31.885984,-27.0339498],"bbox":[31.865984,-27.0539498,31.905984,-27.0139498]}
{"name":"Bekezela","display_name":"Bekezela, Mbutfu, Inkhundla Lubuli, Lubombo, eSwatini","address":{"hamlet":"Bekezela","village":"Mbutfu","county":"Inkhundla Lubuli","state":"Lubombo","ISO3166-2-lvl4":"SZ-LU","country":"eSwatini","country_code":"sz"},"osm_type":"node","osm_id":10930805117,"type":"hamlet","location":[31.9250793,-27.0866513],"bbox":[31.9050793,-27.1066513,31.9450793,-27.0666513]}
{"name":"Ntambo","display_name":"Ntambo, Inkhundla Lubuli, Lubombo, eSwatini","address":{"hamlet":"Ntambo","county":"Inkhundla Lubuli","state":"Lubombo","ISO3166-2-lvl4":"SZ-LU","country":"eSwatini","country_code":"sz"},"osm_type":"node","osm_id":10925590700,"type":"hamlet","location":[31.8474226,-26.9976664],"bbox":[31.8274226,-27.0176664,31.8674226,-26.9776664]}
{"name":"Sikhaleni","display_name":"Sikhaleni, Inkhundla Lubuli, Lubombo, eSwatini","address":{"hamlet":"Sikhaleni","county":"Inkhundla Lubuli","state":"Lubombo","ISO3166-2-lvl4":"SZ-LU","country":"eSwatini","country_code":"sz"},"osm_type":"node","osm_id":10923600983,"type":"hamlet","location":[31.9767314,-27.051231],"bbox":[31.9567314,-27.071231,31.9967314,-27.031231]}
{"name":"Maja","display_name":"Maja, Inkhundla Lubuli, Lubombo, eSwatini","address":{"hamlet":"Maja","county":"Inkhundla Lubuli","state":"Lubombo","ISO3166-2-lvl4":"SZ-LU","country":"eSwatini","country_code":"sz"},"osm_type":"node","osm_id":10925604206,"type":"hamlet","location":[31.8464964,-26.9659136],"bbox":[31.8264964,-26.9859136,31.8664964,-26.9459136]}
{"name":"Dlakadla","display_name":"Dlakadla, Inkhundla Lubuli, Lubombo, eSwatini","address":{"hamlet":"Dlakadla","county":"Inkhundla Lubuli","state":"Lubombo","ISO3166-2-lvl4":"SZ-LU","country":"eSwatini","country_code":"sz"},"osm_type":"node","osm_id":10933579656,"type":"hamlet","location":[31.8598878,-26.9672445],"bbox":[31.8398878,-26.9872445,31.8798878,-26.9472445]}
{"name":"Gangakhulu","display_name":"Gangakhulu, Inkhundla Lubuli, Lubombo, eSwatini","address":{"hamlet":"Gangakhulu","county":"Inkhundla Lubuli","state":"Lubombo","ISO3166-2-lvl4":"SZ-LU","country":"eSwatini","country_code":"sz"},"osm_type":"node","osm_id":10933579650,"type":"hamlet","location":[31.9300228,-26.952355],"bbox":[31.9100228,-26.972355,31.9500228,-26.932355]}
{"name":"Ndzevane II","display_name":"Ndzevane II, Inkhundla Lubuli, Lubombo, eSwatini","address":{"hamlet":"Ndzevane II","county":"Inkhundla Lubuli","state":"Lubombo","ISO3166-2-lvl4":"SZ-LU","country":"eSwatini","country_code":"sz"},"osm_type":"node","osm_id":10933579649,"type":"hamlet","location":[31.9730871,-26.9686736],"bbox":[31.9530871,-26.9886736,31.9930871,-26.9486736]}
{"name":"Ematsinyo","display_name":"Ematsinyo, Inkhundla Lubuli, Lubombo, eSwatini","address":{"hamlet":"Ematsinyo","county":"Inkhundla Lubuli","state":"Lubombo","ISO3166-2-lvl4":"SZ-LU","country":"eSwatini","country_code":"sz"},"osm_type":"node","osm_id":10925604210,"type":"hamlet","location":[31.8687634,-26.9446478],"bbox":[31.8487634,-26.9646478,31.8887634,-26.9246478]}
{"name":"Sinyamantulwa","display_name":"Sinyamantulwa, Inkhundla Lubuli, Lubombo, eSwatini","address":{"hamlet":"Sinyamantulwa","county":"Inkhundla Lubuli","state":"Lubombo","ISO3166-2-lvl4":"SZ-LU","country":"eSwatini","country_code":"sz"},"osm_type":"node","osm_id":10933579658,"type":"hamlet","location":[31.8245094,-26.9509715],"bbox":[31.8045094,-26.9709715,31.8445094,-26.9309715]}
{"name":"Mekanduva","display_name":"Mekanduva, Inkhundla Nkilongo, Lubombo, eSwatini","address":{"hamlet":"Mekanduva","county":"Inkhundla Nkilongo","state":"Lubombo","ISO3166-2-lvl4":"SZ-LU","country":"eSwatini","country_code":"sz"},"osm_type":"node","osm_id":10927032674,"type":"hamlet","location":[31.8406364,-26.9159832],"bbox":[31.8206364,-26.9359832,31.8606364,-26.8959832]}
{"name":"Chibilemvubu","display_name":"Chibilemvubu, Inkhundla Lubuli, Lubombo, eSwatini","address":{"hamlet":"Chibilemvubu","county":"Inkhundla Lubuli","state":"Lubombo","ISO3166-2-lvl4":"SZ-LU","country":"eSwatini","country_code":"sz"},"osm_type":"node","osm_id":10934952654,"type":"hamlet","location":[31.9736447,-26.9518447],"bbox":[31.9536447,-26.9718447,31.9936447,-26.9318447]}
{"name":"Mhadlo","display_name":"Mhadlo, Inkhundla Lubuli, Lubombo, eSwatini","address":{"hamlet":"Mhadlo","county":"Inkhundla Lubuli","state":"Lubombo","ISO3166-2-lvl4":"SZ-LU","country":"eSwatini","country_code":"sz"},"osm_type":"node","osm_id":10925604207,"type":"hamlet","location":[31.8282952,-26.9399529],"bbox":[31.8082952,-26.9599529,31.8482952,-26.9199529]}
{"name":"Makosane","display_name":"Makosane, Inkhundla Nkilongo, Lubombo, eSwatini","address":{"hamlet":"Makosane","county":"Inkhundla Nkilongo","state":"Lubombo","ISO3166-2-lvl4":"SZ-LU","country":"eSwatini","country_code":"sz"},"osm_type":"node","osm_id":10925604211,"type":"hamlet","location":[31.9227764,-26.8951988],"bbox":[31.9027764,-26.9151988,31.9427764,-26.8751988]}
{"name":"Fotogaku","display_name":"Fotogaku, Inkhundla Lubuli, Lubombo, eSwatini","address":{"hamlet":"Fotogaku","county":"Inkhundla Lubuli","state":"Lubombo","ISO3166-2-lvl4":"SZ-LU","country":"eSwatini","country_code":"sz"},"osm_type":"node","osm_id":10925604214,"type":"hamlet","location":[31.884127,-26.9776783],"bbox":[31.864127,-26.9976783,31.904127,-26.9576783]}
{"name":"Kamchoza","display_name":"Kamchoza, Inkhundla Nkilongo, Lubombo, eSwatini","address":{"hamlet":"Kamchoza","county":"Inkhundla Nkilongo","state":"Lubombo","ISO3166-2-lvl4":"SZ-LU","country":"eSwatini","country_code":"sz"},"osm_type":"node","osm_id":10933579666,"type":"hamlet","location":[31.9633994,-26.8984786],"bbox":[31.9433994,-26.9184786,31.9833994,-26.8784786]}
{"name":"Madlenya","display_name":"Madlenya, Inkhundla Siphofaneni, Lubombo, eSwatini","address":{"hamlet":"Madlenya","county":"Inkhundla Siphofaneni","state":"Lubombo","ISO3166-2-lvl4":"SZ-LU","country":"eSwatini","country_code":"sz"},"osm_type":"node","osm_id":4416198892,"type":"hamlet","location":[31.7145853,-26.7313996],"bbox":[31.6945853,-26.7513996,31.7345853,-26.7113996]}
{"name":"Vimvane","display_name":"Vimvane, Inkhundla Nkilongo, Lubombo, eSwatini","address":{"hamlet":"Vimvane","county":"Inkhundla Nkilongo","state":"Lubombo","ISO3166-2-lvl4":"SZ-LU","country":"eSwatini","country_code":"sz"},"osm_type":"node","osm_id":10927032420,"type":"hamlet","location":[31.8805753,-26.8518817],"bbox":[31.8605753,-26.8718817,31.9005753,-26.8318817]}
{"name":"Mndobandoba","display_name":"Mndobandoba, Betusile, Inkhundla Nkilongo, Lubombo, eSwatini","address":{"hamlet":"Mndobandoba","village":"Betusile","county":"Inkhundla Nkilongo","state":"Lubombo","ISO3166-2-lvl4":"SZ-LU","country":"eSwatini","country_code":"sz"},"osm_type":"node","osm_id":10933579696,"type":"hamlet","location":[31.8868425,-26.8709444],"bbox":[31.8668425,-26.8909444,31.9068425,-26.8509444]}
{"name":"Rasheni","display_name":"Rasheni, Betusile, Inkhundla Nkilongo, Lubombo, eSwatini","address":{"hamlet":"Rasheni","village":"Betusile","county":"Inkhundla Nkilongo","state":"Lubombo","ISO3166-2-lvl4":"SZ-LU","country":"eSwatini","country_code":"sz"},"osm_type":"node","osm_id":10927032436,"type":"hamlet","location":[31.8912931,-26.8578378],"bbox":[31.8712931,-26.8778378,31.9112931,-26.8378378]}
{"name":"Gucuka","display_name":"Gucuka, Inkhundla Sithobela, Lubombo, eSwatini","address":{"hamlet":"Gucuka","county":"Inkhundla Sithobela","state":"Lubombo","ISO3166-2-lvl4":"SZ-LU","country":"eSwatini","country_code":"sz"},"osm_type":"node","osm_id":4416195108,"type":"hamlet","location":[31.663645,-26.8114948],"bbox":[31.643645,-26.8314948,31.683645,-26.7914948]}
{"name":"St Philips","other_names":{"alt_name":"St Phillips"},"display_name":"St Philips, Inkhundla Sithobela, Lubombo, eSwatini","address":{"hamlet":"St Philips","county":"Inkhundla Sithobela","state":"Lubombo","ISO3166-2-lvl4":"SZ-LU","country":"eSwatini","country_code":"sz"},"osm_type":"node","osm_id":4414784465,"type":"hamlet","location":[31.7693198,-26.8531363],"bbox":[31.7493198,-26.8731363,31.7893198,-26.8331363]}
{"name":"Ngonini","display_name":"Ngonini, Inkhundla Nkilongo, Lubombo, eSwatini","address":{"hamlet":"Ngonini","county":"Inkhundla Nkilongo","state":"Lubombo","ISO3166-2-lvl4":"SZ-LU","country":"eSwatini","country_code":"sz"},"osm_type":"node","osm_id":10933579661,"type":"hamlet","location":[31.9604637,-26.8805174],"bbox":[31.9404637,-26.9005174,31.9804637,-26.8605174]}
{"name":"Geja","display_name":"Geja, Inkhundla Nkilongo, Lubombo, eSwatini","address":{"hamlet":"Geja","county":"Inkhundla Nkilongo","state":"Lubombo","ISO3166-2-lvl4":"SZ-LU","country":"eSwatini","country_code":"sz"},"osm_type":"node","osm_id":10925604213,"type":"hamlet","location":[31.8645305,-26.8468348],"bbox":[31.8445305,-26.8668348,31.8845305,-26.8268348]}
{"name":"Mahlabaneni II","display_name":"Mahlabaneni II, Inkhundla Nkilongo, Lubombo, eSwatini","address":{"hamlet":"Mahlabaneni II","county":"Inkhundla Nkilongo","state":"Lubombo","ISO3166-2-lvl4":"SZ-LU","country":"eSwatini","country_code":"sz"},"osm_type":"node","osm_id":10933579663,"type":"hamlet","location":[31.9862988,-26.8590221],"bbox":[31.9662988,-26.8790221,32.0062988,-26.8390221]}
{"name":"Ludzidzini","display_name":"Ludzidzini, Lobamba, Inkhundla Lobamba, Hhohho, eSwatini","address":{"hamlet":"Ludzidzini","town":"Lobamba","county":"Inkhundla Lobamba","state":"Hhohho","ISO3166-2-lvl4":"SZ-HH","country":"eSwatini","country_code":"sz"},"osm_type":"node","osm_id":2277196022,"type":"hamlet","location":[31.2013017,-26.4596618],"bbox":[31.1813017,-26.4796618,31.2213017,-26.4396618]}
{"name":"Phonjwane","display_name":"Phonjwane, Inkhundla Siphofaneni, Lubombo, eSwatini","address":{"hamlet":"Phonjwane","county":"Inkhundla Siphofaneni","state":"Lubombo","ISO3166-2-lvl4":"SZ-LU","country":"eSwatini","country_code":"sz"},"osm_type":"node","osm_id":4416198894,"type":"hamlet","location":[31.6389899,-26.5950785],"bbox":[31.6189899,-26.6150785,31.6589899,-26.5750785]}
{"name":"Gilgal","display_name":"Gilgal, Inkhundla Dvokodvweni, Lubombo, eSwatini","address":{"hamlet":"Gilgal","county":"Inkhundla Dvokodvweni","state":"Lubombo","ISO3166-2-lvl4":"SZ-LU","country":"eSwatini","country_code":"sz"},"osm_type":"node","osm_id":4416198893,"type":"hamlet","location":[31.6250424,-26.5604594],"bbox":[31.6050424,-26.5804594,31.6450424,-26.5404594]}
{"name":"Nsingweni","display_name":"Nsingweni, Inkhundla Maphalaleni, Hhohho, eSwatini","address":{"hamlet":"Nsingweni","county":"Inkhundla Maphalaleni","state":"Hhohho","ISO3166-2-lvl4":"SZ-HH","country":"eSwatini","country_code":"sz"},"osm_type":"node","osm_id":6629079851,"type":"hamlet","location":[31.3520558,-26.2339278],"bbox":[31.3320558,-26.2539278,31.3720558,-26.2139278]}
{"name":"Mbuluzana","display_name":"Mbuluzana, Inkhundla Mkhiweni, Manzini, eSwatini","address":{"hamlet":"Mbuluzana","county":"Inkhundla Mkhiweni","state":"Manzini","ISO3166-2-lvl4":"SZ-MA","country":"eSwatini","country_code":"sz"},"osm_type":"node","osm_id":1469796522,"type":"hamlet","location":[31.516667,-26.35],"bbox":[31.496667,-26.37,31.536667,-26.33]}
