{"name":"Yankee Town","display_name":"Yankee Town, Providenciales, Turks and Caicos Islands","address":{"town":"Yankee Town","county":"Providenciales","country":"Turks and Caicos Islands","country_code":"tc"},"population":0,"osm_type":"node","osm_id":296261547,"type":"town","location":[-72.4623032,21.64438],"bbox":[-72.5023032,21.60438,-72.4223032,21.68438]}
{"name":"Providenciales","display_name":"Providenciales, Turks and Caicos Islands","address":{"town":"Providenciales","county":"Providenciales","country":"Turks and Caicos Islands","country_code":"tc"},"osm_type":"node","osm_id":3482621890,"type":"town","location":[-72.2611584,21.7778015],"bbox":[-72.3011584,21.7378015,-72.2211584,21.8178015]}
{"name":"Cockburn Harbour","display_name":"Cockburn Harbour, East Caicos, Turks and Caicos Islands","address":{"town":"Cockburn Harbour","county":"East Caicos","country":"Turks and Caicos Islands","country_code":"tc"},"osm_type":"node","osm_id":296255850,"type":"town","location":[-71.5296449,21.498342],"bbox":[-71.5696449,21.458342,-71.4896449,21.538342]}
{"name":"Cockburn Town","other_names":{"name:ar":"كوكبرن تاون","name:az":"Kobərn Taun","name:be":"Коберн-Таўн","name:bg":"Кокбърн Таун","name:br":"Cockburn Town","name:cv":"Коберн-Таун","name:de":"Cockburn Town","name:el":"Κόκμπερν Τάουν","name:en":"Cockburn Town","name:eo":"Kokburno","name:es":"Cockburn Town","name:fr":"Cockburn Town","name:he":"קוקבורן טאון","name:hu":"Cockburn Town","name:it":"Cockburn Town","name:ja":"コックバーンタウン","name:ka":"კოკბერნ-ტაუნი","name:ko":"코크번타운","name:lt":"Kobern Taunas","name:mr":"कॉकबर्न टाउन","name:nl":"Cockburn Town","name:no":"Cockburn Town","name:pl":"Cockburn Town","name:pt":"Cockburn Town","name:ru":"Коберн-Таун","name:sr":"Коберн Таун","name:sv":"Cockburn Town","name:tr":"Cockburn Town","name:uk":"Коберн-Таун","name:zh":"科伯恩城","name:be-tarask":"Кокбэрн Таўн"},"display_name":"Cockburn Town, Grand Turk, Turks and Caicos Islands","address":{"town":"Cockburn Town","county":"Grand Turk","country":"Turks and Caicos Islands","country_code":"tc"},"population":3700,"osm_type":"node","osm_id":296255680,"type":"town","location":[-71.1399956,21.4607723],"bbox":[-71.1799956,21.4207723,-71.0999956,21.5007723]}
{"name":"Lorimers","display_name":"Lorimers, Middle Caicos, Turks and Caicos Islands","address":{"village":"Lorimers","county":"Middle Caicos","country":"Turks and Caicos Islands","country_code":"tc"},"osm_type":"node","osm_id":10825104640,"type":"village","location":[-71.6876579,21.7951569],"bbox":[-71.7076579,21.7751569,-71.6676579,21.8151569]}
{"name":"Kew","display_name":"Kew, North Caicos, Turks and Caicos Islands","address":{"village":"Kew","county":"North Caicos","country":"Turks and Caicos Islands","country_code":"tc"},"osm_type":"node","osm_id":10825104639,"type":"village","location":[-71.9920159,21.9139224],"bbox":[-72.0120159,21.8939224,-71.9720159,21.9339224]}
{"name":"Sandy Point","display_name":"Sandy Point, North Caicos, Turks and Caicos Islands","address":{"village":"Sandy Point","county":"North Caicos","country":"Turks and Caicos Islands","country_code":"tc"},"osm_type":"node","osm_id":9606092705,"type":"village","location":[-72.0352964,21.9513056],"bbox":[-72.0552964,21.9313056,-72.0152964,21.9713056]}
{"name":"Bottle Creek","display_name":"Bottle Creek, North Caicos, Turks and Caicos Islands","address":{"village":"Bottle Creek","county":"North Caicos","country":"Turks and Caicos Islands","country_code":"tc"},"osm_type":"node","osm_id":9606060731,"type":"village","location":[-71.9189291,21.8879831],"bbox":[-71.9389291,21.8679831,-71.8989291,21.9079831]}
{"name":"Whitby","display_name":"Whitby, North Caicos, Turks and Caicos Islands","address":{"village":"Whitby","county":"North Caicos","country":"Turks and Caicos Islands","country_code":"tc"},"osm_type":"node","osm_id":6349618576,"type":"village","location":[-71.9644697,21.9545308],"bbox":[-71.9844697,21.9345308,-71.9444697,21.9745308]}
{"name":"Wheeland","display_name":"Wheeland, Providenciales, Turks and Caicos Islands","address":{"village":"Wheeland","county":"Providenciales","country":"Turks and Caicos Islands","country_code":"tc"},"osm_type":"node","osm_id":329969265,"type":"village","location":[-72.2868218,21.8202206],"bbox":[-72.3068218,21.8002206,-72.2668218,21.8402206]}
{"name":"Conch Bar","display_name":"Conch Bar, Middle Caicos, Turks and Caicos Islands","address":{"village":"Conch Bar","county":"Middle Caicos","country":"Turks and Caicos Islands","country_code":"tc"},"osm_type":"node","osm_id":296260716,"type":"village","location":[-71.7991753,21.8295074],"bbox":[-71.8191753,21.8095074,-71.7791753,21.8495074]}
{"name":"Balfour Town","display_name":"Balfour Town, Salt Cay, Turks and Caicos Islands","address":{"village":"Balfour Town","county":"Salt Cay","country":"Turks and Caicos Islands","country_code":"tc"},"osm_type":"node","osm_id":296255862,"type":"village","location":[-71.2107233,21.3321102],"bbox":[-71.2307233,21.3121102,-71.1907233,21.3521102]}
{"display_name":"Lorimers, Middle Caicos, Turks and Caicos Islands","address":{"village":"Lorimers","county":"Middle Caicos","country":"Turks and Caicos Islands","country_code":"tc"},"osm_type":"way","osm_id":522115985,"type":"hamlet","location":[-71.68676952648202,21.7952002],"bbox":[-71.6907156,21.7931057,-71.682905,21.7975835]}
{"name":"Bambarra","display_name":"Bambarra, Middle Caicos, Turks and Caicos Islands","address":{"hamlet":"Bambarra","county":"Middle Caicos","country":"Turks and Caicos Islands","country_code":"tc"},"osm_type":"node","osm_id":9606092706,"type":"hamlet","location":[-71.7237125,21.8165112],"bbox":[-71.7437125,21.7965112,-71.7037125,21.8365112]}
