{"name":"Road Town","other_names":{"name:ar":"رود تاون","name:az":"Roud Taun","name:be":"Род-Таўн","name:bg":"Роуд Таун","name:de":"Road Town","name:el":"Ρόουντ Τάουν","name:en":"Road Town","name:eo":"Rod-Taŭno","name:es":"Road Town","name:fr":"Road Town","name:he":"רואוד טאון","name:hu":"Road Town","name:it":"Road Town","name:ja":"ロードタウン","name:ka":"როუდ-ტაუნი","name:ko":"로드타운","name:la":"Oppidum Viae","name:lt":"Rod Taunas","name:mk":"Роуд Таун","name:nl":"Road Town","name:no":"Road Town","name:pl":"Road Town","name:pt":"Road Town","name:ru":"Род-Таун","name:sr":"Роуд Таун","name:sv":"Road Town","name:tr":"Road Town","name:uk":"Род-Таун","name:zh":"羅德城","name:be-tarask":"Роўд Таўн"},"display_name":"Road Town, Tortola, VG1110, British Virgin Islands","address":{"town":"Road Town","district":"Tortola","postcode":"VG1110","country":"British Virgin Islands","country_code":"vg"},"population":12603,"osm_type":"node","osm_id":280972174,"type":"town","location":[-64.6232227,18.4257128],"bbox":[-64.6632227,18.3857128,-64.5832227,18.4657128]}
{"name":"East End","other_names":{"name:en":"East End","name:mk":"Ист Енд"},"display_name":"East End, Tortola, VG1120, British Virgin Islands","address":{"town":"East End","district":"Tortola","postcode":"VG1120","country":"British Virgin Islands","country_code":"vg"},"osm_type":"node","osm_id":2322700968,"type":"town","location":[-64.5569031,18.4411609],"bbox":[-64.5969031,18.4011609,-64.5169031,18.4811609]}
{"name":"Spanish Town","other_names":{"name:en":"Spanish Town","name:mk":"Спениш Таун"},"display_name":"Spanish Town, Virgin Gorda, VG1150, British Virgin Islands","address":{"town":"Spanish Town","district":"Virgin Gorda","postcode":"VG1150","country":"British Virgin Islands","country_code":"vg"},"population":3930,"osm_type":"node","osm_id":280976933,"type":"town","location":[-64.4346277,18.4463642],"bbox":[-64.4746277,18.4063642,-64.3946277,18.4863642]}
{"name":"Little Mountain","other_names":{"name:en":"Little Mountain","name:mk":"Литл Маунтан"},"display_name":"Little Mountain, Other British Virgin Islands, VG1120, British Virgin Islands","address":{"town":"Little Mountain","district":"Other British Virgin Islands","postcode":"VG1120","country":"British Virgin Islands","country_code":"vg"},"osm_type":"node","osm_id":2322695216,"type":"town","location":[-64.5510129,18.4497712],"bbox":[-64.5910129,18.4097712,-64.5110129,18.4897712]}
{"name":"Olde Yard Village","display_name":"Olde Yard Village, Virgin Gorda, British Virgin Islands","address":{"village":"Olde Yard Village","district":"Virgin Gorda","country":"British Virgin Islands","country_code":"vg"},"osm_type":"way","osm_id":398266456,"type":"village","location":[-64.42966512122311,18.45524865],"bbox":[-64.4299426,18.4542196,-64.4293296,18.4562957]}
{"name":"The Settlement","other_names":{"name:en":"The Settlement","name:mk":"Сетлмент"},"display_name":"The Settlement, Anegada, British Virgin Islands","address":{"village":"The Settlement","district":"Anegada","country":"British Virgin Islands","country_code":"vg"},"osm_type":"node","osm_id":4845386255,"type":"village","location":[-64.3170977,18.7204791],"bbox":[-64.3370977,18.7004791,-64.2970977,18.7404791]}
{"name":"Belle Vue","display_name":"Belle Vue, Jost Van Dyke, British Virgin Islands","address":{"hamlet":"Belle Vue","district":"Jost Van Dyke","country":"British Virgin Islands","country_code":"vg"},"osm_type":"node","osm_id":6350156319,"type":"hamlet","location":[-64.7502326,18.4457065],"bbox":[-64.7702326,18.4257065,-64.7302326,18.4657065]}
{"name":"Pockwood Pond","other_names":{"name:en":"Pockwood Pond","name:mk":"Поквуд Понд"},"display_name":"Pockwood Pond, Tortola, VG1130, British Virgin Islands","address":{"hamlet":"Pockwood Pond","district":"Tortola","postcode":"VG1130","country":"British Virgin Islands","country_code":"vg"},"osm_type":"node","osm_id":5478634470,"type":"hamlet","location":[-64.6563399,18.3923917],"bbox":[-64.6763399,18.3723917,-64.6363399,18.4123917]}
{"name":"Leverick Bay","other_names":{"name:en":"Leverick Bay","name:mk":"Леверик Беј"},"display_name":"Leverick Bay, Virgin Gorda, VG1150, British Virgin Islands","address":{"hamlet":"Leverick Bay","district":"Virgin Gorda","postcode":"VG1150","country":"British Virgin Islands","country_code":"vg"},"osm_type":"node","osm_id":6350187453,"type":"hamlet","location":[-64.3844737,18.4971655],"bbox":[-64.4044737,18.4771655,-64.3644737,18.5171655]}
