{"name":"上海市","other_names":{"ref":"沪","name:ar":"شانغهاي","name:az":"Şanxay","name:ba":"Шанхай","name:bg":"Шанхай","name:ca":"Xangai","name:cs":"Šanghaj","name:da":"Shanghai","name:de":"Shanghai","name:el":"Σαγκάη","name:en":"Shanghai","name:eo":"Ŝanhajo","name:es":"Shanghái","name:et":"Shanghai","name:eu":"Shanghai","name:fi":"Shanghai","name:fr":"Shanghaï","name:he":"שאנגחאי","name:hi":"शंघाई","name:hr":"Šangaj","name:hu":"Shanghai","name:ia":"Shanghai","name:id":"Shanghai","name:io":"Shanghai","name:it":"Shanghai","name:ja":"上海市","name:kk":"Шаңхай","name:kn":"ಶಾಂಗ್‌ಹೈ","name:ko":"상하이","name:ku":"Şanghay","name:lt":"Šanchajus","name:mi":"Hangahai","name:ml":"ഷാങ്ഹായ്","name:ms":"Shanghai","name:nl":"Shanghai","name:oc":"Shanghai","name:pl":"Szanghaj","name:pt":"Xangai","name:ru":"Шанхай","name:sk":"Šanghaj","name:sr":"Шангај","name:su":"Shanghai","name:sv":"Shanghai","name:ta":"சாங்காய்","name:th":"เซี่ยงไฮ้","name:tl":"Shanghai","name:tr":"Şanhay","name:tt":"Шаңхай","name:uk":"Шанхай","name:ur":"شنگھائی","name:uz":"Shanxay","name:vi":"Thượng Hải","name:zh":"上海市","int_name":"Shanghai","name:cdo":"Siông-hāi","name:ceb":"Shanghai","name:gan":"上海","name:hak":"Sông-hói","name:jbo":".canxais.","name:lzh":"上海市","name:nan":"Siōng-hái-chhī","name:wuu":"上海市","name:yue":"上海市","alt_name:ar":"شنغهاي","alt_name:cs":"Šang-chaj","alt_name:tr":"Şanghay","name:zh-Hans":"上海市","name:zh-Hant":"上海市","name:ko_hanja":"上海市","name:zh_pinyin":"Shànghǎi Shì"},"display_name":"上海市, 黄浦区, 上海市, 200001, 中国","address":{"city":"上海市","state":"上海市","ISO3166-2-lvl4":"CN-SH","postcode":"200001","country":"中国","country_code":"cn"},"population":24870895,"osm_type":"node","osm_id":778910398,"type":"city","location":[121.4691024,31.2323437],"bbox":[121.3091024,31.0723437,121.6291024,31.3923437]}
